<?xml version="1.0" encoding="UTF-8"?>
<kml xmlns="http://www.opengis.net/kml/2.2">
<Document id="prb_72hsnow_ge02_f072">
<name>WPC 72-Hr Prob of Snow > 2"</name>
  <open>1</open>
  <snippet>Valid 12Z 09/27/2026 - 12Z 09/30/2026</snippet>
  <description></description>
    <Style id="poly_1">
        <IconStyle>
           <color>00000000</color>
           <scale>1</scale>
        </IconStyle>
        <LabelStyle>
            <color>ff26478b</color>
            <scale>0.8</scale>
        </LabelStyle>
        <LineStyle>
            <color>6626478b</color>
            <width>0</width>
        </LineStyle>
	<PolyStyle>
            <color>6626478b</color>
	</PolyStyle>
        <BalloonStyle>
            <text>
                <![CDATA[ <table border=0 width="300"><tr><td style="font-size:10pt;">
                During this forecast period, there is a <b>1-5%</b> probability of snowfall exceeding the depicted amount in the enclosed area.
                <br/><br/>
                *<span style="font-size:8pt;">Note that in cases where this contour is embedded within a 5% contour, 
                the probability of snowfall exceeding the depicted amount is &lt;1%.</span>
                </td></tr></table>]]>
            </text>
        </BalloonStyle>
    </Style>

    <Style id="poly_5">
        <IconStyle>
           <color>00000000</color>
           <scale>1</scale>
        </IconStyle>
        <LabelStyle>
            <color>ff00eeee</color>
            <scale>0.8</scale>
        </LabelStyle>
        <LineStyle>
            <color>6600eeee</color>
            <width>0.4</width>
        </LineStyle>
	<PolyStyle>
	    <color>6600eeee</color>
	</PolyStyle>
        <BalloonStyle>
            <text>
                <![CDATA[ <table border=0 width="300"><tr><td style="font-size:10pt;">
                During this forecast period, there is a <b>5-10%</b> probability of snowfall exceeding the depicted amount in the enclosed area.
                <br/><br/>
                *<span style="font-size:8pt;">Note that in cases where this contour is embedded within a 10% contour, 
                the probability of snowfall exceeding the depicted amount is &lt;5%.</span>
                </td></tr></table>]]>
            </text>
        </BalloonStyle>
    </Style>

    <Style id="poly_10">
        <IconStyle>
           <color>00000000</color>
           <scale>1</scale>
        </IconStyle>
        <LabelStyle>
            <color>ff00ff7f</color>
            <scale>0.8</scale>
        </LabelStyle>
        <LineStyle>
            <color>6600ff7f</color>
            <width>0.4</width>
        </LineStyle>
	<PolyStyle>
	    <color>6600ff7f</color>
	</PolyStyle>
        <BalloonStyle>
            <text>
                <![CDATA[ <table border=0 width="300"><tr><td style="font-size:10pt;">
                During this forecast period, there is a <b>10-20%</b> probability of snowfall exceeding the depicted amount in the enclosed area.
                <br/><br/>
                *<span style="font-size:8pt;">Note that in cases where this contour is embedded within a 20% contour, 
                the probability of snowfall exceeding the depicted amount is &lt;10%.</span>
                </td></tr></table>]]>
            </text>
        </BalloonStyle>
    </Style>
    
    <Style id="poly_20">
        <IconStyle>
            <color>00000000</color>
            <scale>1</scale>
        </IconStyle>
        <LabelStyle>
            <color>ff00cd00</color>
            <scale>0.8</scale>
        </LabelStyle>
        <LineStyle>
            <color>6600cd00</color>
	    <width>0.4</width>
	</LineStyle>
	<PolyStyle>
	    <color>6600cd00</color>
	</PolyStyle>
        <BalloonStyle>
            <text>
                <![CDATA[ <table border=0 width="300"><tr><td style="font-size:10pt;">
                During this forecast period, there is a <b>20-30%</b> probability of snowfall exceeding the depicted amount in the enclosed area.
                <br/><br/>
                *<span style="font-size:8pt;">Note that in cases where this contour is embedded within a 30% contour, 
                the probability of snowfall exceeding the depicted amount is &lt;20%.</span>
                </td></tr></table>]]>
            </text>
        </BalloonStyle>
    </Style>

    <Style id="poly_30">
        <IconStyle>
            <color>00000000</color>
            <scale>1</scale>
        </IconStyle>
        <LabelStyle>
            <color>ff008b00</color>
            <scale>0.8</scale>
        </LabelStyle>
        <LineStyle>
            <color>66008b00</color>
	    <width>0.4</width>
	</LineStyle>
	<PolyStyle>
	    <color>66008b00</color>
	</PolyStyle>
        <BalloonStyle>
            <text>
                <![CDATA[ <table border=0 width="300"><tr><td style="font-size:10pt;">
                During this forecast period, there is a <b>30-40%</b> probability of snowfall exceeding the depicted amount in the enclosed area.
                <br/><br/>
                *<span style="font-size:8pt;">Note that in cases where this contour is embedded within a 40% contour, 
                the probability of snowfall exceeding the depicted amount is &lt;30%.</span>
                </td></tr></table>]]>
            </text>
        </BalloonStyle>
    </Style>

    <Style id="poly_40">
        <IconStyle>
            <color>00000000</color>
            <scale>1</scale>
        </IconStyle>
        <LabelStyle>
            <color>ff8b4e10</color>
            <scale>0.8</scale>
        </LabelStyle>
        <LineStyle>
            <color>668b4e10</color>
	    <width>0.4</width>
	</LineStyle>
	<PolyStyle>
	    <color>668b4e10</color>
	</PolyStyle>
        <BalloonStyle>
            <text>
                <![CDATA[ <table border=0 width="300"><tr><td style="font-size:10pt;">
                During this forecast period, there is a <b>40-50%</b> probability of snowfall exceeding the depicted amount in the enclosed area.
                <br/><br/>
                *<span style="font-size:8pt;">Note that in cases where this contour is embedded within a 50% contour, 
                the probability of snowfall exceeding the depicted amount is &lt;40%.</span>
                </td></tr></table>]]>
            </text>
        </BalloonStyle>
    </Style>

    <Style id="poly_50">
        <IconStyle>
            <color>00000000</color>
            <scale>1</scale>
        </IconStyle>
        <LabelStyle>
            <color>ffff901e</color>
            <scale>0.8</scale>
        </LabelStyle>
        <LineStyle>
            <color>66ff901e</color>
	    <width>0.4</width>
	</LineStyle>
	<PolyStyle>
	    <color>66ff901e</color>
	</PolyStyle>
        <BalloonStyle>
            <text>
                <![CDATA[ <table border=0 width="300"><tr><td style="font-size:10pt;">
                During this forecast period, there is a <b>50-60%</b> probability of snowfall exceeding the depicted amount in the enclosed area.
                <br/><br/>
                *<span style="font-size:8pt;">Note that in cases where this contour is embedded within a 60% contour, 
                the probability of snowfall exceeding the depicted amount is &lt;50%.</span>
                </td></tr></table>]]>
            </text>
        </BalloonStyle>
    </Style>

    <Style id="poly_60">
        <IconStyle>
            <color>00000000</color>
            <scale>1</scale>
        </IconStyle>
        <LabelStyle>
            <color>ffeeb200</color>
            <scale>0.8</scale>
        </LabelStyle>
        <LineStyle>
            <color>66eeb200</color>
	    <width>0.4</width>
	</LineStyle>
	<PolyStyle>
	    <color>66eeb200</color>
	</PolyStyle>
        <BalloonStyle>
            <text>
                <![CDATA[ <table border=0 width="300"><tr><td style="font-size:10pt;">
                During this forecast period, there is a <b>60-70%</b> probability of snowfall exceeding the depicted amount in the enclosed area.
                <br/><br/>
                *<span style="font-size:8pt;">Note that in cases where this contour is embedded within a 70% contour, 
                the probability of snowfall exceeding the depicted amount is &lt;60%.</span>
                </td></tr></table>]]>
            </text>
        </BalloonStyle>
    </Style>
    
    <Style id="poly_70">
        <IconStyle>
            <color>00000000</color>
            <scale>1</scale>
        </IconStyle>
        <LabelStyle>
            <color>ffeeee00</color>
            <scale>0.8</scale>
        </LabelStyle>
        <LineStyle>
            <color>66eeee00</color>
	    <width>0.4</width>
	</LineStyle>
	<PolyStyle>
	    <color>66eeee00</color>
	</PolyStyle>
        <BalloonStyle>
            <text>
                <![CDATA[ <table border=0 width="300"><tr><td style="font-size:10pt;">
                During this forecast period, there is a <b>70-80%</b> probability of snowfall exceeding the depicted amount in the enclosed area.
                <br/><br/>
                *<span style="font-size:8pt;">Note that in cases where this contour is embedded within a 80% contour, 
                the probability of snowfall exceeding the depicted amount is &lt;70%.</span>
                </td></tr></table>]]>
            </text>
        </BalloonStyle>
    </Style>

    <Style id="poly_80">
        <IconStyle>
            <color>00000000</color>
            <scale>1</scale>
        </IconStyle>
        <LabelStyle>
            <color>ff4782ff</color>
            <scale>0.8</scale>
        </LabelStyle>
        <LineStyle>
            <color>664782ff</color>
	    <width>0.4</width>
	</LineStyle>
	<PolyStyle>
	    <color>664782ff</color>
	</PolyStyle>
        <BalloonStyle>
            <text>
                <![CDATA[ <table border=0 width="300"><tr><td style="font-size:10pt;">
                During this forecast period, there is a <b>80-90%</b> probability of snowfall exceeding the depicted amount in the enclosed area.
                <br/><br/>
                *<span style="font-size:8pt;">Note that in cases where this contour is embedded within a 90% contour, 
                the probability of snowfall exceeding the depicted amount is &lt;80%.</span>
                </td></tr></table>]]>
            </text>
        </BalloonStyle>
    </Style>

    <Style id="poly_90">
        <IconStyle>
            <color>00000000</color>
            <scale>1</scale>
        </IconStyle>
        <LabelStyle>
            <color>ff2c2cee</color>
            <scale>0.8</scale>
        </LabelStyle>
        <LineStyle>
            <color>662c2cee</color>
            <width>0.4</width>
        </LineStyle>
        <PolyStyle>
            <color>662c2cee</color>
        </PolyStyle>
        <BalloonStyle>
            <text>
                <![CDATA[ <table border=0 width="300"><tr><td style="font-size:10pt;">
                During this forecast period, there is a <b>90-95%</b> probability of snowfall exceeding the depicted amount in the enclosed area.
                <br/><br/>
                *<span style="font-size:8pt;">Note that in cases where this contour is embedded within a 95% contour, 
                the probability of snowfall exceeding the depicted amount is &lt;90%.</span>
                </td></tr></table>]]>
            </text>
        </BalloonStyle>
    </Style>

    <Style id="poly_95">
        <IconStyle>
            <color>00000000</color>
            <scale>1</scale>
        </IconStyle>
        <LabelStyle>
            <color>ff00008b</color>
            <scale>0.8</scale>
        </LabelStyle>
        <LineStyle>
            <color>6600008b</color>
	    <width>0.4</width>
	</LineStyle>
	<PolyStyle>
	    <color>6600008b</color>
	</PolyStyle>
        <BalloonStyle>
            <text>
                <![CDATA[ <table border=0 width="300"><tr><td style="font-size:10pt;">
                The probability of snowfall exceeding the depicted amount is <b>&ge;95%</b> in the enclosed area during this forecast period.
                </td></tr></table>]]>
            </text>
        </BalloonStyle>
    </Style>

  <ScreenOverlay>
    <name>Logos</name>
    <description></description>
    <Icon>
      <href>https://www.wpc.ncep.noaa.gov/images/noaa_and_nws_logo.png</href>
    </Icon>
   <overlayXY x=".01" y=".01" xunits="fraction" yunits="fraction" />
   <screenXY x=".01" y=".01" xunits="fraction" yunits="fraction" />
   <rotationXY x="0" y="0" xunits="fraction" yunits="fraction" />
   <size x="-1" y="-1" xunits="fraction" yunits="fraction" />
  </ScreenOverlay>
    <Folder>
      <name>Snow Probabilities</name>
      <open>0</open>
<Placemark>
  <name>1%</name>
  <visibility>1</visibility>
  <styleUrl>#poly_1</styleUrl>
  <MultiGeometry>
    <Polygon>
      <outerBoundaryIs>
        <LinearRing>
          <coordinates>
-118.31,51.71,0 -118.20,51.73,0 -118.09,51.74,0 -117.99,51.76,0 -117.89,51.77,0 -117.81,51.78,0 -117.70,51.79,0 -117.61,51.80,0 -117.52,51.79,0 -117.43,51.76,0 -117.35,51.71,0 -117.28,51.68,0 -117.20,51.69,0 -117.15,51.74,0 -117.09,51.80,0 -117.02,51.85,0 -116.96,51.87,0 -116.88,51.88,0 -116.78,51.89,0 -116.69,51.90,0 -116.58,51.91,0 -116.46,51.92,0 -116.34,51.92,0 -116.25,51.92,0 -116.14,51.90,0 -116.06,51.85,0 -116.00,51.81,0 -115.96,51.77,0 -115.95,51.72,0 -115.94,51.66,0 -115.93,51.60,0 -115.93,51.54,0 -115.92,51.46,0 -115.92,51.39,0 -115.93,51.33,0 -115.94,51.27,0 -115.97,51.21,0 -116.00,51.16,0 -116.04,51.11,0 -116.11,51.07,0 -116.21,51.04,0 -116.29,51.00,0 -116.34,50.96,0 -116.34,50.91,0 -116.31,50.85,0 -116.26,50.79,0 -116.21,50.73,0 -116.15,50.67,0 -116.07,50.62,0 -116.00,50.56,0 -115.96,50.50,0 -115.96,50.43,0 -115.99,50.36,0 -116.03,50.30,0 -116.08,50.24,0 -116.15,50.18,0 -116.23,50.14,0 -116.31,50.10,0 -116.39,50.06,0 -116.47,50.03,0 -116.55,50.01,0 -116.64,50.01,0 -116.72,50.02,0 -116.81,50.05,0 -116.88,50.08,0 -116.95,50.13,0 -117.02,50.17,0 -117.07,50.22,0 -117.10,50.28,0 -117.11,50.35,0 -117.16,50.40,0 -117.22,50.42,0 -117.31,50.44,0 -117.40,50.45,0 -117.50,50.47,0 -117.59,50.50,0 -117.67,50.54,0 -117.75,50.59,0 -117.84,50.64,0 -117.92,50.69,0 -118.00,50.74,0 -118.06,50.78,0 -118.14,50.84,0 -118.19,50.89,0 -118.23,50.92,0 -118.34,50.92,0 -118.42,50.91,0 -118.52,50.90,0 -118.62,50.91,0 -118.71,50.93,0 -118.79,50.96,0 -118.86,51.02,0 -118.89,51.07,0 -118.92,51.14,0 -118.94,51.21,0 -118.95,51.27,0 -118.95,51.33,0 -118.91,51.40,0 -118.84,51.46,0 -118.76,51.50,0 -118.68,51.53,0 -118.60,51.54,0 -118.52,51.54,0 -118.31,51.71,0 
          </coordinates>
        </LinearRing>
      </outerBoundaryIs>
      <innerBoundaryIs>
        <LinearRing>
          <coordinates>
-118.28,51.61,1000 -118.20,51.65,1000 -118.12,51.69,1000 -118.04,51.72,1000 -117.96,51.74,1000 -117.89,51.75,1000 -117.80,51.75,1000 -117.72,51.74,1000 -117.63,51.72,1000 -117.54,51.70,1000 -117.45,51.66,1000 -117.39,51.61,1000 -117.33,51.55,1000 -117.27,51.48,1000 -117.22,51.43,1000 -117.17,51.41,1000 -117.14,51.44,1000 -117.11,51.50,1000 -117.09,51.58,1000 -117.07,51.65,1000 -117.04,51.71,1000 -116.98,51.76,1000 -116.91,51.80,1000 -116.84,51.83,1000 -116.77,51.85,1000 -116.68,51.87,1000 -116.58,51.88,1000 -116.49,51.88,1000 -116.40,51.87,1000 -116.30,51.85,1000 -116.22,51.82,1000 -116.16,51.79,1000 -116.10,51.75,1000 -116.05,51.70,1000 -116.02,51.65,1000 -116.02,51.60,1000 -116.03,51.55,1000 -116.05,51.49,1000 -116.08,51.43,1000 -116.11,51.39,1000 -116.18,51.34,1000 -116.26,51.30,1000 -116.35,51.28,1000 -116.44,51.27,1000 -116.53,51.28,1000 -116.61,51.28,1000 -116.73,51.27,1000 -116.80,51.24,1000 -116.78,51.20,1000 -116.71,51.16,1000 -116.65,51.10,1000 -116.61,51.05,1000 -116.58,50.99,1000 -116.54,50.93,1000 -116.50,50.87,1000 -116.46,50.82,1000 -116.41,50.78,1000 -116.36,50.73,1000 -116.31,50.68,1000 -116.27,50.64,1000 -116.22,50.58,1000 -116.19,50.52,1000 -116.17,50.47,1000 -116.17,50.41,1000 -116.18,50.36,1000 -116.21,50.31,1000 -116.24,50.27,1000 -116.29,50.23,1000 -116.34,50.20,1000 -116.41,50.17,1000 -116.48,50.15,1000 -116.57,50.15,1000 -116.65,50.16,1000 -116.73,50.18,1000 -116.82,50.20,1000 -116.90,50.24,1000 -116.96,50.28,1000 -117.01,50.34,1000 -117.07,50.40,1000 -117.12,50.45,1000 -117.18,50.49,1000 -117.25,50.51,1000 -117.31,50.52,1000 -117.38,50.52,1000 -117.47,50.56,1000 -117.52,50.59,1000 -117.57,50.63,1000 -117.63,50.68,1000 -117.69,50.73,1000 -117.75,50.78,1000 -117.82,50.83,1000 -117.88,50.88,1000 -117.95,50.92,1000 -118.02,50.95,1000 -118.12,50.98,1000 -118.22,51.00,1000 -118.33,51.01,1000 -118.44,51.01,1000 -118.54,51.02,1000 -118.63,51.03,1000 -118.70,51.04,1000 -118.79,51.09,1000 -118.83,51.14,1000 -118.84,51.19,1000 -118.85,51.24,1000 -118.83,51.30,1000 -118.79,51.35,1000 -118.74,51.39,1000 -118.67,51.42,1000 -118.59,51.46,1000 -118.51,51.49,1000 -118.28,51.61,1000 
          </coordinates>
        </LinearRing>
      </innerBoundaryIs>
  </Polygon>
 </MultiGeometry>
</Placemark>
<Placemark>
  <name>1%</name>
  <visibility>1</visibility>
  <styleUrl>#poly_1</styleUrl>
  <MultiGeometry>
    <Polygon>
      <outerBoundaryIs>
        <LinearRing>
          <coordinates>
-124.42,50.96,0 -124.37,50.97,0 -124.32,50.98,0 -124.27,50.99,0 -124.22,51.00,0 -124.17,51.01,0 -124.12,51.02,0 -124.07,51.03,0 -124.02,51.04,0 -123.97,51.04,0 -123.92,51.05,0 -123.87,51.06,0 -123.82,51.06,0 -123.76,51.07,0 -123.71,51.07,0 -123.66,51.08,0 -123.60,51.09,0 -123.54,51.10,0 -123.47,51.10,0 -123.41,51.11,0 -123.36,51.12,0 -123.31,51.12,0 -123.25,51.13,0 -123.20,51.13,0 -123.15,51.13,0 -123.09,51.12,0 -123.04,51.10,0 -122.98,51.08,0 -122.93,51.06,0 -122.89,51.03,0 -122.86,51.00,0 -122.85,50.97,0 -122.84,50.94,0 -122.83,50.90,0 -122.82,50.87,0 -122.81,50.84,0 -122.80,50.81,0 -122.79,50.77,0 -122.78,50.74,0 -122.79,50.71,0 -122.81,50.68,0 -122.84,50.65,0 -122.87,50.62,0 -122.91,50.59,0 -122.94,50.56,0 -122.96,50.54,0 -122.97,50.52,0 -122.96,50.50,0 -122.95,50.46,0 -122.93,50.43,0 -122.93,50.39,0 -122.93,50.35,0 -122.95,50.32,0 -122.98,50.28,0 -123.01,50.25,0 -123.05,50.22,0 -123.08,50.19,0 -123.10,50.17,0 -123.14,50.16,0 -123.17,50.14,0 -123.22,50.11,0 -123.27,50.08,0 -123.32,50.06,0 -123.38,50.06,0 -123.44,50.07,0 -123.50,50.09,0 -123.55,50.10,0 -123.60,50.10,0 -123.63,50.12,0 -123.68,50.14,0 -123.74,50.16,0 -123.79,50.19,0 -123.84,50.21,0 -123.87,50.23,0 -123.91,50.25,0 -123.95,50.27,0 -124.00,50.29,0 -124.06,50.31,0 -124.12,50.33,0 -124.16,50.35,0 -124.21,50.37,0 -124.25,50.39,0 -124.31,50.41,0 -124.37,50.43,0 -124.43,50.45,0 -124.47,50.48,0 -124.50,50.51,0 -124.52,50.55,0 -124.53,50.59,0 -124.54,50.63,0 -124.55,50.66,0 -124.56,50.70,0 -124.57,50.73,0 -124.57,50.77,0 -124.58,50.80,0 -124.42,50.96,0 
          </coordinates>
        </LinearRing>
      </outerBoundaryIs>
      <innerBoundaryIs>
        <LinearRing>
          <coordinates>
-124.38,50.86,1000 -124.34,50.88,1000 -124.31,50.91,1000 -124.27,50.93,1000 -124.24,50.95,1000 -124.20,50.97,1000 -124.16,50.98,1000 -124.11,50.99,1000 -124.06,51.00,1000 -124.01,51.01,1000 -123.96,51.01,1000 -123.91,51.02,1000 -123.86,51.03,1000 -123.81,51.04,1000 -123.76,51.05,1000 -123.71,51.05,1000 -123.66,51.06,1000 -123.61,51.07,1000 -123.56,51.07,1000 -123.51,51.08,1000 -123.45,51.08,1000 -123.40,51.08,1000 -123.35,51.08,1000 -123.30,51.07,1000 -123.25,51.06,1000 -123.20,51.05,1000 -123.15,51.04,1000 -123.12,51.03,1000 -123.08,51.02,1000 -123.06,51.00,1000 -123.04,50.98,1000 -123.01,50.96,1000 -122.97,50.94,1000 -122.94,50.91,1000 -122.92,50.89,1000 -122.90,50.86,1000 -122.90,50.83,1000 -122.90,50.80,1000 -122.91,50.77,1000 -122.93,50.74,1000 -122.94,50.71,1000 -122.95,50.69,1000 -122.97,50.67,1000 -122.99,50.65,1000 -123.00,50.63,1000 -123.01,50.60,1000 -123.02,50.57,1000 -123.03,50.54,1000 -123.04,50.51,1000 -123.04,50.48,1000 -123.04,50.44,1000 -123.04,50.40,1000 -123.04,50.37,1000 -123.05,50.34,1000 -123.06,50.31,1000 -123.08,50.28,1000 -123.12,50.26,1000 -123.15,50.24,1000 -123.19,50.23,1000 -123.23,50.21,1000 -123.27,50.19,1000 -123.32,50.18,1000 -123.36,50.17,1000 -123.41,50.17,1000 -123.45,50.17,1000 -123.50,50.17,1000 -123.55,50.18,1000 -123.59,50.18,1000 -123.63,50.19,1000 -123.68,50.20,1000 -123.70,50.22,1000 -123.74,50.24,1000 -123.78,50.26,1000 -123.82,50.28,1000 -123.87,50.31,1000 -123.91,50.33,1000 -123.94,50.35,1000 -123.97,50.37,1000 -124.00,50.38,1000 -124.03,50.39,1000 -124.08,50.41,1000 -124.12,50.43,1000 -124.17,50.45,1000 -124.22,50.47,1000 -124.25,50.48,1000 -124.29,50.49,1000 -124.31,50.50,1000 -124.33,50.52,1000 -124.36,50.54,1000 -124.39,50.57,1000 -124.42,50.59,1000 -124.44,50.62,1000 -124.46,50.65,1000 -124.47,50.68,1000 -124.46,50.70,1000 -124.46,50.73,1000 -124.45,50.76,1000 -124.43,50.79,1000 -124.42,50.82,1000 -124.38,50.86,1000 
          </coordinates>
        </LinearRing>
      </innerBoundaryIs>
  </Polygon>
 </MultiGeometry>
</Placemark>
<Placemark>
  <name>5%</name>
  <visibility>1</visibility>
  <styleUrl>#poly_5</styleUrl>
  <MultiGeometry>
    <Polygon>
      <outerBoundaryIs>
        <LinearRing>
          <coordinates>
-118.28,51.61,1000 -118.20,51.65,1000 -118.12,51.69,1000 -118.04,51.72,1000 -117.96,51.74,1000 -117.89,51.75,1000 -117.80,51.75,1000 -117.72,51.74,1000 -117.63,51.72,1000 -117.54,51.70,1000 -117.45,51.66,1000 -117.39,51.61,1000 -117.33,51.55,1000 -117.27,51.48,1000 -117.22,51.43,1000 -117.17,51.41,1000 -117.14,51.44,1000 -117.11,51.50,1000 -117.09,51.58,1000 -117.07,51.65,1000 -117.04,51.71,1000 -116.98,51.76,1000 -116.91,51.80,1000 -116.84,51.83,1000 -116.77,51.85,1000 -116.68,51.87,1000 -116.58,51.88,1000 -116.49,51.88,1000 -116.40,51.87,1000 -116.30,51.85,1000 -116.22,51.82,1000 -116.16,51.79,1000 -116.10,51.75,1000 -116.05,51.70,1000 -116.02,51.65,1000 -116.02,51.60,1000 -116.03,51.55,1000 -116.05,51.49,1000 -116.08,51.43,1000 -116.11,51.39,1000 -116.18,51.34,1000 -116.26,51.30,1000 -116.35,51.28,1000 -116.44,51.27,1000 -116.53,51.28,1000 -116.61,51.28,1000 -116.73,51.27,1000 -116.80,51.24,1000 -116.78,51.20,1000 -116.71,51.16,1000 -116.65,51.10,1000 -116.61,51.05,1000 -116.58,50.99,1000 -116.54,50.93,1000 -116.50,50.87,1000 -116.46,50.82,1000 -116.41,50.78,1000 -116.36,50.73,1000 -116.31,50.68,1000 -116.27,50.64,1000 -116.22,50.58,1000 -116.19,50.52,1000 -116.17,50.47,1000 -116.17,50.41,1000 -116.18,50.36,1000 -116.21,50.31,1000 -116.24,50.27,1000 -116.29,50.23,1000 -116.34,50.20,1000 -116.41,50.17,1000 -116.48,50.15,1000 -116.57,50.15,1000 -116.65,50.16,1000 -116.73,50.18,1000 -116.82,50.20,1000 -116.90,50.24,1000 -116.96,50.28,1000 -117.01,50.34,1000 -117.07,50.40,1000 -117.12,50.45,1000 -117.18,50.49,1000 -117.25,50.51,1000 -117.31,50.52,1000 -117.38,50.52,1000 -117.47,50.56,1000 -117.52,50.59,1000 -117.57,50.63,1000 -117.63,50.68,1000 -117.69,50.73,1000 -117.75,50.78,1000 -117.82,50.83,1000 -117.88,50.88,1000 -117.95,50.92,1000 -118.02,50.95,1000 -118.12,50.98,1000 -118.22,51.00,1000 -118.33,51.01,1000 -118.44,51.01,1000 -118.54,51.02,1000 -118.63,51.03,1000 -118.70,51.04,1000 -118.79,51.09,1000 -118.83,51.14,1000 -118.84,51.19,1000 -118.85,51.24,1000 -118.83,51.30,1000 -118.79,51.35,1000 -118.74,51.39,1000 -118.67,51.42,1000 -118.59,51.46,1000 -118.51,51.49,1000 -118.28,51.61,1000 
          </coordinates>
        </LinearRing>
      </outerBoundaryIs>
      <innerBoundaryIs>
        <LinearRing>
          <coordinates>
-116.75,51.81,2000 -116.72,51.82,2000 -116.69,51.82,2000 -116.66,51.83,2000 -116.63,51.83,2000 -116.60,51.84,2000 -116.57,51.84,2000 -116.54,51.84,2000 -116.52,51.84,2000 -116.49,51.84,2000 -116.46,51.84,2000 -116.43,51.83,2000 -116.41,51.83,2000 -116.38,51.82,2000 -116.35,51.81,2000 -116.33,51.80,2000 -116.31,51.79,2000 -116.29,51.78,2000 -116.27,51.77,2000 -116.25,51.75,2000 -116.23,51.73,2000 -116.22,51.72,2000 -116.20,51.70,2000 -116.19,51.69,2000 -116.17,51.67,2000 -116.15,51.66,2000 -116.13,51.65,2000 -116.12,51.63,2000 -116.12,51.62,2000 -116.12,51.60,2000 -116.13,51.58,2000 -116.14,51.57,2000 -116.15,51.55,2000 -116.15,51.53,2000 -116.15,51.52,2000 -116.16,51.51,2000 -116.16,51.49,2000 -116.18,51.47,2000 -116.19,51.46,2000 -116.21,51.44,2000 -116.22,51.43,2000 -116.24,51.41,2000 -116.26,51.40,2000 -116.28,51.38,2000 -116.30,51.36,2000 -116.32,51.35,2000 -116.34,51.34,2000 -116.36,51.33,2000 -116.39,51.32,2000 -116.41,51.32,2000 -116.44,51.32,2000 -116.47,51.32,2000 -116.50,51.32,2000 -116.53,51.32,2000 -116.56,51.32,2000 -116.59,51.33,2000 -116.62,51.33,2000 -116.65,51.33,2000 -116.68,51.34,2000 -116.70,51.35,2000 -116.73,51.36,2000 -116.76,51.37,2000 -116.79,51.37,2000 -116.81,51.38,2000 -116.83,51.39,2000 -116.85,51.40,2000 -116.87,51.41,2000 -116.89,51.43,2000 -116.90,51.44,2000 -116.91,51.46,2000 -116.92,51.47,2000 -116.94,51.49,2000 -116.95,51.50,2000 -116.97,51.52,2000 -116.98,51.53,2000 -116.99,51.55,2000 -116.99,51.57,2000 -116.98,51.58,2000 -116.97,51.60,2000 -116.96,51.62,2000 -116.95,51.63,2000 -116.95,51.65,2000 -116.94,51.67,2000 -116.93,51.68,2000 -116.92,51.70,2000 -116.91,51.72,2000 -116.75,51.81,2000 
          </coordinates>
        </LinearRing>
      </innerBoundaryIs>
      <innerBoundaryIs>
        <LinearRing>
          <coordinates>
-118.03,51.68,2000 -117.95,51.69,2000 -117.88,51.69,2000 -117.81,51.69,2000 -117.74,51.69,2000 -117.68,51.68,2000 -117.62,51.66,2000 -117.57,51.63,2000 -117.53,51.60,2000 -117.47,51.56,2000 -117.42,51.53,2000 -117.37,51.49,2000 -117.32,51.45,2000 -117.27,51.41,2000 -117.21,51.37,2000 -117.15,51.33,2000 -117.10,51.30,2000 -117.04,51.26,2000 -116.99,51.23,2000 -116.93,51.20,2000 -116.88,51.16,2000 -116.82,51.12,2000 -116.77,51.08,2000 -116.73,51.04,2000 -116.69,50.99,2000 -116.65,50.94,2000 -116.61,50.89,2000 -116.57,50.84,2000 -116.54,50.79,2000 -116.51,50.74,2000 -116.48,50.70,2000 -116.45,50.67,2000 -116.39,50.61,2000 -116.35,50.59,2000 -116.33,50.55,2000 -116.32,50.50,2000 -116.31,50.45,2000 -116.32,50.39,2000 -116.33,50.34,2000 -116.36,50.30,2000 -116.41,50.27,2000 -116.48,50.25,2000 -116.57,50.24,2000 -116.65,50.24,2000 -116.73,50.26,2000 -116.78,50.29,2000 -116.83,50.32,2000 -116.88,50.37,2000 -116.93,50.42,2000 -116.98,50.47,2000 -117.03,50.51,2000 -117.09,50.55,2000 -117.16,50.58,2000 -117.23,50.60,2000 -117.30,50.61,2000 -117.38,50.62,2000 -117.45,50.64,2000 -117.52,50.67,2000 -117.57,50.70,2000 -117.61,50.73,2000 -117.66,50.77,2000 -117.70,50.82,2000 -117.74,50.86,2000 -117.79,50.90,2000 -117.84,50.93,2000 -117.90,50.96,2000 -117.97,50.98,2000 -118.04,51.00,2000 -118.12,51.01,2000 -118.21,51.02,2000 -118.29,51.03,2000 -118.36,51.04,2000 -118.43,51.05,2000 -118.49,51.06,2000 -118.57,51.09,2000 -118.63,51.11,2000 -118.67,51.14,2000 -118.70,51.17,2000 -118.75,51.21,2000 -118.71,51.27,2000 -118.68,51.30,2000 -118.64,51.33,2000 -118.59,51.36,2000 -118.53,51.39,2000 -118.47,51.43,2000 -118.40,51.47,2000 -118.33,51.51,2000 -118.26,51.55,2000 -118.03,51.68,2000 
          </coordinates>
        </LinearRing>
      </innerBoundaryIs>
  </Polygon>
 </MultiGeometry>
</Placemark>
<Placemark>
  <name>5%</name>
  <visibility>1</visibility>
  <styleUrl>#poly_5</styleUrl>
  <MultiGeometry>
    <Polygon>
      <outerBoundaryIs>
        <LinearRing>
          <coordinates>
-124.38,50.86,1000 -124.34,50.88,1000 -124.31,50.91,1000 -124.27,50.93,1000 -124.24,50.95,1000 -124.20,50.97,1000 -124.16,50.98,1000 -124.11,50.99,1000 -124.06,51.00,1000 -124.01,51.01,1000 -123.96,51.01,1000 -123.91,51.02,1000 -123.86,51.03,1000 -123.81,51.04,1000 -123.76,51.05,1000 -123.71,51.05,1000 -123.66,51.06,1000 -123.61,51.07,1000 -123.56,51.07,1000 -123.51,51.08,1000 -123.45,51.08,1000 -123.40,51.08,1000 -123.35,51.08,1000 -123.30,51.07,1000 -123.25,51.06,1000 -123.20,51.05,1000 -123.15,51.04,1000 -123.12,51.03,1000 -123.08,51.02,1000 -123.06,51.00,1000 -123.04,50.98,1000 -123.01,50.96,1000 -122.97,50.94,1000 -122.94,50.91,1000 -122.92,50.89,1000 -122.90,50.86,1000 -122.90,50.83,1000 -122.90,50.80,1000 -122.91,50.77,1000 -122.93,50.74,1000 -122.94,50.71,1000 -122.95,50.69,1000 -122.97,50.67,1000 -122.99,50.65,1000 -123.00,50.63,1000 -123.01,50.60,1000 -123.02,50.57,1000 -123.03,50.54,1000 -123.04,50.51,1000 -123.04,50.48,1000 -123.04,50.44,1000 -123.04,50.40,1000 -123.04,50.37,1000 -123.05,50.34,1000 -123.06,50.31,1000 -123.08,50.28,1000 -123.12,50.26,1000 -123.15,50.24,1000 -123.19,50.23,1000 -123.23,50.21,1000 -123.27,50.19,1000 -123.32,50.18,1000 -123.36,50.17,1000 -123.41,50.17,1000 -123.45,50.17,1000 -123.50,50.17,1000 -123.55,50.18,1000 -123.59,50.18,1000 -123.63,50.19,1000 -123.68,50.20,1000 -123.70,50.22,1000 -123.74,50.24,1000 -123.78,50.26,1000 -123.82,50.28,1000 -123.87,50.31,1000 -123.91,50.33,1000 -123.94,50.35,1000 -123.97,50.37,1000 -124.00,50.38,1000 -124.03,50.39,1000 -124.08,50.41,1000 -124.12,50.43,1000 -124.17,50.45,1000 -124.22,50.47,1000 -124.25,50.48,1000 -124.29,50.49,1000 -124.31,50.50,1000 -124.33,50.52,1000 -124.36,50.54,1000 -124.39,50.57,1000 -124.42,50.59,1000 -124.44,50.62,1000 -124.46,50.65,1000 -124.47,50.68,1000 -124.46,50.70,1000 -124.46,50.73,1000 -124.45,50.76,1000 -124.43,50.79,1000 -124.42,50.82,1000 -124.38,50.86,1000 
          </coordinates>
        </LinearRing>
      </outerBoundaryIs>
      <innerBoundaryIs>
        <LinearRing>
          <coordinates>
-124.14,50.94,2000 -124.10,50.95,2000 -124.06,50.96,2000 -124.02,50.97,2000 -123.98,50.97,2000 -123.94,50.98,2000 -123.90,50.99,2000 -123.86,51.00,2000 -123.81,51.01,2000 -123.77,51.01,2000 -123.73,51.02,2000 -123.68,51.03,2000 -123.64,51.03,2000 -123.60,51.03,2000 -123.55,51.04,2000 -123.51,51.04,2000 -123.46,51.04,2000 -123.42,51.04,2000 -123.38,51.04,2000 -123.33,51.03,2000 -123.29,51.03,2000 -123.25,51.02,2000 -123.21,51.00,2000 -123.18,50.99,2000 -123.15,50.97,2000 -123.12,50.94,2000 -123.10,50.92,2000 -123.08,50.90,2000 -123.05,50.88,2000 -123.02,50.87,2000 -123.00,50.85,2000 -123.00,50.83,2000 -123.02,50.80,2000 -123.03,50.77,2000 -123.03,50.75,2000 -123.04,50.73,2000 -123.04,50.70,2000 -123.05,50.67,2000 -123.06,50.65,2000 -123.07,50.62,2000 -123.09,50.59,2000 -123.10,50.57,2000 -123.12,50.54,2000 -123.13,50.51,2000 -123.14,50.49,2000 -123.15,50.46,2000 -123.16,50.43,2000 -123.16,50.41,2000 -123.17,50.39,2000 -123.18,50.37,2000 -123.19,50.34,2000 -123.21,50.32,2000 -123.24,50.30,2000 -123.27,50.27,2000 -123.30,50.25,2000 -123.34,50.23,2000 -123.38,50.22,2000 -123.42,50.22,2000 -123.46,50.23,2000 -123.51,50.25,2000 -123.55,50.26,2000 -123.58,50.27,2000 -123.61,50.27,2000 -123.65,50.28,2000 -123.68,50.29,2000 -123.71,50.31,2000 -123.75,50.32,2000 -123.80,50.34,2000 -123.84,50.36,2000 -123.87,50.38,2000 -123.90,50.39,2000 -123.93,50.40,2000 -123.96,50.41,2000 -123.99,50.42,2000 -124.03,50.43,2000 -124.07,50.45,2000 -124.11,50.46,2000 -124.15,50.48,2000 -124.19,50.50,2000 -124.22,50.51,2000 -124.25,50.53,2000 -124.27,50.56,2000 -124.28,50.58,2000 -124.29,50.60,2000 -124.32,50.62,2000 -124.34,50.64,2000 -124.36,50.66,2000 -124.36,50.68,2000 -124.35,50.70,2000 -124.34,50.73,2000 -124.33,50.75,2000 -124.32,50.78,2000 -124.30,50.81,2000 -124.29,50.84,2000 -124.14,50.94,2000 
          </coordinates>
        </LinearRing>
      </innerBoundaryIs>
  </Polygon>
 </MultiGeometry>
</Placemark>
<Placemark>
  <name>10%</name>
  <visibility>1</visibility>
  <styleUrl>#poly_10</styleUrl>
  <MultiGeometry>
    <Polygon>
      <outerBoundaryIs>
        <LinearRing>
          <coordinates>
-116.75,51.81,2000 -116.72,51.82,2000 -116.69,51.82,2000 -116.66,51.83,2000 -116.63,51.83,2000 -116.60,51.84,2000 -116.57,51.84,2000 -116.54,51.84,2000 -116.52,51.84,2000 -116.49,51.84,2000 -116.46,51.84,2000 -116.43,51.83,2000 -116.41,51.83,2000 -116.38,51.82,2000 -116.35,51.81,2000 -116.33,51.80,2000 -116.31,51.79,2000 -116.29,51.78,2000 -116.27,51.77,2000 -116.25,51.75,2000 -116.23,51.73,2000 -116.22,51.72,2000 -116.20,51.70,2000 -116.19,51.69,2000 -116.17,51.67,2000 -116.15,51.66,2000 -116.13,51.65,2000 -116.12,51.63,2000 -116.12,51.62,2000 -116.12,51.60,2000 -116.13,51.58,2000 -116.14,51.57,2000 -116.15,51.55,2000 -116.15,51.53,2000 -116.15,51.52,2000 -116.16,51.51,2000 -116.16,51.49,2000 -116.18,51.47,2000 -116.19,51.46,2000 -116.21,51.44,2000 -116.22,51.43,2000 -116.24,51.41,2000 -116.26,51.40,2000 -116.28,51.38,2000 -116.30,51.36,2000 -116.32,51.35,2000 -116.34,51.34,2000 -116.36,51.33,2000 -116.39,51.32,2000 -116.41,51.32,2000 -116.44,51.32,2000 -116.47,51.32,2000 -116.50,51.32,2000 -116.53,51.32,2000 -116.56,51.32,2000 -116.59,51.33,2000 -116.62,51.33,2000 -116.65,51.33,2000 -116.68,51.34,2000 -116.70,51.35,2000 -116.73,51.36,2000 -116.76,51.37,2000 -116.79,51.37,2000 -116.81,51.38,2000 -116.83,51.39,2000 -116.85,51.40,2000 -116.87,51.41,2000 -116.89,51.43,2000 -116.90,51.44,2000 -116.91,51.46,2000 -116.92,51.47,2000 -116.94,51.49,2000 -116.95,51.50,2000 -116.97,51.52,2000 -116.98,51.53,2000 -116.99,51.55,2000 -116.99,51.57,2000 -116.98,51.58,2000 -116.97,51.60,2000 -116.96,51.62,2000 -116.95,51.63,2000 -116.95,51.65,2000 -116.94,51.67,2000 -116.93,51.68,2000 -116.92,51.70,2000 -116.91,51.72,2000 -116.75,51.81,2000 
          </coordinates>
        </LinearRing>
      </outerBoundaryIs>
      <innerBoundaryIs>
        <LinearRing>
          <coordinates>
-116.73,51.73,3000 -116.71,51.73,3000 -116.69,51.74,3000 -116.67,51.74,3000 -116.65,51.75,3000 -116.63,51.75,3000 -116.62,51.75,3000 -116.60,51.75,3000 -116.58,51.76,3000 -116.56,51.76,3000 -116.54,51.76,3000 -116.52,51.76,3000 -116.50,51.76,3000 -116.49,51.75,3000 -116.47,51.75,3000 -116.45,51.75,3000 -116.44,51.74,3000 -116.42,51.74,3000 -116.40,51.73,3000 -116.39,51.72,3000 -116.37,51.71,3000 -116.35,51.71,3000 -116.34,51.70,3000 -116.32,51.69,3000 -116.31,51.68,3000 -116.29,51.67,3000 -116.28,51.66,3000 -116.27,51.65,3000 -116.26,51.64,3000 -116.25,51.63,3000 -116.25,51.62,3000 -116.25,51.61,3000 -116.25,51.60,3000 -116.25,51.59,3000 -116.26,51.57,3000 -116.27,51.56,3000 -116.27,51.55,3000 -116.28,51.53,3000 -116.29,51.52,3000 -116.31,51.51,3000 -116.32,51.50,3000 -116.33,51.49,3000 -116.34,51.48,3000 -116.35,51.47,3000 -116.35,51.46,3000 -116.36,51.45,3000 -116.37,51.43,3000 -116.37,51.43,3000 -116.39,51.43,3000 -116.40,51.43,3000 -116.42,51.43,3000 -116.43,51.42,3000 -116.45,51.42,3000 -116.47,51.42,3000 -116.49,51.42,3000 -116.51,51.41,3000 -116.54,51.41,3000 -116.56,51.41,3000 -116.58,51.41,3000 -116.60,51.41,3000 -116.62,51.42,3000 -116.64,51.42,3000 -116.65,51.42,3000 -116.67,51.43,3000 -116.68,51.43,3000 -116.70,51.44,3000 -116.71,51.45,3000 -116.72,51.46,3000 -116.74,51.46,3000 -116.75,51.47,3000 -116.76,51.48,3000 -116.78,51.49,3000 -116.79,51.50,3000 -116.80,51.51,3000 -116.82,51.52,3000 -116.83,51.53,3000 -116.84,51.54,3000 -116.86,51.55,3000 -116.87,51.56,3000 -116.73,51.73,3000 
          </coordinates>
        </LinearRing>
      </innerBoundaryIs>
  </Polygon>
 </MultiGeometry>
</Placemark>
<Placemark>
  <name>10%</name>
  <visibility>1</visibility>
  <styleUrl>#poly_10</styleUrl>
  <MultiGeometry>
    <Polygon>
      <outerBoundaryIs>
        <LinearRing>
          <coordinates>
-124.14,50.94,2000 -124.10,50.95,2000 -124.06,50.96,2000 -124.02,50.97,2000 -123.98,50.97,2000 -123.94,50.98,2000 -123.90,50.99,2000 -123.86,51.00,2000 -123.81,51.01,2000 -123.77,51.01,2000 -123.73,51.02,2000 -123.68,51.03,2000 -123.64,51.03,2000 -123.60,51.03,2000 -123.55,51.04,2000 -123.51,51.04,2000 -123.46,51.04,2000 -123.42,51.04,2000 -123.38,51.04,2000 -123.33,51.03,2000 -123.29,51.03,2000 -123.25,51.02,2000 -123.21,51.00,2000 -123.18,50.99,2000 -123.15,50.97,2000 -123.12,50.94,2000 -123.10,50.92,2000 -123.08,50.90,2000 -123.05,50.88,2000 -123.02,50.87,2000 -123.00,50.85,2000 -123.00,50.83,2000 -123.02,50.80,2000 -123.03,50.77,2000 -123.03,50.75,2000 -123.04,50.73,2000 -123.04,50.70,2000 -123.05,50.67,2000 -123.06,50.65,2000 -123.07,50.62,2000 -123.09,50.59,2000 -123.10,50.57,2000 -123.12,50.54,2000 -123.13,50.51,2000 -123.14,50.49,2000 -123.15,50.46,2000 -123.16,50.43,2000 -123.16,50.41,2000 -123.17,50.39,2000 -123.18,50.37,2000 -123.19,50.34,2000 -123.21,50.32,2000 -123.24,50.30,2000 -123.27,50.27,2000 -123.30,50.25,2000 -123.34,50.23,2000 -123.38,50.22,2000 -123.42,50.22,2000 -123.46,50.23,2000 -123.51,50.25,2000 -123.55,50.26,2000 -123.58,50.27,2000 -123.61,50.27,2000 -123.65,50.28,2000 -123.68,50.29,2000 -123.71,50.31,2000 -123.75,50.32,2000 -123.80,50.34,2000 -123.84,50.36,2000 -123.87,50.38,2000 -123.90,50.39,2000 -123.93,50.40,2000 -123.96,50.41,2000 -123.99,50.42,2000 -124.03,50.43,2000 -124.07,50.45,2000 -124.11,50.46,2000 -124.15,50.48,2000 -124.19,50.50,2000 -124.22,50.51,2000 -124.25,50.53,2000 -124.27,50.56,2000 -124.28,50.58,2000 -124.29,50.60,2000 -124.32,50.62,2000 -124.34,50.64,2000 -124.36,50.66,2000 -124.36,50.68,2000 -124.35,50.70,2000 -124.34,50.73,2000 -124.33,50.75,2000 -124.32,50.78,2000 -124.30,50.81,2000 -124.29,50.84,2000 -124.14,50.94,2000 
          </coordinates>
        </LinearRing>
      </outerBoundaryIs>
      <innerBoundaryIs>
        <LinearRing>
          <coordinates>
-123.88,50.93,3000 -123.85,50.93,3000 -123.81,50.94,3000 -123.78,50.94,3000 -123.75,50.95,3000 -123.71,50.95,3000 -123.68,50.95,3000 -123.65,50.96,3000 -123.62,50.96,3000 -123.58,50.96,3000 -123.54,50.96,3000 -123.50,50.96,3000 -123.47,50.96,3000 -123.44,50.96,3000 -123.41,50.96,3000 -123.39,50.96,3000 -123.36,50.95,3000 -123.34,50.94,3000 -123.31,50.93,3000 -123.27,50.92,3000 -123.24,50.90,3000 -123.20,50.88,3000 -123.17,50.87,3000 -123.15,50.85,3000 -123.13,50.83,3000 -123.12,50.81,3000 -123.13,50.79,3000 -123.13,50.76,3000 -123.14,50.74,3000 -123.16,50.71,3000 -123.17,50.69,3000 -123.18,50.67,3000 -123.19,50.65,3000 -123.20,50.63,3000 -123.21,50.61,3000 -123.22,50.60,3000 -123.23,50.58,3000 -123.24,50.56,3000 -123.25,50.54,3000 -123.25,50.52,3000 -123.26,50.49,3000 -123.28,50.47,3000 -123.29,50.45,3000 -123.31,50.43,3000 -123.32,50.40,3000 -123.34,50.38,3000 -123.36,50.36,3000 -123.38,50.34,3000 -123.41,50.33,3000 -123.44,50.33,3000 -123.47,50.33,3000 -123.51,50.33,3000 -123.55,50.34,3000 -123.58,50.35,3000 -123.62,50.36,3000 -123.65,50.36,3000 -123.68,50.37,3000 -123.71,50.38,3000 -123.73,50.39,3000 -123.75,50.40,3000 -123.78,50.41,3000 -123.81,50.42,3000 -123.84,50.43,3000 -123.88,50.44,3000 -123.91,50.45,3000 -123.95,50.46,3000 -123.98,50.47,3000 -124.01,50.48,3000 -124.04,50.49,3000 -124.07,50.50,3000 -124.09,50.51,3000 -124.12,50.53,3000 -124.14,50.54,3000 -124.16,50.56,3000 -124.18,50.58,3000 -124.20,50.60,3000 -124.22,50.62,3000 -124.24,50.64,3000 -124.25,50.66,3000 -124.25,50.68,3000 -124.25,50.70,3000 -124.24,50.72,3000 -124.22,50.74,3000 -124.20,50.76,3000 -124.18,50.78,3000 -124.16,50.80,3000 -124.14,50.82,3000 -124.12,50.84,3000 -124.11,50.85,3000 -124.08,50.87,3000 -124.07,50.87,3000 -123.88,50.93,3000 
          </coordinates>
        </LinearRing>
      </innerBoundaryIs>
  </Polygon>
 </MultiGeometry>
</Placemark>
<Placemark>
  <name>10%</name>
  <visibility>1</visibility>
  <styleUrl>#poly_10</styleUrl>
  <MultiGeometry>
    <Polygon>
      <outerBoundaryIs>
        <LinearRing>
          <coordinates>
-118.03,51.68,2000 -117.95,51.69,2000 -117.88,51.69,2000 -117.81,51.69,2000 -117.74,51.69,2000 -117.68,51.68,2000 -117.62,51.66,2000 -117.57,51.63,2000 -117.53,51.60,2000 -117.47,51.56,2000 -117.42,51.53,2000 -117.37,51.49,2000 -117.32,51.45,2000 -117.27,51.41,2000 -117.21,51.37,2000 -117.15,51.33,2000 -117.10,51.30,2000 -117.04,51.26,2000 -116.99,51.23,2000 -116.93,51.20,2000 -116.88,51.16,2000 -116.82,51.12,2000 -116.77,51.08,2000 -116.73,51.04,2000 -116.69,50.99,2000 -116.65,50.94,2000 -116.61,50.89,2000 -116.57,50.84,2000 -116.54,50.79,2000 -116.51,50.74,2000 -116.48,50.70,2000 -116.45,50.67,2000 -116.39,50.61,2000 -116.35,50.59,2000 -116.33,50.55,2000 -116.32,50.50,2000 -116.31,50.45,2000 -116.32,50.39,2000 -116.33,50.34,2000 -116.36,50.30,2000 -116.41,50.27,2000 -116.48,50.25,2000 -116.57,50.24,2000 -116.65,50.24,2000 -116.73,50.26,2000 -116.78,50.29,2000 -116.83,50.32,2000 -116.88,50.37,2000 -116.93,50.42,2000 -116.98,50.47,2000 -117.03,50.51,2000 -117.09,50.55,2000 -117.16,50.58,2000 -117.23,50.60,2000 -117.30,50.61,2000 -117.38,50.62,2000 -117.45,50.64,2000 -117.52,50.67,2000 -117.57,50.70,2000 -117.61,50.73,2000 -117.66,50.77,2000 -117.70,50.82,2000 -117.74,50.86,2000 -117.79,50.90,2000 -117.84,50.93,2000 -117.90,50.96,2000 -117.97,50.98,2000 -118.04,51.00,2000 -118.12,51.01,2000 -118.21,51.02,2000 -118.29,51.03,2000 -118.36,51.04,2000 -118.43,51.05,2000 -118.49,51.06,2000 -118.57,51.09,2000 -118.63,51.11,2000 -118.67,51.14,2000 -118.70,51.17,2000 -118.75,51.21,2000 -118.71,51.27,2000 -118.68,51.30,2000 -118.64,51.33,2000 -118.59,51.36,2000 -118.53,51.39,2000 -118.47,51.43,2000 -118.40,51.47,2000 -118.33,51.51,2000 -118.26,51.55,2000 -118.03,51.68,2000 
          </coordinates>
        </LinearRing>
      </outerBoundaryIs>
      <innerBoundaryIs>
        <LinearRing>
          <coordinates>
-118.24,51.46,3000 -118.20,51.49,3000 -118.17,51.52,3000 -118.13,51.54,3000 -118.09,51.56,3000 -118.05,51.58,3000 -118.01,51.60,3000 -117.96,51.61,3000 -117.91,51.62,3000 -117.85,51.63,3000 -117.80,51.63,3000 -117.75,51.62,3000 -117.71,51.61,3000 -117.67,51.59,3000 -117.62,51.57,3000 -117.59,51.54,3000 -117.55,51.51,3000 -117.52,51.49,3000 -117.49,51.46,3000 -117.47,51.42,3000 -117.45,51.39,3000 -117.43,51.36,3000 -117.42,51.34,3000 -117.41,51.33,3000 -117.38,51.32,3000 -117.33,51.30,3000 -117.27,51.29,3000 -117.21,51.27,3000 -117.16,51.25,3000 -117.12,51.24,3000 -117.08,51.23,3000 -117.06,51.21,3000 -117.03,51.19,3000 -117.00,51.16,3000 -116.96,51.13,3000 -116.93,51.09,3000 -116.90,51.06,3000 -116.88,51.03,3000 -116.85,51.00,3000 -116.83,50.97,3000 -116.82,50.94,3000 -116.80,50.91,3000 -116.78,50.88,3000 -116.76,50.84,3000 -116.74,50.81,3000 -116.73,50.78,3000 -116.74,50.75,3000 -116.76,50.73,3000 -116.79,50.70,3000 -116.84,50.68,3000 -116.88,50.66,3000 -116.93,50.64,3000 -116.97,50.63,3000 -117.02,50.63,3000 -117.08,50.63,3000 -117.14,50.64,3000 -117.19,50.65,3000 -117.23,50.66,3000 -117.28,50.67,3000 -117.33,50.69,3000 -117.37,50.70,3000 -117.41,50.72,3000 -117.45,50.74,3000 -117.50,50.76,3000 -117.53,50.78,3000 -117.57,50.80,3000 -117.60,50.83,3000 -117.63,50.85,3000 -117.66,50.89,3000 -117.69,50.92,3000 -117.72,50.95,3000 -117.75,50.98,3000 -117.78,51.01,3000 -117.81,51.03,3000 -117.84,51.05,3000 -117.87,51.07,3000 -117.91,51.09,3000 -117.94,51.11,3000 -117.98,51.12,3000 -118.02,51.13,3000 -118.05,51.14,3000 -118.10,51.15,3000 -118.15,51.16,3000 -118.20,51.16,3000 -118.26,51.16,3000 -118.32,51.16,3000 -118.37,51.17,3000 -118.42,51.17,3000 -118.48,51.18,3000 -118.52,51.20,3000 -118.54,51.22,3000 -118.53,51.24,3000 -118.49,51.27,3000 -118.45,51.30,3000 -118.42,51.33,3000 -118.39,51.35,3000 -118.36,51.38,3000 -118.33,51.41,3000 -118.24,51.46,3000 
          </coordinates>
        </LinearRing>
      </innerBoundaryIs>
  </Polygon>
 </MultiGeometry>
</Placemark>
<Placemark>
  <name>20%</name>
  <visibility>1</visibility>
  <styleUrl>#poly_20</styleUrl>
  <MultiGeometry>
    <Polygon>
      <outerBoundaryIs>
        <LinearRing>
          <coordinates>
-123.88,50.93,3000 -123.85,50.93,3000 -123.81,50.94,3000 -123.78,50.94,3000 -123.75,50.95,3000 -123.71,50.95,3000 -123.68,50.95,3000 -123.65,50.96,3000 -123.62,50.96,3000 -123.58,50.96,3000 -123.54,50.96,3000 -123.50,50.96,3000 -123.47,50.96,3000 -123.44,50.96,3000 -123.41,50.96,3000 -123.39,50.96,3000 -123.36,50.95,3000 -123.34,50.94,3000 -123.31,50.93,3000 -123.27,50.92,3000 -123.24,50.90,3000 -123.20,50.88,3000 -123.17,50.87,3000 -123.15,50.85,3000 -123.13,50.83,3000 -123.12,50.81,3000 -123.13,50.79,3000 -123.13,50.76,3000 -123.14,50.74,3000 -123.16,50.71,3000 -123.17,50.69,3000 -123.18,50.67,3000 -123.19,50.65,3000 -123.20,50.63,3000 -123.21,50.61,3000 -123.22,50.60,3000 -123.23,50.58,3000 -123.24,50.56,3000 -123.25,50.54,3000 -123.25,50.52,3000 -123.26,50.49,3000 -123.28,50.47,3000 -123.29,50.45,3000 -123.31,50.43,3000 -123.32,50.40,3000 -123.34,50.38,3000 -123.36,50.36,3000 -123.38,50.34,3000 -123.41,50.33,3000 -123.44,50.33,3000 -123.47,50.33,3000 -123.51,50.33,3000 -123.55,50.34,3000 -123.58,50.35,3000 -123.62,50.36,3000 -123.65,50.36,3000 -123.68,50.37,3000 -123.71,50.38,3000 -123.73,50.39,3000 -123.75,50.40,3000 -123.78,50.41,3000 -123.81,50.42,3000 -123.84,50.43,3000 -123.88,50.44,3000 -123.91,50.45,3000 -123.95,50.46,3000 -123.98,50.47,3000 -124.01,50.48,3000 -124.04,50.49,3000 -124.07,50.50,3000 -124.09,50.51,3000 -124.12,50.53,3000 -124.14,50.54,3000 -124.16,50.56,3000 -124.18,50.58,3000 -124.20,50.60,3000 -124.22,50.62,3000 -124.24,50.64,3000 -124.25,50.66,3000 -124.25,50.68,3000 -124.25,50.70,3000 -124.24,50.72,3000 -124.22,50.74,3000 -124.20,50.76,3000 -124.18,50.78,3000 -124.16,50.80,3000 -124.14,50.82,3000 -124.12,50.84,3000 -124.11,50.85,3000 -124.08,50.87,3000 -124.07,50.87,3000 -123.88,50.93,3000 
          </coordinates>
        </LinearRing>
      </outerBoundaryIs>
      <innerBoundaryIs>
        <LinearRing>
          <coordinates>
-124.09,50.79,4000 -124.07,50.80,4000 -124.05,50.81,4000 -124.02,50.82,4000 -124.00,50.83,4000 -123.98,50.83,4000 -123.95,50.84,4000 -123.93,50.85,4000 -123.91,50.86,4000 -123.88,50.86,4000 -123.86,50.87,4000 -123.84,50.88,4000 -123.81,50.88,4000 -123.78,50.88,4000 -123.76,50.89,4000 -123.73,50.89,4000 -123.71,50.89,4000 -123.68,50.90,4000 -123.65,50.90,4000 -123.63,50.90,4000 -123.60,50.90,4000 -123.57,50.90,4000 -123.54,50.90,4000 -123.51,50.90,4000 -123.48,50.89,4000 -123.45,50.89,4000 -123.43,50.89,4000 -123.40,50.88,4000 -123.37,50.88,4000 -123.35,50.87,4000 -123.33,50.87,4000 -123.30,50.86,4000 -123.27,50.85,4000 -123.25,50.84,4000 -123.24,50.83,4000 -123.23,50.81,4000 -123.23,50.80,4000 -123.23,50.78,4000 -123.24,50.76,4000 -123.25,50.74,4000 -123.26,50.73,4000 -123.27,50.71,4000 -123.28,50.70,4000 -123.28,50.69,4000 -123.28,50.67,4000 -123.29,50.66,4000 -123.30,50.64,4000 -123.31,50.63,4000 -123.32,50.61,4000 -123.33,50.60,4000 -123.34,50.58,4000 -123.35,50.56,4000 -123.36,50.54,4000 -123.37,50.52,4000 -123.38,50.50,4000 -123.39,50.49,4000 -123.40,50.47,4000 -123.41,50.46,4000 -123.42,50.43,4000 -123.43,50.42,4000 -123.44,50.42,4000 -123.46,50.42,4000 -123.48,50.42,4000 -123.51,50.43,4000 -123.53,50.44,4000 -123.56,50.44,4000 -123.58,50.44,4000 -123.60,50.44,4000 -123.62,50.44,4000 -123.65,50.43,4000 -123.68,50.43,4000 -123.71,50.44,4000 -123.73,50.44,4000 -123.75,50.45,4000 -123.78,50.46,4000 -123.81,50.47,4000 -123.83,50.48,4000 -123.86,50.48,4000 -123.89,50.49,4000 -123.92,50.50,4000 -123.94,50.51,4000 -123.97,50.52,4000 -123.98,50.53,4000 -124.00,50.53,4000 -124.02,50.54,4000 -124.03,50.55,4000 -124.04,50.56,4000 -124.05,50.57,4000 -124.07,50.59,4000 -124.08,50.60,4000 -124.10,50.62,4000 -124.12,50.64,4000 -124.13,50.65,4000 -124.15,50.67,4000 -124.17,50.69,4000 -124.09,50.79,4000 
          </coordinates>
        </LinearRing>
      </innerBoundaryIs>
  </Polygon>
 </MultiGeometry>
</Placemark>
<Placemark>
  <name>20%</name>
  <visibility>1</visibility>
  <styleUrl>#poly_20</styleUrl>
  <MultiGeometry>
    <Polygon>
      <outerBoundaryIs>
        <LinearRing>
          <coordinates>
-116.73,51.73,3000 -116.71,51.73,3000 -116.69,51.74,3000 -116.67,51.74,3000 -116.65,51.75,3000 -116.63,51.75,3000 -116.62,51.75,3000 -116.60,51.75,3000 -116.58,51.76,3000 -116.56,51.76,3000 -116.54,51.76,3000 -116.52,51.76,3000 -116.50,51.76,3000 -116.49,51.75,3000 -116.47,51.75,3000 -116.45,51.75,3000 -116.44,51.74,3000 -116.42,51.74,3000 -116.40,51.73,3000 -116.39,51.72,3000 -116.37,51.71,3000 -116.35,51.71,3000 -116.34,51.70,3000 -116.32,51.69,3000 -116.31,51.68,3000 -116.29,51.67,3000 -116.28,51.66,3000 -116.27,51.65,3000 -116.26,51.64,3000 -116.25,51.63,3000 -116.25,51.62,3000 -116.25,51.61,3000 -116.25,51.60,3000 -116.25,51.59,3000 -116.26,51.57,3000 -116.27,51.56,3000 -116.27,51.55,3000 -116.28,51.53,3000 -116.29,51.52,3000 -116.31,51.51,3000 -116.32,51.50,3000 -116.33,51.49,3000 -116.34,51.48,3000 -116.35,51.47,3000 -116.35,51.46,3000 -116.36,51.45,3000 -116.37,51.43,3000 -116.37,51.43,3000 -116.39,51.43,3000 -116.40,51.43,3000 -116.42,51.43,3000 -116.43,51.42,3000 -116.45,51.42,3000 -116.47,51.42,3000 -116.49,51.42,3000 -116.51,51.41,3000 -116.54,51.41,3000 -116.56,51.41,3000 -116.58,51.41,3000 -116.60,51.41,3000 -116.62,51.42,3000 -116.64,51.42,3000 -116.65,51.42,3000 -116.67,51.43,3000 -116.68,51.43,3000 -116.70,51.44,3000 -116.71,51.45,3000 -116.72,51.46,3000 -116.74,51.46,3000 -116.75,51.47,3000 -116.76,51.48,3000 -116.78,51.49,3000 -116.79,51.50,3000 -116.80,51.51,3000 -116.82,51.52,3000 -116.83,51.53,3000 -116.84,51.54,3000 -116.86,51.55,3000 -116.87,51.56,3000 -116.73,51.73,3000 
          </coordinates>
        </LinearRing>
      </outerBoundaryIs>
      <innerBoundaryIs>
        <LinearRing>
          <coordinates>
-116.70,51.64,4000 -116.69,51.64,4000 -116.67,51.65,4000 -116.66,51.65,4000 -116.65,51.65,4000 -116.63,51.65,4000 -116.62,51.65,4000 -116.61,51.66,4000 -116.59,51.66,4000 -116.58,51.66,4000 -116.57,51.66,4000 -116.55,51.66,4000 -116.54,51.67,4000 -116.53,51.67,4000 -116.52,51.67,4000 -116.51,51.67,4000 -116.50,51.67,4000 -116.49,51.67,4000 -116.48,51.67,4000 -116.47,51.67,4000 -116.46,51.67,4000 -116.45,51.67,4000 -116.44,51.67,4000 -116.42,51.67,4000 -116.41,51.66,4000 -116.40,51.66,4000 -116.39,51.65,4000 -116.38,51.65,4000 -116.37,51.64,4000 -116.37,51.63,4000 -116.36,51.63,4000 -116.36,51.62,4000 -116.35,51.62,4000 -116.35,51.61,4000 -116.35,51.60,4000 -116.35,51.60,4000 -116.35,51.59,4000 -116.35,51.58,4000 -116.35,51.58,4000 -116.36,51.57,4000 -116.36,51.56,4000 -116.37,51.55,4000 -116.38,51.55,4000 -116.39,51.54,4000 -116.40,51.53,4000 -116.41,51.53,4000 -116.42,51.53,4000 -116.43,51.53,4000 -116.44,51.52,4000 -116.45,51.52,4000 -116.46,51.52,4000 -116.47,51.52,4000 -116.48,51.52,4000 -116.50,51.51,4000 -116.51,51.51,4000 -116.52,51.51,4000 -116.54,51.51,4000 -116.55,51.51,4000 -116.57,51.51,4000 -116.58,51.51,4000 -116.59,51.51,4000 -116.61,51.51,4000 -116.62,51.51,4000 -116.63,51.51,4000 -116.64,51.51,4000 -116.65,51.51,4000 -116.66,51.51,4000 -116.67,51.51,4000 -116.68,51.51,4000 -116.70,51.52,4000 -116.71,51.52,4000 -116.72,51.52,4000 -116.73,51.53,4000 -116.73,51.54,4000 -116.74,51.54,4000 -116.75,51.55,4000 -116.75,51.56,4000 -116.76,51.56,4000 -116.76,51.57,4000 -116.70,51.64,4000 
          </coordinates>
        </LinearRing>
      </innerBoundaryIs>
  </Polygon>
 </MultiGeometry>
</Placemark>
<Placemark>
  <name>20%</name>
  <visibility>1</visibility>
  <styleUrl>#poly_20</styleUrl>
  <MultiGeometry>
    <Polygon>
      <outerBoundaryIs>
        <LinearRing>
          <coordinates>
-118.24,51.46,3000 -118.20,51.49,3000 -118.17,51.52,3000 -118.13,51.54,3000 -118.09,51.56,3000 -118.05,51.58,3000 -118.01,51.60,3000 -117.96,51.61,3000 -117.91,51.62,3000 -117.85,51.63,3000 -117.80,51.63,3000 -117.75,51.62,3000 -117.71,51.61,3000 -117.67,51.59,3000 -117.62,51.57,3000 -117.59,51.54,3000 -117.55,51.51,3000 -117.52,51.49,3000 -117.49,51.46,3000 -117.47,51.42,3000 -117.45,51.39,3000 -117.43,51.36,3000 -117.42,51.34,3000 -117.41,51.33,3000 -117.38,51.32,3000 -117.33,51.30,3000 -117.27,51.29,3000 -117.21,51.27,3000 -117.16,51.25,3000 -117.12,51.24,3000 -117.08,51.23,3000 -117.06,51.21,3000 -117.03,51.19,3000 -117.00,51.16,3000 -116.96,51.13,3000 -116.93,51.09,3000 -116.90,51.06,3000 -116.88,51.03,3000 -116.85,51.00,3000 -116.83,50.97,3000 -116.82,50.94,3000 -116.80,50.91,3000 -116.78,50.88,3000 -116.76,50.84,3000 -116.74,50.81,3000 -116.73,50.78,3000 -116.74,50.75,3000 -116.76,50.73,3000 -116.79,50.70,3000 -116.84,50.68,3000 -116.88,50.66,3000 -116.93,50.64,3000 -116.97,50.63,3000 -117.02,50.63,3000 -117.08,50.63,3000 -117.14,50.64,3000 -117.19,50.65,3000 -117.23,50.66,3000 -117.28,50.67,3000 -117.33,50.69,3000 -117.37,50.70,3000 -117.41,50.72,3000 -117.45,50.74,3000 -117.50,50.76,3000 -117.53,50.78,3000 -117.57,50.80,3000 -117.60,50.83,3000 -117.63,50.85,3000 -117.66,50.89,3000 -117.69,50.92,3000 -117.72,50.95,3000 -117.75,50.98,3000 -117.78,51.01,3000 -117.81,51.03,3000 -117.84,51.05,3000 -117.87,51.07,3000 -117.91,51.09,3000 -117.94,51.11,3000 -117.98,51.12,3000 -118.02,51.13,3000 -118.05,51.14,3000 -118.10,51.15,3000 -118.15,51.16,3000 -118.20,51.16,3000 -118.26,51.16,3000 -118.32,51.16,3000 -118.37,51.17,3000 -118.42,51.17,3000 -118.48,51.18,3000 -118.52,51.20,3000 -118.54,51.22,3000 -118.53,51.24,3000 -118.49,51.27,3000 -118.45,51.30,3000 -118.42,51.33,3000 -118.39,51.35,3000 -118.36,51.38,3000 -118.33,51.41,3000 -118.24,51.46,3000 
          </coordinates>
        </LinearRing>
      </outerBoundaryIs>
      <innerBoundaryIs>
        <LinearRing>
          <coordinates>
-118.00,51.55,4000 -117.95,51.55,4000 -117.90,51.56,4000 -117.86,51.56,4000 -117.82,51.56,4000 -117.78,51.56,4000 -117.74,51.56,4000 -117.69,51.55,4000 -117.66,51.54,4000 -117.63,51.52,4000 -117.60,51.49,4000 -117.59,51.47,4000 -117.57,51.44,4000 -117.57,51.41,4000 -117.56,51.38,4000 -117.54,51.35,4000 -117.53,51.33,4000 -117.50,51.30,4000 -117.47,51.28,4000 -117.43,51.27,4000 -117.39,51.25,4000 -117.35,51.24,4000 -117.30,51.22,4000 -117.26,51.21,4000 -117.22,51.20,4000 -117.19,51.19,4000 -117.16,51.17,4000 -117.13,51.16,4000 -117.10,51.14,4000 -117.07,51.12,4000 -117.04,51.10,4000 -117.02,51.08,4000 -116.99,51.05,4000 -116.97,51.03,4000 -116.95,51.00,4000 -116.94,50.98,4000 -116.92,50.95,4000 -116.91,50.93,4000 -116.91,50.90,4000 -116.91,50.87,4000 -116.92,50.84,4000 -116.93,50.82,4000 -116.95,50.79,4000 -116.97,50.77,4000 -117.00,50.75,4000 -117.03,50.74,4000 -117.08,50.73,4000 -117.12,50.73,4000 -117.17,50.73,4000 -117.22,50.73,4000 -117.26,50.74,4000 -117.30,50.75,4000 -117.33,50.77,4000 -117.37,50.78,4000 -117.40,50.80,4000 -117.43,50.82,4000 -117.46,50.84,4000 -117.49,50.86,4000 -117.52,50.88,4000 -117.54,50.90,4000 -117.56,50.92,4000 -117.59,50.94,4000 -117.61,50.96,4000 -117.64,50.99,4000 -117.66,51.01,4000 -117.68,51.04,4000 -117.70,51.07,4000 -117.73,51.10,4000 -117.75,51.12,4000 -117.77,51.14,4000 -117.80,51.16,4000 -117.84,51.16,4000 -117.89,51.17,4000 -117.92,51.18,4000 -117.97,51.19,4000 -118.01,51.21,4000 -118.06,51.22,4000 -118.11,51.23,4000 -118.15,51.24,4000 -118.18,51.25,4000 -118.23,51.25,4000 -118.23,51.25,4000 -118.21,51.26,4000 -118.19,51.29,4000 -118.18,51.31,4000 -118.18,51.33,4000 -118.18,51.36,4000 -118.17,51.39,4000 -118.17,51.42,4000 -118.00,51.55,4000 
          </coordinates>
        </LinearRing>
      </innerBoundaryIs>
  </Polygon>
 </MultiGeometry>
</Placemark>
<Placemark>
  <name>30%</name>
  <visibility>1</visibility>
  <styleUrl>#poly_30</styleUrl>
  <MultiGeometry>
    <Polygon>
      <outerBoundaryIs>
        <LinearRing>
          <coordinates>
-118.00,51.55,4000 -117.95,51.55,4000 -117.90,51.56,4000 -117.86,51.56,4000 -117.82,51.56,4000 -117.78,51.56,4000 -117.74,51.56,4000 -117.69,51.55,4000 -117.66,51.54,4000 -117.63,51.52,4000 -117.60,51.49,4000 -117.59,51.47,4000 -117.57,51.44,4000 -117.57,51.41,4000 -117.56,51.38,4000 -117.54,51.35,4000 -117.53,51.33,4000 -117.50,51.30,4000 -117.47,51.28,4000 -117.43,51.27,4000 -117.39,51.25,4000 -117.35,51.24,4000 -117.30,51.22,4000 -117.26,51.21,4000 -117.22,51.20,4000 -117.19,51.19,4000 -117.16,51.17,4000 -117.13,51.16,4000 -117.10,51.14,4000 -117.07,51.12,4000 -117.04,51.10,4000 -117.02,51.08,4000 -116.99,51.05,4000 -116.97,51.03,4000 -116.95,51.00,4000 -116.94,50.98,4000 -116.92,50.95,4000 -116.91,50.93,4000 -116.91,50.90,4000 -116.91,50.87,4000 -116.92,50.84,4000 -116.93,50.82,4000 -116.95,50.79,4000 -116.97,50.77,4000 -117.00,50.75,4000 -117.03,50.74,4000 -117.08,50.73,4000 -117.12,50.73,4000 -117.17,50.73,4000 -117.22,50.73,4000 -117.26,50.74,4000 -117.30,50.75,4000 -117.33,50.77,4000 -117.37,50.78,4000 -117.40,50.80,4000 -117.43,50.82,4000 -117.46,50.84,4000 -117.49,50.86,4000 -117.52,50.88,4000 -117.54,50.90,4000 -117.56,50.92,4000 -117.59,50.94,4000 -117.61,50.96,4000 -117.64,50.99,4000 -117.66,51.01,4000 -117.68,51.04,4000 -117.70,51.07,4000 -117.73,51.10,4000 -117.75,51.12,4000 -117.77,51.14,4000 -117.80,51.16,4000 -117.84,51.16,4000 -117.89,51.17,4000 -117.92,51.18,4000 -117.97,51.19,4000 -118.01,51.21,4000 -118.06,51.22,4000 -118.11,51.23,4000 -118.15,51.24,4000 -118.18,51.25,4000 -118.23,51.25,4000 -118.23,51.25,4000 -118.21,51.26,4000 -118.19,51.29,4000 -118.18,51.31,4000 -118.18,51.33,4000 -118.18,51.36,4000 -118.17,51.39,4000 -118.17,51.42,4000 -118.00,51.55,4000 
          </coordinates>
        </LinearRing>
      </outerBoundaryIs>
      <innerBoundaryIs>
        <LinearRing>
          <coordinates>
-117.37,51.17,5000 -117.35,51.16,5000 -117.33,51.16,5000 -117.31,51.15,5000 -117.30,51.14,5000 -117.28,51.13,5000 -117.26,51.12,5000 -117.24,51.12,5000 -117.22,51.11,5000 -117.21,51.10,5000 -117.19,51.09,5000 -117.18,51.09,5000 -117.16,51.08,5000 -117.15,51.07,5000 -117.13,51.06,5000 -117.12,51.06,5000 -117.11,51.05,5000 -117.10,51.04,5000 -117.09,51.03,5000 -117.08,51.02,5000 -117.07,51.00,5000 -117.06,50.99,5000 -117.05,50.98,5000 -117.05,50.96,5000 -117.04,50.95,5000 -117.04,50.94,5000 -117.04,50.93,5000 -117.04,50.92,5000 -117.03,50.91,5000 -117.03,50.90,5000 -117.03,50.89,5000 -117.03,50.88,5000 -117.04,50.88,5000 -117.06,50.87,5000 -117.07,50.87,5000 -117.09,50.87,5000 -117.12,50.86,5000 -117.14,50.86,5000 -117.16,50.85,5000 -117.19,50.85,5000 -117.21,50.84,5000 -117.23,50.84,5000 -117.25,50.83,5000 -117.27,50.83,5000 -117.28,50.83,5000 -117.31,50.83,5000 -117.32,50.83,5000 -117.32,50.83,5000 -117.34,50.85,5000 -117.35,50.86,5000 -117.36,50.86,5000 -117.37,50.87,5000 -117.38,50.88,5000 -117.39,50.89,5000 -117.40,50.90,5000 -117.41,50.91,5000 -117.42,50.92,5000 -117.43,50.93,5000 -117.45,50.94,5000 -117.46,50.95,5000 -117.47,50.96,5000 -117.48,50.98,5000 -117.50,50.99,5000 -117.51,51.00,5000 -117.37,51.17,5000 
          </coordinates>
        </LinearRing>
      </innerBoundaryIs>
      <innerBoundaryIs>
        <LinearRing>
          <coordinates>
-117.98,51.50,5000 -117.96,51.50,5000 -117.94,51.50,5000 -117.92,51.50,5000 -117.90,51.50,5000 -117.88,51.50,5000 -117.86,51.50,5000 -117.85,51.50,5000 -117.83,51.50,5000 -117.81,51.50,5000 -117.80,51.50,5000 -117.78,51.50,5000 -117.77,51.50,5000 -117.75,51.50,5000 -117.74,51.50,5000 -117.73,51.50,5000 -117.72,51.50,5000 -117.69,51.50,5000 -117.69,51.50,5000 -117.68,51.50,5000 -117.68,51.48,5000 -117.68,51.47,5000 -117.67,51.47,5000 -117.67,51.46,5000 -117.67,51.45,5000 -117.67,51.44,5000 -117.66,51.43,5000 -117.66,51.42,5000 -117.66,51.40,5000 -117.65,51.39,5000 -117.65,51.38,5000 -117.65,51.37,5000 -117.65,51.36,5000 -117.64,51.35,5000 -117.64,51.34,5000 -117.64,51.33,5000 -117.64,51.32,5000 -117.64,51.31,5000 -117.63,51.29,5000 -117.63,51.28,5000 -117.63,51.27,5000 -117.63,51.26,5000 -117.63,51.25,5000 -117.63,51.24,5000 -117.64,51.24,5000 -117.65,51.23,5000 -117.66,51.23,5000 -117.67,51.23,5000 -117.68,51.23,5000 -117.70,51.23,5000 -117.71,51.23,5000 -117.73,51.23,5000 -117.75,51.23,5000 -117.76,51.23,5000 -117.78,51.23,5000 -117.80,51.23,5000 -117.82,51.23,5000 -117.84,51.23,5000 -117.85,51.23,5000 -117.87,51.24,5000 -117.88,51.24,5000 -117.90,51.24,5000 -117.91,51.24,5000 -117.93,51.24,5000 -117.95,51.24,5000 -117.97,51.24,5000 -117.98,51.24,5000 -118.00,51.25,5000 -118.01,51.25,5000 -118.02,51.25,5000 -118.03,51.26,5000 -118.04,51.27,5000 -118.04,51.28,5000 -118.05,51.28,5000 -118.05,51.29,5000 -118.05,51.30,5000 -118.06,51.31,5000 -118.06,51.32,5000 -118.06,51.33,5000 -118.06,51.34,5000 -118.07,51.35,5000 -118.07,51.36,5000 -118.07,51.37,5000 -118.07,51.38,5000 -118.07,51.39,5000 -118.07,51.40,5000 -118.07,51.42,5000 -118.07,51.43,5000 -118.07,51.44,5000 -117.98,51.50,5000 
          </coordinates>
        </LinearRing>
      </innerBoundaryIs>
  </Polygon>
 </MultiGeometry>
</Placemark>
<Placemark>
  <name>30%</name>
  <visibility>1</visibility>
  <styleUrl>#poly_30</styleUrl>
  <MultiGeometry>
    <Polygon>
      <outerBoundaryIs>
        <LinearRing>
          <coordinates>
-116.70,51.64,4000 -116.69,51.64,4000 -116.67,51.65,4000 -116.66,51.65,4000 -116.65,51.65,4000 -116.63,51.65,4000 -116.62,51.65,4000 -116.61,51.66,4000 -116.59,51.66,4000 -116.58,51.66,4000 -116.57,51.66,4000 -116.55,51.66,4000 -116.54,51.67,4000 -116.53,51.67,4000 -116.52,51.67,4000 -116.51,51.67,4000 -116.50,51.67,4000 -116.49,51.67,4000 -116.48,51.67,4000 -116.47,51.67,4000 -116.46,51.67,4000 -116.45,51.67,4000 -116.44,51.67,4000 -116.42,51.67,4000 -116.41,51.66,4000 -116.40,51.66,4000 -116.39,51.65,4000 -116.38,51.65,4000 -116.37,51.64,4000 -116.37,51.63,4000 -116.36,51.63,4000 -116.36,51.62,4000 -116.35,51.62,4000 -116.35,51.61,4000 -116.35,51.60,4000 -116.35,51.60,4000 -116.35,51.59,4000 -116.35,51.58,4000 -116.35,51.58,4000 -116.36,51.57,4000 -116.36,51.56,4000 -116.37,51.55,4000 -116.38,51.55,4000 -116.39,51.54,4000 -116.40,51.53,4000 -116.41,51.53,4000 -116.42,51.53,4000 -116.43,51.53,4000 -116.44,51.52,4000 -116.45,51.52,4000 -116.46,51.52,4000 -116.47,51.52,4000 -116.48,51.52,4000 -116.50,51.51,4000 -116.51,51.51,4000 -116.52,51.51,4000 -116.54,51.51,4000 -116.55,51.51,4000 -116.57,51.51,4000 -116.58,51.51,4000 -116.59,51.51,4000 -116.61,51.51,4000 -116.62,51.51,4000 -116.63,51.51,4000 -116.64,51.51,4000 -116.65,51.51,4000 -116.66,51.51,4000 -116.67,51.51,4000 -116.68,51.51,4000 -116.70,51.52,4000 -116.71,51.52,4000 -116.72,51.52,4000 -116.73,51.53,4000 -116.73,51.54,4000 -116.74,51.54,4000 -116.75,51.55,4000 -116.75,51.56,4000 -116.76,51.56,4000 -116.76,51.57,4000 -116.70,51.64,4000 
          </coordinates>
        </LinearRing>
      </outerBoundaryIs>
  </Polygon>
 </MultiGeometry>
</Placemark>
<Placemark>
  <name>30%</name>
  <visibility>1</visibility>
  <styleUrl>#poly_30</styleUrl>
  <MultiGeometry>
    <Polygon>
      <outerBoundaryIs>
        <LinearRing>
          <coordinates>
-124.09,50.79,4000 -124.07,50.80,4000 -124.05,50.81,4000 -124.02,50.82,4000 -124.00,50.83,4000 -123.98,50.83,4000 -123.95,50.84,4000 -123.93,50.85,4000 -123.91,50.86,4000 -123.88,50.86,4000 -123.86,50.87,4000 -123.84,50.88,4000 -123.81,50.88,4000 -123.78,50.88,4000 -123.76,50.89,4000 -123.73,50.89,4000 -123.71,50.89,4000 -123.68,50.90,4000 -123.65,50.90,4000 -123.63,50.90,4000 -123.60,50.90,4000 -123.57,50.90,4000 -123.54,50.90,4000 -123.51,50.90,4000 -123.48,50.89,4000 -123.45,50.89,4000 -123.43,50.89,4000 -123.40,50.88,4000 -123.37,50.88,4000 -123.35,50.87,4000 -123.33,50.87,4000 -123.30,50.86,4000 -123.27,50.85,4000 -123.25,50.84,4000 -123.24,50.83,4000 -123.23,50.81,4000 -123.23,50.80,4000 -123.23,50.78,4000 -123.24,50.76,4000 -123.25,50.74,4000 -123.26,50.73,4000 -123.27,50.71,4000 -123.28,50.70,4000 -123.28,50.69,4000 -123.28,50.67,4000 -123.29,50.66,4000 -123.30,50.64,4000 -123.31,50.63,4000 -123.32,50.61,4000 -123.33,50.60,4000 -123.34,50.58,4000 -123.35,50.56,4000 -123.36,50.54,4000 -123.37,50.52,4000 -123.38,50.50,4000 -123.39,50.49,4000 -123.40,50.47,4000 -123.41,50.46,4000 -123.42,50.43,4000 -123.43,50.42,4000 -123.44,50.42,4000 -123.46,50.42,4000 -123.48,50.42,4000 -123.51,50.43,4000 -123.53,50.44,4000 -123.56,50.44,4000 -123.58,50.44,4000 -123.60,50.44,4000 -123.62,50.44,4000 -123.65,50.43,4000 -123.68,50.43,4000 -123.71,50.44,4000 -123.73,50.44,4000 -123.75,50.45,4000 -123.78,50.46,4000 -123.81,50.47,4000 -123.83,50.48,4000 -123.86,50.48,4000 -123.89,50.49,4000 -123.92,50.50,4000 -123.94,50.51,4000 -123.97,50.52,4000 -123.98,50.53,4000 -124.00,50.53,4000 -124.02,50.54,4000 -124.03,50.55,4000 -124.04,50.56,4000 -124.05,50.57,4000 -124.07,50.59,4000 -124.08,50.60,4000 -124.10,50.62,4000 -124.12,50.64,4000 -124.13,50.65,4000 -124.15,50.67,4000 -124.17,50.69,4000 -124.09,50.79,4000 
          </coordinates>
        </LinearRing>
      </outerBoundaryIs>
      <innerBoundaryIs>
        <LinearRing>
          <coordinates>
-124.07,50.73,5000 -124.05,50.74,5000 -124.04,50.75,5000 -124.02,50.76,5000 -124.00,50.77,5000 -123.98,50.78,5000 -123.97,50.78,5000 -123.95,50.79,5000 -123.93,50.80,5000 -123.91,50.81,5000 -123.89,50.81,5000 -123.88,50.82,5000 -123.86,50.83,5000 -123.84,50.83,5000 -123.82,50.83,5000 -123.80,50.84,5000 -123.78,50.84,5000 -123.76,50.85,5000 -123.74,50.85,5000 -123.72,50.85,5000 -123.70,50.85,5000 -123.67,50.85,5000 -123.65,50.85,5000 -123.63,50.85,5000 -123.61,50.85,5000 -123.59,50.85,5000 -123.57,50.85,5000 -123.54,50.85,5000 -123.52,50.85,5000 -123.50,50.84,5000 -123.47,50.84,5000 -123.45,50.84,5000 -123.42,50.83,5000 -123.40,50.83,5000 -123.38,50.82,5000 -123.36,50.82,5000 -123.35,50.81,5000 -123.34,50.80,5000 -123.33,50.79,5000 -123.33,50.78,5000 -123.33,50.77,5000 -123.34,50.75,5000 -123.34,50.74,5000 -123.35,50.73,5000 -123.35,50.71,5000 -123.36,50.70,5000 -123.37,50.68,5000 -123.38,50.67,5000 -123.39,50.65,5000 -123.39,50.64,5000 -123.40,50.63,5000 -123.41,50.61,5000 -123.41,50.60,5000 -123.42,50.59,5000 -123.42,50.57,5000 -123.43,50.56,5000 -123.43,50.55,5000 -123.44,50.54,5000 -123.45,50.53,5000 -123.47,50.52,5000 -123.49,50.51,5000 -123.50,50.51,5000 -123.52,50.50,5000 -123.55,50.50,5000 -123.57,50.50,5000 -123.59,50.49,5000 -123.62,50.49,5000 -123.64,50.49,5000 -123.67,50.49,5000 -123.69,50.49,5000 -123.71,50.49,5000 -123.73,50.49,5000 -123.75,50.49,5000 -123.77,50.50,5000 -123.79,50.50,5000 -123.81,50.51,5000 -123.83,50.51,5000 -123.85,50.52,5000 -123.87,50.53,5000 -123.89,50.53,5000 -123.90,50.54,5000 -123.92,50.55,5000 -123.94,50.56,5000 -123.95,50.57,5000 -123.97,50.58,5000 -123.98,50.59,5000 -123.99,50.60,5000 -124.01,50.61,5000 -124.02,50.62,5000 -124.03,50.63,5000 -124.04,50.64,5000 -124.05,50.65,5000 -124.07,50.67,5000 -124.08,50.68,5000 -124.09,50.69,5000 -124.09,50.70,5000 -124.07,50.73,5000 
          </coordinates>
        </LinearRing>
      </innerBoundaryIs>
  </Polygon>
 </MultiGeometry>
</Placemark>
<Placemark>
  <name>40%</name>
  <visibility>1</visibility>
  <styleUrl>#poly_40</styleUrl>
  <MultiGeometry>
    <Polygon>
      <outerBoundaryIs>
        <LinearRing>
          <coordinates>
-117.37,51.17,5000 -117.35,51.16,5000 -117.33,51.16,5000 -117.31,51.15,5000 -117.30,51.14,5000 -117.28,51.13,5000 -117.26,51.12,5000 -117.24,51.12,5000 -117.22,51.11,5000 -117.21,51.10,5000 -117.19,51.09,5000 -117.18,51.09,5000 -117.16,51.08,5000 -117.15,51.07,5000 -117.13,51.06,5000 -117.12,51.06,5000 -117.11,51.05,5000 -117.10,51.04,5000 -117.09,51.03,5000 -117.08,51.02,5000 -117.07,51.00,5000 -117.06,50.99,5000 -117.05,50.98,5000 -117.05,50.96,5000 -117.04,50.95,5000 -117.04,50.94,5000 -117.04,50.93,5000 -117.04,50.92,5000 -117.03,50.91,5000 -117.03,50.90,5000 -117.03,50.89,5000 -117.03,50.88,5000 -117.04,50.88,5000 -117.06,50.87,5000 -117.07,50.87,5000 -117.09,50.87,5000 -117.12,50.86,5000 -117.14,50.86,5000 -117.16,50.85,5000 -117.19,50.85,5000 -117.21,50.84,5000 -117.23,50.84,5000 -117.25,50.83,5000 -117.27,50.83,5000 -117.28,50.83,5000 -117.31,50.83,5000 -117.32,50.83,5000 -117.32,50.83,5000 -117.34,50.85,5000 -117.35,50.86,5000 -117.36,50.86,5000 -117.37,50.87,5000 -117.38,50.88,5000 -117.39,50.89,5000 -117.40,50.90,5000 -117.41,50.91,5000 -117.42,50.92,5000 -117.43,50.93,5000 -117.45,50.94,5000 -117.46,50.95,5000 -117.47,50.96,5000 -117.48,50.98,5000 -117.50,50.99,5000 -117.51,51.00,5000 -117.37,51.17,5000 
          </coordinates>
        </LinearRing>
      </outerBoundaryIs>
  </Polygon>
 </MultiGeometry>
</Placemark>
<Placemark>
  <name>40%</name>
  <visibility>1</visibility>
  <styleUrl>#poly_40</styleUrl>
  <MultiGeometry>
    <Polygon>
      <outerBoundaryIs>
        <LinearRing>
          <coordinates>
-117.98,51.50,5000 -117.96,51.50,5000 -117.94,51.50,5000 -117.92,51.50,5000 -117.90,51.50,5000 -117.88,51.50,5000 -117.86,51.50,5000 -117.85,51.50,5000 -117.83,51.50,5000 -117.81,51.50,5000 -117.80,51.50,5000 -117.78,51.50,5000 -117.77,51.50,5000 -117.75,51.50,5000 -117.74,51.50,5000 -117.73,51.50,5000 -117.72,51.50,5000 -117.69,51.50,5000 -117.69,51.50,5000 -117.68,51.50,5000 -117.68,51.48,5000 -117.68,51.47,5000 -117.67,51.47,5000 -117.67,51.46,5000 -117.67,51.45,5000 -117.67,51.44,5000 -117.66,51.43,5000 -117.66,51.42,5000 -117.66,51.40,5000 -117.65,51.39,5000 -117.65,51.38,5000 -117.65,51.37,5000 -117.65,51.36,5000 -117.64,51.35,5000 -117.64,51.34,5000 -117.64,51.33,5000 -117.64,51.32,5000 -117.64,51.31,5000 -117.63,51.29,5000 -117.63,51.28,5000 -117.63,51.27,5000 -117.63,51.26,5000 -117.63,51.25,5000 -117.63,51.24,5000 -117.64,51.24,5000 -117.65,51.23,5000 -117.66,51.23,5000 -117.67,51.23,5000 -117.68,51.23,5000 -117.70,51.23,5000 -117.71,51.23,5000 -117.73,51.23,5000 -117.75,51.23,5000 -117.76,51.23,5000 -117.78,51.23,5000 -117.80,51.23,5000 -117.82,51.23,5000 -117.84,51.23,5000 -117.85,51.23,5000 -117.87,51.24,5000 -117.88,51.24,5000 -117.90,51.24,5000 -117.91,51.24,5000 -117.93,51.24,5000 -117.95,51.24,5000 -117.97,51.24,5000 -117.98,51.24,5000 -118.00,51.25,5000 -118.01,51.25,5000 -118.02,51.25,5000 -118.03,51.26,5000 -118.04,51.27,5000 -118.04,51.28,5000 -118.05,51.28,5000 -118.05,51.29,5000 -118.05,51.30,5000 -118.06,51.31,5000 -118.06,51.32,5000 -118.06,51.33,5000 -118.06,51.34,5000 -118.07,51.35,5000 -118.07,51.36,5000 -118.07,51.37,5000 -118.07,51.38,5000 -118.07,51.39,5000 -118.07,51.40,5000 -118.07,51.42,5000 -118.07,51.43,5000 -118.07,51.44,5000 -117.98,51.50,5000 
          </coordinates>
        </LinearRing>
      </outerBoundaryIs>
  </Polygon>
 </MultiGeometry>
</Placemark>
<Placemark>
  <name>40%</name>
  <visibility>1</visibility>
  <styleUrl>#poly_40</styleUrl>
  <MultiGeometry>
    <Polygon>
      <outerBoundaryIs>
        <LinearRing>
          <coordinates>
-124.07,50.73,5000 -124.05,50.74,5000 -124.04,50.75,5000 -124.02,50.76,5000 -124.00,50.77,5000 -123.98,50.78,5000 -123.97,50.78,5000 -123.95,50.79,5000 -123.93,50.80,5000 -123.91,50.81,5000 -123.89,50.81,5000 -123.88,50.82,5000 -123.86,50.83,5000 -123.84,50.83,5000 -123.82,50.83,5000 -123.80,50.84,5000 -123.78,50.84,5000 -123.76,50.85,5000 -123.74,50.85,5000 -123.72,50.85,5000 -123.70,50.85,5000 -123.67,50.85,5000 -123.65,50.85,5000 -123.63,50.85,5000 -123.61,50.85,5000 -123.59,50.85,5000 -123.57,50.85,5000 -123.54,50.85,5000 -123.52,50.85,5000 -123.50,50.84,5000 -123.47,50.84,5000 -123.45,50.84,5000 -123.42,50.83,5000 -123.40,50.83,5000 -123.38,50.82,5000 -123.36,50.82,5000 -123.35,50.81,5000 -123.34,50.80,5000 -123.33,50.79,5000 -123.33,50.78,5000 -123.33,50.77,5000 -123.34,50.75,5000 -123.34,50.74,5000 -123.35,50.73,5000 -123.35,50.71,5000 -123.36,50.70,5000 -123.37,50.68,5000 -123.38,50.67,5000 -123.39,50.65,5000 -123.39,50.64,5000 -123.40,50.63,5000 -123.41,50.61,5000 -123.41,50.60,5000 -123.42,50.59,5000 -123.42,50.57,5000 -123.43,50.56,5000 -123.43,50.55,5000 -123.44,50.54,5000 -123.45,50.53,5000 -123.47,50.52,5000 -123.49,50.51,5000 -123.50,50.51,5000 -123.52,50.50,5000 -123.55,50.50,5000 -123.57,50.50,5000 -123.59,50.49,5000 -123.62,50.49,5000 -123.64,50.49,5000 -123.67,50.49,5000 -123.69,50.49,5000 -123.71,50.49,5000 -123.73,50.49,5000 -123.75,50.49,5000 -123.77,50.50,5000 -123.79,50.50,5000 -123.81,50.51,5000 -123.83,50.51,5000 -123.85,50.52,5000 -123.87,50.53,5000 -123.89,50.53,5000 -123.90,50.54,5000 -123.92,50.55,5000 -123.94,50.56,5000 -123.95,50.57,5000 -123.97,50.58,5000 -123.98,50.59,5000 -123.99,50.60,5000 -124.01,50.61,5000 -124.02,50.62,5000 -124.03,50.63,5000 -124.04,50.64,5000 -124.05,50.65,5000 -124.07,50.67,5000 -124.08,50.68,5000 -124.09,50.69,5000 -124.09,50.70,5000 -124.07,50.73,5000 
          </coordinates>
        </LinearRing>
      </outerBoundaryIs>
      <innerBoundaryIs>
        <LinearRing>
          <coordinates>
-123.83,50.79,6000 -123.81,50.79,6000 -123.79,50.79,6000 -123.78,50.79,6000 -123.76,50.79,6000 -123.74,50.80,6000 -123.73,50.80,6000 -123.71,50.80,6000 -123.69,50.80,6000 -123.68,50.80,6000 -123.66,50.80,6000 -123.65,50.80,6000 -123.63,50.80,6000 -123.62,50.80,6000 -123.61,50.80,6000 -123.59,50.80,6000 -123.58,50.80,6000 -123.57,50.80,6000 -123.55,50.80,6000 -123.53,50.80,6000 -123.51,50.80,6000 -123.50,50.80,6000 -123.48,50.80,6000 -123.48,50.79,6000 -123.47,50.78,6000 -123.47,50.77,6000 -123.47,50.77,6000 -123.47,50.76,6000 -123.46,50.75,6000 -123.46,50.74,6000 -123.46,50.73,6000 -123.46,50.72,6000 -123.46,50.71,6000 -123.46,50.70,6000 -123.47,50.69,6000 -123.47,50.68,6000 -123.47,50.66,6000 -123.47,50.65,6000 -123.48,50.64,6000 -123.48,50.63,6000 -123.49,50.63,6000 -123.49,50.62,6000 -123.50,50.61,6000 -123.51,50.60,6000 -123.52,50.60,6000 -123.53,50.59,6000 -123.54,50.59,6000 -123.56,50.58,6000 -123.57,50.58,6000 -123.59,50.57,6000 -123.60,50.57,6000 -123.62,50.56,6000 -123.63,50.56,6000 -123.65,50.56,6000 -123.66,50.55,6000 -123.68,50.55,6000 -123.69,50.55,6000 -123.71,50.54,6000 -123.72,50.54,6000 -123.73,50.54,6000 -123.74,50.54,6000 -123.76,50.54,6000 -123.77,50.54,6000 -123.78,50.54,6000 -123.79,50.54,6000 -123.80,50.55,6000 -123.81,50.56,6000 -123.82,50.57,6000 -123.83,50.57,6000 -123.83,50.58,6000 -123.84,50.59,6000 -123.85,50.59,6000 -123.86,50.60,6000 -123.87,50.61,6000 -123.87,50.61,6000 -123.88,50.62,6000 -123.89,50.63,6000 -123.90,50.64,6000 -123.91,50.65,6000 -123.92,50.66,6000 -123.93,50.66,6000 -123.94,50.67,6000 -123.95,50.68,6000 -123.96,50.69,6000 -123.97,50.70,6000 -123.98,50.71,6000 -123.83,50.79,6000 
          </coordinates>
        </LinearRing>
      </innerBoundaryIs>
  </Polygon>
 </MultiGeometry>
</Placemark>
<Placemark>
  <name>50%</name>
  <visibility>1</visibility>
  <styleUrl>#poly_50</styleUrl>
  <MultiGeometry>
    <Polygon>
      <outerBoundaryIs>
        <LinearRing>
          <coordinates>
-123.83,50.79,6000 -123.81,50.79,6000 -123.79,50.79,6000 -123.78,50.79,6000 -123.76,50.79,6000 -123.74,50.80,6000 -123.73,50.80,6000 -123.71,50.80,6000 -123.69,50.80,6000 -123.68,50.80,6000 -123.66,50.80,6000 -123.65,50.80,6000 -123.63,50.80,6000 -123.62,50.80,6000 -123.61,50.80,6000 -123.59,50.80,6000 -123.58,50.80,6000 -123.57,50.80,6000 -123.55,50.80,6000 -123.53,50.80,6000 -123.51,50.80,6000 -123.50,50.80,6000 -123.48,50.80,6000 -123.48,50.79,6000 -123.47,50.78,6000 -123.47,50.77,6000 -123.47,50.77,6000 -123.47,50.76,6000 -123.46,50.75,6000 -123.46,50.74,6000 -123.46,50.73,6000 -123.46,50.72,6000 -123.46,50.71,6000 -123.46,50.70,6000 -123.47,50.69,6000 -123.47,50.68,6000 -123.47,50.66,6000 -123.47,50.65,6000 -123.48,50.64,6000 -123.48,50.63,6000 -123.49,50.63,6000 -123.49,50.62,6000 -123.50,50.61,6000 -123.51,50.60,6000 -123.52,50.60,6000 -123.53,50.59,6000 -123.54,50.59,6000 -123.56,50.58,6000 -123.57,50.58,6000 -123.59,50.57,6000 -123.60,50.57,6000 -123.62,50.56,6000 -123.63,50.56,6000 -123.65,50.56,6000 -123.66,50.55,6000 -123.68,50.55,6000 -123.69,50.55,6000 -123.71,50.54,6000 -123.72,50.54,6000 -123.73,50.54,6000 -123.74,50.54,6000 -123.76,50.54,6000 -123.77,50.54,6000 -123.78,50.54,6000 -123.79,50.54,6000 -123.80,50.55,6000 -123.81,50.56,6000 -123.82,50.57,6000 -123.83,50.57,6000 -123.83,50.58,6000 -123.84,50.59,6000 -123.85,50.59,6000 -123.86,50.60,6000 -123.87,50.61,6000 -123.87,50.61,6000 -123.88,50.62,6000 -123.89,50.63,6000 -123.90,50.64,6000 -123.91,50.65,6000 -123.92,50.66,6000 -123.93,50.66,6000 -123.94,50.67,6000 -123.95,50.68,6000 -123.96,50.69,6000 -123.97,50.70,6000 -123.98,50.71,6000 -123.83,50.79,6000 
          </coordinates>
        </LinearRing>
      </outerBoundaryIs>
  </Polygon>
 </MultiGeometry>
</Placemark>
    </Folder>
  </Document>
</kml>
