<?xml version="1.0" encoding="UTF-8"?>
<kml xmlns="http://www.opengis.net/kml/2.2">
<Document id="prb_72hsnow_ge02_f072">
<name>WPC 72-Hr Prob of Snow > 2"</name>
  <open>1</open>
  <snippet>Valid 12Z 09/24/2026 - 12Z 09/27/2026</snippet>
  <description></description>
    <Style id="poly_1">
        <IconStyle>
           <color>00000000</color>
           <scale>1</scale>
        </IconStyle>
        <LabelStyle>
            <color>ff26478b</color>
            <scale>0.8</scale>
        </LabelStyle>
        <LineStyle>
            <color>6626478b</color>
            <width>0</width>
        </LineStyle>
	<PolyStyle>
            <color>6626478b</color>
	</PolyStyle>
        <BalloonStyle>
            <text>
                <![CDATA[ <table border=0 width="300"><tr><td style="font-size:10pt;">
                During this forecast period, there is a <b>1-5%</b> probability of snowfall exceeding the depicted amount in the enclosed area.
                <br/><br/>
                *<span style="font-size:8pt;">Note that in cases where this contour is embedded within a 5% contour, 
                the probability of snowfall exceeding the depicted amount is &lt;1%.</span>
                </td></tr></table>]]>
            </text>
        </BalloonStyle>
    </Style>

    <Style id="poly_5">
        <IconStyle>
           <color>00000000</color>
           <scale>1</scale>
        </IconStyle>
        <LabelStyle>
            <color>ff00eeee</color>
            <scale>0.8</scale>
        </LabelStyle>
        <LineStyle>
            <color>6600eeee</color>
            <width>0.4</width>
        </LineStyle>
	<PolyStyle>
	    <color>6600eeee</color>
	</PolyStyle>
        <BalloonStyle>
            <text>
                <![CDATA[ <table border=0 width="300"><tr><td style="font-size:10pt;">
                During this forecast period, there is a <b>5-10%</b> probability of snowfall exceeding the depicted amount in the enclosed area.
                <br/><br/>
                *<span style="font-size:8pt;">Note that in cases where this contour is embedded within a 10% contour, 
                the probability of snowfall exceeding the depicted amount is &lt;5%.</span>
                </td></tr></table>]]>
            </text>
        </BalloonStyle>
    </Style>

    <Style id="poly_10">
        <IconStyle>
           <color>00000000</color>
           <scale>1</scale>
        </IconStyle>
        <LabelStyle>
            <color>ff00ff7f</color>
            <scale>0.8</scale>
        </LabelStyle>
        <LineStyle>
            <color>6600ff7f</color>
            <width>0.4</width>
        </LineStyle>
	<PolyStyle>
	    <color>6600ff7f</color>
	</PolyStyle>
        <BalloonStyle>
            <text>
                <![CDATA[ <table border=0 width="300"><tr><td style="font-size:10pt;">
                During this forecast period, there is a <b>10-20%</b> probability of snowfall exceeding the depicted amount in the enclosed area.
                <br/><br/>
                *<span style="font-size:8pt;">Note that in cases where this contour is embedded within a 20% contour, 
                the probability of snowfall exceeding the depicted amount is &lt;10%.</span>
                </td></tr></table>]]>
            </text>
        </BalloonStyle>
    </Style>
    
    <Style id="poly_20">
        <IconStyle>
            <color>00000000</color>
            <scale>1</scale>
        </IconStyle>
        <LabelStyle>
            <color>ff00cd00</color>
            <scale>0.8</scale>
        </LabelStyle>
        <LineStyle>
            <color>6600cd00</color>
	    <width>0.4</width>
	</LineStyle>
	<PolyStyle>
	    <color>6600cd00</color>
	</PolyStyle>
        <BalloonStyle>
            <text>
                <![CDATA[ <table border=0 width="300"><tr><td style="font-size:10pt;">
                During this forecast period, there is a <b>20-30%</b> probability of snowfall exceeding the depicted amount in the enclosed area.
                <br/><br/>
                *<span style="font-size:8pt;">Note that in cases where this contour is embedded within a 30% contour, 
                the probability of snowfall exceeding the depicted amount is &lt;20%.</span>
                </td></tr></table>]]>
            </text>
        </BalloonStyle>
    </Style>

    <Style id="poly_30">
        <IconStyle>
            <color>00000000</color>
            <scale>1</scale>
        </IconStyle>
        <LabelStyle>
            <color>ff008b00</color>
            <scale>0.8</scale>
        </LabelStyle>
        <LineStyle>
            <color>66008b00</color>
	    <width>0.4</width>
	</LineStyle>
	<PolyStyle>
	    <color>66008b00</color>
	</PolyStyle>
        <BalloonStyle>
            <text>
                <![CDATA[ <table border=0 width="300"><tr><td style="font-size:10pt;">
                During this forecast period, there is a <b>30-40%</b> probability of snowfall exceeding the depicted amount in the enclosed area.
                <br/><br/>
                *<span style="font-size:8pt;">Note that in cases where this contour is embedded within a 40% contour, 
                the probability of snowfall exceeding the depicted amount is &lt;30%.</span>
                </td></tr></table>]]>
            </text>
        </BalloonStyle>
    </Style>

    <Style id="poly_40">
        <IconStyle>
            <color>00000000</color>
            <scale>1</scale>
        </IconStyle>
        <LabelStyle>
            <color>ff8b4e10</color>
            <scale>0.8</scale>
        </LabelStyle>
        <LineStyle>
            <color>668b4e10</color>
	    <width>0.4</width>
	</LineStyle>
	<PolyStyle>
	    <color>668b4e10</color>
	</PolyStyle>
        <BalloonStyle>
            <text>
                <![CDATA[ <table border=0 width="300"><tr><td style="font-size:10pt;">
                During this forecast period, there is a <b>40-50%</b> probability of snowfall exceeding the depicted amount in the enclosed area.
                <br/><br/>
                *<span style="font-size:8pt;">Note that in cases where this contour is embedded within a 50% contour, 
                the probability of snowfall exceeding the depicted amount is &lt;40%.</span>
                </td></tr></table>]]>
            </text>
        </BalloonStyle>
    </Style>

    <Style id="poly_50">
        <IconStyle>
            <color>00000000</color>
            <scale>1</scale>
        </IconStyle>
        <LabelStyle>
            <color>ffff901e</color>
            <scale>0.8</scale>
        </LabelStyle>
        <LineStyle>
            <color>66ff901e</color>
	    <width>0.4</width>
	</LineStyle>
	<PolyStyle>
	    <color>66ff901e</color>
	</PolyStyle>
        <BalloonStyle>
            <text>
                <![CDATA[ <table border=0 width="300"><tr><td style="font-size:10pt;">
                During this forecast period, there is a <b>50-60%</b> probability of snowfall exceeding the depicted amount in the enclosed area.
                <br/><br/>
                *<span style="font-size:8pt;">Note that in cases where this contour is embedded within a 60% contour, 
                the probability of snowfall exceeding the depicted amount is &lt;50%.</span>
                </td></tr></table>]]>
            </text>
        </BalloonStyle>
    </Style>

    <Style id="poly_60">
        <IconStyle>
            <color>00000000</color>
            <scale>1</scale>
        </IconStyle>
        <LabelStyle>
            <color>ffeeb200</color>
            <scale>0.8</scale>
        </LabelStyle>
        <LineStyle>
            <color>66eeb200</color>
	    <width>0.4</width>
	</LineStyle>
	<PolyStyle>
	    <color>66eeb200</color>
	</PolyStyle>
        <BalloonStyle>
            <text>
                <![CDATA[ <table border=0 width="300"><tr><td style="font-size:10pt;">
                During this forecast period, there is a <b>60-70%</b> probability of snowfall exceeding the depicted amount in the enclosed area.
                <br/><br/>
                *<span style="font-size:8pt;">Note that in cases where this contour is embedded within a 70% contour, 
                the probability of snowfall exceeding the depicted amount is &lt;60%.</span>
                </td></tr></table>]]>
            </text>
        </BalloonStyle>
    </Style>
    
    <Style id="poly_70">
        <IconStyle>
            <color>00000000</color>
            <scale>1</scale>
        </IconStyle>
        <LabelStyle>
            <color>ffeeee00</color>
            <scale>0.8</scale>
        </LabelStyle>
        <LineStyle>
            <color>66eeee00</color>
	    <width>0.4</width>
	</LineStyle>
	<PolyStyle>
	    <color>66eeee00</color>
	</PolyStyle>
        <BalloonStyle>
            <text>
                <![CDATA[ <table border=0 width="300"><tr><td style="font-size:10pt;">
                During this forecast period, there is a <b>70-80%</b> probability of snowfall exceeding the depicted amount in the enclosed area.
                <br/><br/>
                *<span style="font-size:8pt;">Note that in cases where this contour is embedded within a 80% contour, 
                the probability of snowfall exceeding the depicted amount is &lt;70%.</span>
                </td></tr></table>]]>
            </text>
        </BalloonStyle>
    </Style>

    <Style id="poly_80">
        <IconStyle>
            <color>00000000</color>
            <scale>1</scale>
        </IconStyle>
        <LabelStyle>
            <color>ff4782ff</color>
            <scale>0.8</scale>
        </LabelStyle>
        <LineStyle>
            <color>664782ff</color>
	    <width>0.4</width>
	</LineStyle>
	<PolyStyle>
	    <color>664782ff</color>
	</PolyStyle>
        <BalloonStyle>
            <text>
                <![CDATA[ <table border=0 width="300"><tr><td style="font-size:10pt;">
                During this forecast period, there is a <b>80-90%</b> probability of snowfall exceeding the depicted amount in the enclosed area.
                <br/><br/>
                *<span style="font-size:8pt;">Note that in cases where this contour is embedded within a 90% contour, 
                the probability of snowfall exceeding the depicted amount is &lt;80%.</span>
                </td></tr></table>]]>
            </text>
        </BalloonStyle>
    </Style>

    <Style id="poly_90">
        <IconStyle>
            <color>00000000</color>
            <scale>1</scale>
        </IconStyle>
        <LabelStyle>
            <color>ff2c2cee</color>
            <scale>0.8</scale>
        </LabelStyle>
        <LineStyle>
            <color>662c2cee</color>
            <width>0.4</width>
        </LineStyle>
        <PolyStyle>
            <color>662c2cee</color>
        </PolyStyle>
        <BalloonStyle>
            <text>
                <![CDATA[ <table border=0 width="300"><tr><td style="font-size:10pt;">
                During this forecast period, there is a <b>90-95%</b> probability of snowfall exceeding the depicted amount in the enclosed area.
                <br/><br/>
                *<span style="font-size:8pt;">Note that in cases where this contour is embedded within a 95% contour, 
                the probability of snowfall exceeding the depicted amount is &lt;90%.</span>
                </td></tr></table>]]>
            </text>
        </BalloonStyle>
    </Style>

    <Style id="poly_95">
        <IconStyle>
            <color>00000000</color>
            <scale>1</scale>
        </IconStyle>
        <LabelStyle>
            <color>ff00008b</color>
            <scale>0.8</scale>
        </LabelStyle>
        <LineStyle>
            <color>6600008b</color>
	    <width>0.4</width>
	</LineStyle>
	<PolyStyle>
	    <color>6600008b</color>
	</PolyStyle>
        <BalloonStyle>
            <text>
                <![CDATA[ <table border=0 width="300"><tr><td style="font-size:10pt;">
                The probability of snowfall exceeding the depicted amount is <b>&ge;95%</b> in the enclosed area during this forecast period.
                </td></tr></table>]]>
            </text>
        </BalloonStyle>
    </Style>

  <ScreenOverlay>
    <name>Logos</name>
    <description></description>
    <Icon>
      <href>https://www.wpc.ncep.noaa.gov/images/noaa_and_nws_logo.png</href>
    </Icon>
   <overlayXY x=".01" y=".01" xunits="fraction" yunits="fraction" />
   <screenXY x=".01" y=".01" xunits="fraction" yunits="fraction" />
   <rotationXY x="0" y="0" xunits="fraction" yunits="fraction" />
   <size x="-1" y="-1" xunits="fraction" yunits="fraction" />
  </ScreenOverlay>
    <Folder>
      <name>Snow Probabilities</name>
      <open>0</open>
<Placemark>
  <name>1%</name>
  <visibility>1</visibility>
  <styleUrl>#poly_1</styleUrl>
  <MultiGeometry>
    <Polygon>
      <outerBoundaryIs>
        <LinearRing>
          <coordinates>
-116.76,51.87,0 -116.71,51.88,0 -116.66,51.89,0 -116.61,51.90,0 -116.56,51.90,0 -116.51,51.91,0 -116.46,51.92,0 -116.41,51.92,0 -116.35,51.93,0 -116.30,51.93,0 -116.25,51.92,0 -116.21,51.91,0 -116.16,51.89,0 -116.11,51.88,0 -116.07,51.85,0 -116.03,51.83,0 -116.00,51.81,0 -115.98,51.79,0 -115.97,51.76,0 -115.96,51.73,0 -115.95,51.70,0 -115.95,51.68,0 -115.94,51.65,0 -115.93,51.62,0 -115.92,51.59,0 -115.91,51.56,0 -115.89,51.53,0 -115.88,51.51,0 -115.85,51.50,0 -115.80,51.50,0 -115.76,51.50,0 -115.71,51.49,0 -115.66,51.48,0 -115.61,51.47,0 -115.57,51.45,0 -115.53,51.44,0 -115.49,51.41,0 -115.46,51.39,0 -115.45,51.37,0 -115.45,51.35,0 -115.47,51.32,0 -115.49,51.30,0 -115.52,51.27,0 -115.55,51.25,0 -115.58,51.23,0 -115.62,51.22,0 -115.66,51.20,0 -115.70,51.19,0 -115.73,51.18,0 -115.76,51.17,0 -115.79,51.16,0 -115.82,51.15,0 -115.86,51.15,0 -115.90,51.14,0 -115.95,51.13,0 -116.00,51.12,0 -116.04,51.11,0 -116.08,51.10,0 -116.12,51.09,0 -116.17,51.08,0 -116.21,51.07,0 -116.25,51.06,0 -116.29,51.06,0 -116.34,51.06,0 -116.38,51.07,0 -116.43,51.09,0 -116.47,51.10,0 -116.50,51.11,0 -116.54,51.12,0 -116.57,51.14,0 -116.59,51.16,0 -116.62,51.18,0 -116.64,51.20,0 -116.67,51.22,0 -116.70,51.25,0 -116.73,51.27,0 -116.75,51.30,0 -116.78,51.32,0 -116.81,51.35,0 -116.84,51.37,0 -116.86,51.40,0 -116.88,51.43,0 -116.89,51.46,0 -116.90,51.49,0 -116.91,51.52,0 -116.92,51.55,0 -116.93,51.58,0 -116.93,51.60,0 -116.93,51.63,0 -116.94,51.66,0 -116.94,51.69,0 -116.94,51.72,0 -116.76,51.87,0 
          </coordinates>
        </LinearRing>
      </outerBoundaryIs>
      <innerBoundaryIs>
        <LinearRing>
          <coordinates>
-116.74,51.77,1000 -116.71,51.78,1000 -116.69,51.80,1000 -116.66,51.81,1000 -116.64,51.82,1000 -116.61,51.83,1000 -116.58,51.84,1000 -116.56,51.85,1000 -116.53,51.86,1000 -116.50,51.86,1000 -116.47,51.86,1000 -116.44,51.86,1000 -116.40,51.86,1000 -116.37,51.85,1000 -116.33,51.84,1000 -116.30,51.84,1000 -116.27,51.83,1000 -116.24,51.82,1000 -116.22,51.82,1000 -116.19,51.81,1000 -116.18,51.81,1000 -116.16,51.79,1000 -116.15,51.78,1000 -116.13,51.76,1000 -116.11,51.75,1000 -116.09,51.73,1000 -116.08,51.71,1000 -116.06,51.70,1000 -116.04,51.68,1000 -116.03,51.66,1000 -116.02,51.64,1000 -116.01,51.62,1000 -116.01,51.60,1000 -116.01,51.58,1000 -116.01,51.56,1000 -116.01,51.54,1000 -116.02,51.52,1000 -116.02,51.50,1000 -116.03,51.48,1000 -116.04,51.46,1000 -116.05,51.44,1000 -116.06,51.42,1000 -116.08,51.41,1000 -116.11,51.39,1000 -116.13,51.38,1000 -116.15,51.37,1000 -116.18,51.36,1000 -116.20,51.35,1000 -116.23,51.34,1000 -116.26,51.33,1000 -116.29,51.32,1000 -116.32,51.31,1000 -116.35,51.31,1000 -116.38,51.31,1000 -116.41,51.31,1000 -116.45,51.32,1000 -116.48,51.32,1000 -116.52,51.33,1000 -116.55,51.34,1000 -116.58,51.35,1000 -116.61,51.35,1000 -116.63,51.36,1000 -116.67,51.37,1000 -116.69,51.38,1000 -116.70,51.39,1000 -116.72,51.41,1000 -116.73,51.42,1000 -116.75,51.44,1000 -116.76,51.45,1000 -116.78,51.47,1000 -116.80,51.49,1000 -116.81,51.50,1000 -116.82,51.52,1000 -116.83,51.54,1000 -116.84,51.56,1000 -116.84,51.58,1000 -116.84,51.60,1000 -116.84,51.61,1000 -116.83,51.63,1000 -116.82,51.65,1000 -116.81,51.67,1000 -116.80,51.69,1000 -116.79,51.71,1000 -116.78,51.73,1000 -116.74,51.77,1000 
          </coordinates>
        </LinearRing>
      </innerBoundaryIs>
  </Polygon>
 </MultiGeometry>
</Placemark>
<Placemark>
  <name>1%</name>
  <visibility>1</visibility>
  <styleUrl>#poly_1</styleUrl>
  <MultiGeometry>
    <Polygon>
      <outerBoundaryIs>
        <LinearRing>
          <coordinates>
-118.31,51.71,0 -118.18,51.73,0 -118.06,51.75,0 -117.94,51.77,0 -117.82,51.78,0 -117.72,51.79,0 -117.62,51.79,0 -117.54,51.79,0 -117.43,51.76,0 -117.36,51.72,0 -117.30,51.67,0 -117.26,51.62,0 -117.22,51.56,0 -117.21,51.51,0 -117.18,51.46,0 -117.12,51.42,0 -117.04,51.38,0 -116.97,51.33,0 -116.92,51.27,0 -116.88,51.20,0 -116.83,51.14,0 -116.72,51.11,0 -116.60,51.08,0 -116.54,51.05,0 -116.47,51.01,0 -116.41,50.95,0 -116.36,50.90,0 -116.32,50.83,0 -116.27,50.76,0 -116.22,50.69,0 -116.18,50.63,0 -116.13,50.55,0 -116.08,50.49,0 -116.06,50.43,0 -116.08,50.39,0 -116.11,50.32,0 -116.11,50.27,0 -116.10,50.19,0 -116.09,50.11,0 -116.09,50.03,0 -116.08,49.95,0 -116.08,49.87,0 -116.09,49.82,0 -116.14,49.75,0 -116.21,49.72,0 -116.31,49.70,0 -116.41,49.69,0 -116.52,49.68,0 -116.64,49.68,0 -116.73,49.69,0 -116.83,49.73,0 -116.90,49.80,0 -116.94,49.85,0 -116.98,49.91,0 -117.02,49.98,0 -117.05,50.06,0 -117.07,50.12,0 -117.08,50.19,0 -117.09,50.27,0 -117.10,50.34,0 -117.12,50.42,0 -117.14,50.49,0 -117.17,50.54,0 -117.24,50.60,0 -117.33,50.65,0 -117.43,50.68,0 -117.51,50.71,0 -117.61,50.77,0 -117.70,50.82,0 -117.77,50.87,0 -117.77,50.93,0 -117.84,50.97,0 -117.92,50.97,0 -118.02,50.96,0 -118.15,50.94,0 -118.28,50.93,0 -118.41,50.92,0 -118.52,50.91,0 -118.61,50.91,0 -118.72,50.93,0 -118.79,50.97,0 -118.84,51.03,0 -118.88,51.08,0 -118.92,51.14,0 -118.95,51.21,0 -118.96,51.28,0 -118.95,51.34,0 -118.90,51.39,0 -118.83,51.44,0 -118.75,51.48,0 -118.68,51.51,0 -118.57,51.54,0 -118.48,51.55,0 -118.31,51.71,0 
          </coordinates>
        </LinearRing>
      </outerBoundaryIs>
      <innerBoundaryIs>
        <LinearRing>
          <coordinates>
-118.28,51.61,1000 -118.20,51.65,1000 -118.13,51.68,1000 -118.04,51.71,1000 -117.95,51.73,1000 -117.84,51.74,1000 -117.73,51.74,1000 -117.61,51.72,1000 -117.51,51.69,1000 -117.46,51.65,1000 -117.41,51.60,1000 -117.37,51.54,1000 -117.33,51.48,1000 -117.29,51.42,1000 -117.24,51.36,1000 -117.19,51.31,1000 -117.14,51.26,1000 -117.08,51.21,1000 -117.02,51.16,1000 -116.97,51.11,1000 -116.91,51.06,1000 -116.85,51.01,1000 -116.79,50.96,1000 -116.73,50.92,1000 -116.67,50.87,1000 -116.61,50.82,1000 -116.55,50.77,1000 -116.49,50.72,1000 -116.42,50.68,1000 -116.36,50.63,1000 -116.30,50.58,1000 -116.25,50.53,1000 -116.21,50.47,1000 -116.19,50.41,1000 -116.18,50.33,1000 -116.18,50.25,1000 -116.18,50.17,1000 -116.19,50.10,1000 -116.20,50.03,1000 -116.21,49.98,1000 -116.27,49.90,1000 -116.35,49.87,1000 -116.44,49.83,1000 -116.54,49.82,1000 -116.62,49.82,1000 -116.70,49.84,1000 -116.78,49.89,1000 -116.82,49.93,1000 -116.87,49.99,1000 -116.91,50.05,1000 -116.95,50.12,1000 -116.98,50.18,1000 -117.01,50.23,1000 -117.03,50.29,1000 -117.02,50.34,1000 -117.02,50.39,1000 -117.02,50.45,1000 -117.03,50.51,1000 -117.03,50.58,1000 -117.05,50.65,1000 -117.10,50.71,1000 -117.17,50.75,1000 -117.27,50.79,1000 -117.37,50.83,1000 -117.47,50.86,1000 -117.55,50.89,1000 -117.63,50.93,1000 -117.68,50.97,1000 -117.75,50.99,1000 -117.83,51.00,1000 -117.92,51.00,1000 -118.02,51.00,1000 -118.11,51.00,1000 -118.20,51.00,1000 -118.29,50.99,1000 -118.38,50.99,1000 -118.46,50.99,1000 -118.55,51.00,1000 -118.63,51.01,1000 -118.70,51.04,1000 -118.74,51.08,1000 -118.78,51.14,1000 -118.81,51.20,1000 -118.82,51.25,1000 -118.81,51.30,1000 -118.78,51.35,1000 -118.74,51.39,1000 -118.28,51.61,1000 
          </coordinates>
        </LinearRing>
      </innerBoundaryIs>
  </Polygon>
 </MultiGeometry>
</Placemark>
<Placemark>
  <name>1%</name>
  <visibility>1</visibility>
  <styleUrl>#poly_1</styleUrl>
  <MultiGeometry>
    <Polygon>
      <outerBoundaryIs>
        <LinearRing>
          <coordinates>
-124.42,50.96,0 -124.34,50.97,0 -124.25,50.99,0 -124.17,51.00,0 -124.08,51.02,0 -124.00,51.03,0 -123.91,51.04,0 -123.83,51.06,0 -123.74,51.07,0 -123.66,51.08,0 -123.56,51.09,0 -123.46,51.11,0 -123.35,51.12,0 -123.25,51.13,0 -123.15,51.15,0 -123.06,51.15,0 -122.97,51.16,0 -122.90,51.16,0 -122.80,51.14,0 -122.74,51.11,0 -122.69,51.08,0 -122.63,51.06,0 -122.55,51.06,0 -122.46,51.08,0 -122.34,51.07,0 -122.27,51.05,0 -122.19,51.02,0 -122.11,50.99,0 -122.02,50.96,0 -121.93,50.92,0 -121.85,50.88,0 -121.78,50.84,0 -121.72,50.80,0 -121.65,50.76,0 -121.60,50.72,0 -121.54,50.67,0 -121.50,50.63,0 -121.45,50.59,0 -121.42,50.55,0 -121.38,50.49,0 -121.36,50.44,0 -121.35,50.39,0 -121.35,50.33,0 -121.35,50.28,0 -121.35,50.21,0 -121.36,50.15,0 -121.37,50.10,0 -121.39,50.05,0 -121.43,50.00,0 -121.47,49.97,0 -121.55,49.94,0 -121.61,49.92,0 -121.68,49.90,0 -121.75,49.87,0 -121.84,49.85,0 -121.95,49.84,0 -122.02,49.83,0 -122.11,49.83,0 -122.20,49.83,0 -122.30,49.82,0 -122.39,49.82,0 -122.49,49.82,0 -122.58,49.82,0 -122.66,49.82,0 -122.72,49.82,0 -122.84,49.83,0 -122.89,49.84,0 -122.95,49.86,0 -123.00,49.89,0 -123.05,49.93,0 -123.11,49.96,0 -123.16,49.99,0 -123.23,50.00,0 -123.30,49.99,0 -123.39,49.99,0 -123.46,50.00,0 -123.54,50.02,0 -123.62,50.04,0 -123.70,50.06,0 -123.76,50.07,0 -123.86,50.07,0 -123.94,50.07,0 -124.00,50.07,0 -124.07,50.06,0 -124.14,50.07,0 -124.21,50.08,0 -124.29,50.10,0 -124.36,50.16,0 -124.39,50.20,0 -124.41,50.26,0 -124.44,50.32,0 -124.46,50.39,0 -124.49,50.45,0 -124.51,50.52,0 -124.53,50.58,0 -124.54,50.63,0 -124.55,50.71,0 -124.55,50.77,0 -124.54,50.82,0 -124.52,50.86,0 -124.42,50.96,0 
          </coordinates>
        </LinearRing>
      </outerBoundaryIs>
      <innerBoundaryIs>
        <LinearRing>
          <coordinates>
-124.38,50.86,1000 -124.32,50.89,1000 -124.26,50.92,1000 -124.20,50.94,1000 -124.14,50.97,1000 -124.07,50.99,1000 -123.99,51.01,1000 -123.91,51.02,1000 -123.82,51.04,1000 -123.74,51.05,1000 -123.66,51.06,1000 -123.57,51.07,1000 -123.49,51.09,1000 -123.40,51.10,1000 -123.31,51.10,1000 -123.24,51.10,1000 -123.17,51.09,1000 -123.10,51.09,1000 -123.02,51.08,1000 -122.94,51.07,1000 -122.86,51.06,1000 -122.79,51.05,1000 -122.70,51.04,1000 -122.62,51.03,1000 -122.54,51.02,1000 -122.46,51.00,1000 -122.38,50.99,1000 -122.31,50.97,1000 -122.22,50.95,1000 -122.15,50.92,1000 -122.08,50.89,1000 -122.01,50.86,1000 -121.94,50.82,1000 -121.88,50.79,1000 -121.82,50.75,1000 -121.76,50.70,1000 -121.69,50.66,1000 -121.64,50.61,1000 -121.59,50.57,1000 -121.55,50.53,1000 -121.51,50.47,1000 -121.49,50.41,1000 -121.49,50.36,1000 -121.49,50.31,1000 -121.49,50.26,1000 -121.50,50.22,1000 -121.53,50.17,1000 -121.57,50.13,1000 -121.62,50.09,1000 -121.67,50.04,1000 -121.73,50.01,1000 -121.78,49.98,1000 -121.83,49.96,1000 -121.90,49.95,1000 -121.98,49.95,1000 -122.05,49.96,1000 -122.13,49.97,1000 -122.21,49.98,1000 -122.30,50.00,1000 -122.39,50.02,1000 -122.46,50.05,1000 -122.52,50.07,1000 -122.57,50.11,1000 -122.60,50.16,1000 -122.61,50.22,1000 -122.61,50.27,1000 -122.62,50.31,1000 -122.62,50.37,1000 -122.64,50.41,1000 -122.70,50.43,1000 -122.78,50.46,1000 -122.86,50.47,1000 -122.93,50.45,1000 -122.96,50.41,1000 -122.98,50.36,1000 -122.99,50.29,1000 -123.01,50.23,1000 -123.04,50.17,1000 -123.08,50.13,1000 -123.14,50.11,1000 -123.22,50.10,1000 -123.31,50.10,1000 -123.41,50.11,1000 -123.50,50.11,1000 -123.60,50.12,1000 -123.69,50.12,1000 -123.78,50.13,1000 -123.87,50.13,1000 -123.97,50.14,1000 -124.06,50.15,1000 -124.14,50.16,1000 -124.20,50.18,1000 -124.26,50.21,1000 -124.30,50.25,1000 -124.33,50.30,1000 -124.35,50.34,1000 -124.37,50.39,1000 -124.39,50.44,1000 -124.41,50.49,1000 -124.43,50.54,1000 -124.45,50.60,1000 -124.46,50.65,1000 -124.38,50.86,1000 
          </coordinates>
        </LinearRing>
      </innerBoundaryIs>
  </Polygon>
 </MultiGeometry>
</Placemark>
<Placemark>
  <name>1%</name>
  <visibility>1</visibility>
  <styleUrl>#poly_1</styleUrl>
  <MultiGeometry>
    <Polygon>
      <outerBoundaryIs>
        <LinearRing>
          <coordinates>
-122.11,47.02,0 -122.08,47.03,0 -122.05,47.04,0 -122.03,47.05,0 -122.00,47.05,0 -121.97,47.06,0 -121.94,47.07,0 -121.91,47.08,0 -121.88,47.08,0 -121.85,47.08,0 -121.82,47.09,0 -121.79,47.09,0 -121.75,47.09,0 -121.72,47.10,0 -121.69,47.10,0 -121.66,47.09,0 -121.63,47.09,0 -121.60,47.08,0 -121.57,47.07,0 -121.53,47.06,0 -121.51,47.05,0 -121.48,47.03,0 -121.45,47.02,0 -121.43,47.00,0 -121.41,46.98,0 -121.40,46.97,0 -121.38,46.95,0 -121.37,46.92,0 -121.36,46.90,0 -121.35,46.88,0 -121.35,46.86,0 -121.34,46.84,0 -121.33,46.82,0 -121.33,46.80,0 -121.32,46.78,0 -121.32,46.75,0 -121.32,46.73,0 -121.32,46.71,0 -121.32,46.69,0 -121.33,46.67,0 -121.34,46.65,0 -121.35,46.63,0 -121.37,46.61,0 -121.39,46.59,0 -121.40,46.58,0 -121.43,46.56,0 -121.45,46.54,0 -121.47,46.53,0 -121.49,46.52,0 -121.52,46.51,0 -121.55,46.50,0 -121.58,46.49,0 -121.61,46.49,0 -121.64,46.48,0 -121.67,46.47,0 -121.70,46.47,0 -121.73,46.47,0 -121.76,46.46,0 -121.79,46.46,0 -121.83,46.46,0 -121.86,46.45,0 -121.89,46.45,0 -121.92,46.46,0 -121.95,46.46,0 -121.98,46.47,0 -122.01,46.48,0 -122.04,46.49,0 -122.07,46.50,0 -122.09,46.52,0 -122.12,46.53,0 -122.14,46.55,0 -122.16,46.57,0 -122.17,46.58,0 -122.18,46.60,0 -122.20,46.62,0 -122.21,46.65,0 -122.22,46.67,0 -122.22,46.69,0 -122.23,46.71,0 -122.24,46.73,0 -122.24,46.75,0 -122.24,46.77,0 -122.24,46.79,0 -122.24,46.82,0 -122.24,46.84,0 -122.24,46.86,0 -122.24,46.88,0 -122.11,47.02,0 
          </coordinates>
        </LinearRing>
      </outerBoundaryIs>
      <innerBoundaryIs>
        <LinearRing>
          <coordinates>
-121.85,46.97,1000 -121.83,46.97,1000 -121.82,46.97,1000 -121.80,46.97,1000 -121.78,46.96,1000 -121.76,46.96,1000 -121.74,46.95,1000 -121.72,46.94,1000 -121.71,46.94,1000 -121.69,46.93,1000 -121.67,46.92,1000 -121.65,46.91,1000 -121.63,46.90,1000 -121.62,46.89,1000 -121.60,46.89,1000 -121.58,46.88,1000 -121.57,46.87,1000 -121.55,46.86,1000 -121.53,46.85,1000 -121.52,46.84,1000 -121.51,46.83,1000 -121.50,46.82,1000 -121.50,46.81,1000 -121.50,46.80,1000 -121.50,46.78,1000 -121.51,46.77,1000 -121.52,46.76,1000 -121.53,46.74,1000 -121.54,46.73,1000 -121.55,46.72,1000 -121.56,46.70,1000 -121.57,46.69,1000 -121.58,46.68,1000 -121.59,46.66,1000 -121.61,46.65,1000 -121.62,46.64,1000 -121.63,46.63,1000 -121.64,46.62,1000 -121.66,46.61,1000 -121.67,46.60,1000 -121.68,46.59,1000 -121.70,46.59,1000 -121.71,46.58,1000 -121.73,46.58,1000 -121.75,46.58,1000 -121.76,46.58,1000 -121.78,46.58,1000 -121.80,46.59,1000 -121.82,46.59,1000 -121.84,46.60,1000 -121.85,46.61,1000 -121.87,46.61,1000 -121.89,46.62,1000 -121.91,46.63,1000 -121.93,46.64,1000 -121.95,46.65,1000 -121.96,46.66,1000 -121.98,46.66,1000 -122.00,46.67,1000 -122.01,46.68,1000 -122.03,46.69,1000 -122.04,46.70,1000 -122.06,46.71,1000 -122.07,46.72,1000 -122.08,46.73,1000 -122.08,46.74,1000 -122.08,46.75,1000 -122.08,46.76,1000 -122.07,46.78,1000 -122.06,46.79,1000 -122.05,46.81,1000 -122.04,46.82,1000 -122.03,46.83,1000 -122.02,46.84,1000 -122.01,46.85,1000 -122.00,46.87,1000 -121.99,46.88,1000 -121.97,46.89,1000 -121.96,46.90,1000 -121.94,46.92,1000 -121.93,46.93,1000 -121.85,46.97,1000 
          </coordinates>
        </LinearRing>
      </innerBoundaryIs>
  </Polygon>
 </MultiGeometry>
</Placemark>
<Placemark>
  <name>5%</name>
  <visibility>1</visibility>
  <styleUrl>#poly_5</styleUrl>
  <MultiGeometry>
    <Polygon>
      <outerBoundaryIs>
        <LinearRing>
          <coordinates>
-116.74,51.77,1000 -116.71,51.78,1000 -116.69,51.80,1000 -116.66,51.81,1000 -116.64,51.82,1000 -116.61,51.83,1000 -116.58,51.84,1000 -116.56,51.85,1000 -116.53,51.86,1000 -116.50,51.86,1000 -116.47,51.86,1000 -116.44,51.86,1000 -116.40,51.86,1000 -116.37,51.85,1000 -116.33,51.84,1000 -116.30,51.84,1000 -116.27,51.83,1000 -116.24,51.82,1000 -116.22,51.82,1000 -116.19,51.81,1000 -116.18,51.81,1000 -116.16,51.79,1000 -116.15,51.78,1000 -116.13,51.76,1000 -116.11,51.75,1000 -116.09,51.73,1000 -116.08,51.71,1000 -116.06,51.70,1000 -116.04,51.68,1000 -116.03,51.66,1000 -116.02,51.64,1000 -116.01,51.62,1000 -116.01,51.60,1000 -116.01,51.58,1000 -116.01,51.56,1000 -116.01,51.54,1000 -116.02,51.52,1000 -116.02,51.50,1000 -116.03,51.48,1000 -116.04,51.46,1000 -116.05,51.44,1000 -116.06,51.42,1000 -116.08,51.41,1000 -116.11,51.39,1000 -116.13,51.38,1000 -116.15,51.37,1000 -116.18,51.36,1000 -116.20,51.35,1000 -116.23,51.34,1000 -116.26,51.33,1000 -116.29,51.32,1000 -116.32,51.31,1000 -116.35,51.31,1000 -116.38,51.31,1000 -116.41,51.31,1000 -116.45,51.32,1000 -116.48,51.32,1000 -116.52,51.33,1000 -116.55,51.34,1000 -116.58,51.35,1000 -116.61,51.35,1000 -116.63,51.36,1000 -116.67,51.37,1000 -116.69,51.38,1000 -116.70,51.39,1000 -116.72,51.41,1000 -116.73,51.42,1000 -116.75,51.44,1000 -116.76,51.45,1000 -116.78,51.47,1000 -116.80,51.49,1000 -116.81,51.50,1000 -116.82,51.52,1000 -116.83,51.54,1000 -116.84,51.56,1000 -116.84,51.58,1000 -116.84,51.60,1000 -116.84,51.61,1000 -116.83,51.63,1000 -116.82,51.65,1000 -116.81,51.67,1000 -116.80,51.69,1000 -116.79,51.71,1000 -116.78,51.73,1000 -116.74,51.77,1000 
          </coordinates>
        </LinearRing>
      </outerBoundaryIs>
      <innerBoundaryIs>
        <LinearRing>
          <coordinates>
-116.48,51.80,2000 -116.46,51.80,2000 -116.44,51.79,2000 -116.42,51.79,2000 -116.40,51.78,2000 -116.37,51.77,2000 -116.35,51.76,2000 -116.33,51.76,2000 -116.31,51.75,2000 -116.29,51.74,2000 -116.27,51.73,2000 -116.24,51.72,2000 -116.22,51.71,2000 -116.21,51.70,2000 -116.19,51.69,2000 -116.17,51.68,2000 -116.15,51.67,2000 -116.14,51.65,2000 -116.13,51.64,2000 -116.12,51.63,2000 -116.12,51.62,2000 -116.12,51.61,2000 -116.13,51.59,2000 -116.13,51.58,2000 -116.14,51.56,2000 -116.15,51.55,2000 -116.16,51.54,2000 -116.17,51.52,2000 -116.18,51.51,2000 -116.19,51.50,2000 -116.20,51.49,2000 -116.21,51.47,2000 -116.23,51.46,2000 -116.24,51.45,2000 -116.26,51.44,2000 -116.28,51.42,2000 -116.29,51.41,2000 -116.31,51.40,2000 -116.33,51.39,2000 -116.35,51.38,2000 -116.37,51.38,2000 -116.39,51.38,2000 -116.41,51.38,2000 -116.43,51.39,2000 -116.46,51.40,2000 -116.48,51.40,2000 -116.50,51.41,2000 -116.52,51.42,2000 -116.54,51.43,2000 -116.56,51.44,2000 -116.58,51.45,2000 -116.59,51.46,2000 -116.61,51.47,2000 -116.63,51.48,2000 -116.64,51.49,2000 -116.66,51.50,2000 -116.67,51.51,2000 -116.69,51.52,2000 -116.71,51.53,2000 -116.72,51.55,2000 -116.73,51.56,2000 -116.74,51.57,2000 -116.74,51.58,2000 -116.74,51.60,2000 -116.73,51.61,2000 -116.72,51.62,2000 -116.70,51.64,2000 -116.69,51.65,2000 -116.68,51.66,2000 -116.67,51.67,2000 -116.65,51.69,2000 -116.64,51.70,2000 -116.62,51.71,2000 -116.60,51.72,2000 -116.59,51.74,2000 -116.57,51.75,2000 -116.48,51.80,2000 
          </coordinates>
        </LinearRing>
      </innerBoundaryIs>
  </Polygon>
 </MultiGeometry>
</Placemark>
<Placemark>
  <name>5%</name>
  <visibility>1</visibility>
  <styleUrl>#poly_5</styleUrl>
  <MultiGeometry>
    <Polygon>
      <outerBoundaryIs>
        <LinearRing>
          <coordinates>
-124.38,50.86,1000 -124.32,50.89,1000 -124.26,50.92,1000 -124.20,50.94,1000 -124.14,50.97,1000 -124.07,50.99,1000 -123.99,51.01,1000 -123.91,51.02,1000 -123.82,51.04,1000 -123.74,51.05,1000 -123.66,51.06,1000 -123.57,51.07,1000 -123.49,51.09,1000 -123.40,51.10,1000 -123.31,51.10,1000 -123.24,51.10,1000 -123.17,51.09,1000 -123.10,51.09,1000 -123.02,51.08,1000 -122.94,51.07,1000 -122.86,51.06,1000 -122.79,51.05,1000 -122.70,51.04,1000 -122.62,51.03,1000 -122.54,51.02,1000 -122.46,51.00,1000 -122.38,50.99,1000 -122.31,50.97,1000 -122.22,50.95,1000 -122.15,50.92,1000 -122.08,50.89,1000 -122.01,50.86,1000 -121.94,50.82,1000 -121.88,50.79,1000 -121.82,50.75,1000 -121.76,50.70,1000 -121.69,50.66,1000 -121.64,50.61,1000 -121.59,50.57,1000 -121.55,50.53,1000 -121.51,50.47,1000 -121.49,50.41,1000 -121.49,50.36,1000 -121.49,50.31,1000 -121.49,50.26,1000 -121.50,50.22,1000 -121.53,50.17,1000 -121.57,50.13,1000 -121.62,50.09,1000 -121.67,50.04,1000 -121.73,50.01,1000 -121.78,49.98,1000 -121.83,49.96,1000 -121.90,49.95,1000 -121.98,49.95,1000 -122.05,49.96,1000 -122.13,49.97,1000 -122.21,49.98,1000 -122.30,50.00,1000 -122.39,50.02,1000 -122.46,50.05,1000 -122.52,50.07,1000 -122.57,50.11,1000 -122.60,50.16,1000 -122.61,50.22,1000 -122.61,50.27,1000 -122.62,50.31,1000 -122.62,50.37,1000 -122.64,50.41,1000 -122.70,50.43,1000 -122.78,50.46,1000 -122.86,50.47,1000 -122.93,50.45,1000 -122.96,50.41,1000 -122.98,50.36,1000 -122.99,50.29,1000 -123.01,50.23,1000 -123.04,50.17,1000 -123.08,50.13,1000 -123.14,50.11,1000 -123.22,50.10,1000 -123.31,50.10,1000 -123.41,50.11,1000 -123.50,50.11,1000 -123.60,50.12,1000 -123.69,50.12,1000 -123.78,50.13,1000 -123.87,50.13,1000 -123.97,50.14,1000 -124.06,50.15,1000 -124.14,50.16,1000 -124.20,50.18,1000 -124.26,50.21,1000 -124.30,50.25,1000 -124.33,50.30,1000 -124.35,50.34,1000 -124.37,50.39,1000 -124.39,50.44,1000 -124.41,50.49,1000 -124.43,50.54,1000 -124.45,50.60,1000 -124.46,50.65,1000 -124.38,50.86,1000 
          </coordinates>
        </LinearRing>
      </outerBoundaryIs>
      <innerBoundaryIs>
        <LinearRing>
          <coordinates>
-124.14,50.94,2000 -124.05,50.96,2000 -123.97,50.97,2000 -123.89,50.99,2000 -123.81,51.00,2000 -123.73,51.01,2000 -123.65,51.02,2000 -123.58,51.04,2000 -123.51,51.05,2000 -123.45,51.05,2000 -123.39,51.06,2000 -123.30,51.07,2000 -123.22,51.07,2000 -123.16,51.06,2000 -123.11,51.06,2000 -123.06,51.05,2000 -123.00,51.04,2000 -122.96,51.02,2000 -122.92,51.00,2000 -122.84,50.98,2000 -122.78,50.97,2000 -122.71,50.97,2000 -122.63,50.96,2000 -122.54,50.95,2000 -122.45,50.94,2000 -122.37,50.93,2000 -122.29,50.91,2000 -122.22,50.89,2000 -122.15,50.86,2000 -122.08,50.83,2000 -122.01,50.80,2000 -121.94,50.77,2000 -121.88,50.73,2000 -121.83,50.70,2000 -121.78,50.67,2000 -121.73,50.63,2000 -121.69,50.59,2000 -121.67,50.55,2000 -121.65,50.51,2000 -121.64,50.46,2000 -121.63,50.42,2000 -121.63,50.37,2000 -121.62,50.32,2000 -121.63,50.27,2000 -121.64,50.23,2000 -121.65,50.19,2000 -121.68,50.15,2000 -121.72,50.11,2000 -121.78,50.09,2000 -121.85,50.07,2000 -121.91,50.06,2000 -121.98,50.06,2000 -122.05,50.06,2000 -122.13,50.07,2000 -122.21,50.09,2000 -122.27,50.11,2000 -122.32,50.14,2000 -122.37,50.18,2000 -122.41,50.22,2000 -122.45,50.27,2000 -122.49,50.32,2000 -122.53,50.36,2000 -122.56,50.40,2000 -122.60,50.46,2000 -122.62,50.50,2000 -122.64,50.54,2000 -122.68,50.57,2000 -122.74,50.58,2000 -122.81,50.59,2000 -122.89,50.57,2000 -122.95,50.54,2000 -122.98,50.51,2000 -123.00,50.46,2000 -123.02,50.41,2000 -123.04,50.36,2000 -123.06,50.31,2000 -123.09,50.26,2000 -123.12,50.23,2000 -123.17,50.20,2000 -123.24,50.18,2000 -123.30,50.17,2000 -123.37,50.16,2000 -123.45,50.16,2000 -123.52,50.16,2000 -123.59,50.16,2000 -123.67,50.16,2000 -123.75,50.17,2000 -123.82,50.18,2000 -123.89,50.19,2000 -123.96,50.21,2000 -124.03,50.22,2000 -124.09,50.24,2000 -124.15,50.27,2000 -124.21,50.30,2000 -124.25,50.34,2000 -124.28,50.38,2000 -124.29,50.42,2000 -124.31,50.46,2000 -124.32,50.51,2000 -124.33,50.56,2000 -124.33,50.62,2000 -124.34,50.67,2000 -124.34,50.73,2000 -124.14,50.94,2000 
          </coordinates>
        </LinearRing>
      </innerBoundaryIs>
  </Polygon>
 </MultiGeometry>
</Placemark>
<Placemark>
  <name>5%</name>
  <visibility>1</visibility>
  <styleUrl>#poly_5</styleUrl>
  <MultiGeometry>
    <Polygon>
      <outerBoundaryIs>
        <LinearRing>
          <coordinates>
-121.85,46.97,1000 -121.83,46.97,1000 -121.82,46.97,1000 -121.80,46.97,1000 -121.78,46.96,1000 -121.76,46.96,1000 -121.74,46.95,1000 -121.72,46.94,1000 -121.71,46.94,1000 -121.69,46.93,1000 -121.67,46.92,1000 -121.65,46.91,1000 -121.63,46.90,1000 -121.62,46.89,1000 -121.60,46.89,1000 -121.58,46.88,1000 -121.57,46.87,1000 -121.55,46.86,1000 -121.53,46.85,1000 -121.52,46.84,1000 -121.51,46.83,1000 -121.50,46.82,1000 -121.50,46.81,1000 -121.50,46.80,1000 -121.50,46.78,1000 -121.51,46.77,1000 -121.52,46.76,1000 -121.53,46.74,1000 -121.54,46.73,1000 -121.55,46.72,1000 -121.56,46.70,1000 -121.57,46.69,1000 -121.58,46.68,1000 -121.59,46.66,1000 -121.61,46.65,1000 -121.62,46.64,1000 -121.63,46.63,1000 -121.64,46.62,1000 -121.66,46.61,1000 -121.67,46.60,1000 -121.68,46.59,1000 -121.70,46.59,1000 -121.71,46.58,1000 -121.73,46.58,1000 -121.75,46.58,1000 -121.76,46.58,1000 -121.78,46.58,1000 -121.80,46.59,1000 -121.82,46.59,1000 -121.84,46.60,1000 -121.85,46.61,1000 -121.87,46.61,1000 -121.89,46.62,1000 -121.91,46.63,1000 -121.93,46.64,1000 -121.95,46.65,1000 -121.96,46.66,1000 -121.98,46.66,1000 -122.00,46.67,1000 -122.01,46.68,1000 -122.03,46.69,1000 -122.04,46.70,1000 -122.06,46.71,1000 -122.07,46.72,1000 -122.08,46.73,1000 -122.08,46.74,1000 -122.08,46.75,1000 -122.08,46.76,1000 -122.07,46.78,1000 -122.06,46.79,1000 -122.05,46.81,1000 -122.04,46.82,1000 -122.03,46.83,1000 -122.02,46.84,1000 -122.01,46.85,1000 -122.00,46.87,1000 -121.99,46.88,1000 -121.97,46.89,1000 -121.96,46.90,1000 -121.94,46.92,1000 -121.93,46.93,1000 -121.85,46.97,1000 
          </coordinates>
        </LinearRing>
      </outerBoundaryIs>
  </Polygon>
 </MultiGeometry>
</Placemark>
<Placemark>
  <name>5%</name>
  <visibility>1</visibility>
  <styleUrl>#poly_5</styleUrl>
  <MultiGeometry>
    <Polygon>
      <outerBoundaryIs>
        <LinearRing>
          <coordinates>
-118.28,51.61,1000 -118.20,51.65,1000 -118.13,51.68,1000 -118.04,51.71,1000 -117.95,51.73,1000 -117.84,51.74,1000 -117.73,51.74,1000 -117.61,51.72,1000 -117.51,51.69,1000 -117.46,51.65,1000 -117.41,51.60,1000 -117.37,51.54,1000 -117.33,51.48,1000 -117.29,51.42,1000 -117.24,51.36,1000 -117.19,51.31,1000 -117.14,51.26,1000 -117.08,51.21,1000 -117.02,51.16,1000 -116.97,51.11,1000 -116.91,51.06,1000 -116.85,51.01,1000 -116.79,50.96,1000 -116.73,50.92,1000 -116.67,50.87,1000 -116.61,50.82,1000 -116.55,50.77,1000 -116.49,50.72,1000 -116.42,50.68,1000 -116.36,50.63,1000 -116.30,50.58,1000 -116.25,50.53,1000 -116.21,50.47,1000 -116.19,50.41,1000 -116.18,50.33,1000 -116.18,50.25,1000 -116.18,50.17,1000 -116.19,50.10,1000 -116.20,50.03,1000 -116.21,49.98,1000 -116.27,49.90,1000 -116.35,49.87,1000 -116.44,49.83,1000 -116.54,49.82,1000 -116.62,49.82,1000 -116.70,49.84,1000 -116.78,49.89,1000 -116.82,49.93,1000 -116.87,49.99,1000 -116.91,50.05,1000 -116.95,50.12,1000 -116.98,50.18,1000 -117.01,50.23,1000 -117.03,50.29,1000 -117.02,50.34,1000 -117.02,50.39,1000 -117.02,50.45,1000 -117.03,50.51,1000 -117.03,50.58,1000 -117.05,50.65,1000 -117.10,50.71,1000 -117.17,50.75,1000 -117.27,50.79,1000 -117.37,50.83,1000 -117.47,50.86,1000 -117.55,50.89,1000 -117.63,50.93,1000 -117.68,50.97,1000 -117.75,50.99,1000 -117.83,51.00,1000 -117.92,51.00,1000 -118.02,51.00,1000 -118.11,51.00,1000 -118.20,51.00,1000 -118.29,50.99,1000 -118.38,50.99,1000 -118.46,50.99,1000 -118.55,51.00,1000 -118.63,51.01,1000 -118.70,51.04,1000 -118.74,51.08,1000 -118.78,51.14,1000 -118.81,51.20,1000 -118.82,51.25,1000 -118.81,51.30,1000 -118.78,51.35,1000 -118.74,51.39,1000 -118.28,51.61,1000 
          </coordinates>
        </LinearRing>
      </outerBoundaryIs>
      <innerBoundaryIs>
        <LinearRing>
          <coordinates>
-116.72,50.69,2000 -116.69,50.67,2000 -116.67,50.65,2000 -116.64,50.63,2000 -116.61,50.62,2000 -116.58,50.60,2000 -116.54,50.59,2000 -116.50,50.58,2000 -116.46,50.56,2000 -116.42,50.55,2000 -116.39,50.53,2000 -116.36,50.51,2000 -116.34,50.49,2000 -116.32,50.46,2000 -116.31,50.44,2000 -116.30,50.41,2000 -116.30,50.38,2000 -116.29,50.36,2000 -116.29,50.33,2000 -116.29,50.30,2000 -116.29,50.27,2000 -116.30,50.24,2000 -116.30,50.22,2000 -116.31,50.19,2000 -116.32,50.17,2000 -116.32,50.15,2000 -116.33,50.13,2000 -116.34,50.11,2000 -116.36,50.09,2000 -116.37,50.06,2000 -116.39,50.03,2000 -116.41,50.00,2000 -116.43,49.97,2000 -116.44,49.95,2000 -116.47,49.92,2000 -116.49,49.91,2000 -116.52,49.91,2000 -116.55,49.91,2000 -116.57,49.92,2000 -116.61,49.94,2000 -116.63,49.95,2000 -116.66,49.97,2000 -116.69,50.00,2000 -116.72,50.02,2000 -116.75,50.04,2000 -116.78,50.06,2000 -116.80,50.08,2000 -116.82,50.10,2000 -116.83,50.12,2000 -116.84,50.14,2000 -116.85,50.16,2000 -116.87,50.18,2000 -116.89,50.21,2000 -116.90,50.24,2000 -116.90,50.26,2000 -116.91,50.29,2000 -116.91,50.33,2000 -116.91,50.36,2000 -116.91,50.38,2000 -116.91,50.40,2000 -116.91,50.41,2000 -116.90,50.43,2000 -116.88,50.44,2000 -116.87,50.47,2000 -116.85,50.49,2000 -116.83,50.52,2000 -116.80,50.55,2000 -116.78,50.58,2000 -116.72,50.69,2000 
          </coordinates>
        </LinearRing>
      </innerBoundaryIs>
      <innerBoundaryIs>
        <LinearRing>
          <coordinates>
-118.03,51.68,2000 -117.98,51.69,2000 -117.93,51.70,2000 -117.88,51.71,2000 -117.83,51.71,2000 -117.78,51.71,2000 -117.74,51.70,2000 -117.69,51.69,2000 -117.65,51.68,2000 -117.61,51.67,2000 -117.58,51.65,2000 -117.55,51.63,2000 -117.52,51.60,2000 -117.49,51.58,2000 -117.47,51.56,2000 -117.44,51.54,2000 -117.42,51.53,2000 -117.40,51.51,2000 -117.40,51.49,2000 -117.40,51.46,2000 -117.40,51.43,2000 -117.40,51.40,2000 -117.39,51.37,2000 -117.38,51.34,2000 -117.36,51.31,2000 -117.33,51.29,2000 -117.30,51.27,2000 -117.27,51.24,2000 -117.24,51.22,2000 -117.21,51.20,2000 -117.18,51.17,2000 -117.15,51.15,2000 -117.12,51.12,2000 -117.10,51.10,2000 -117.08,51.08,2000 -117.06,51.05,2000 -117.05,51.03,2000 -117.04,51.00,2000 -117.03,50.97,2000 -117.02,50.94,2000 -117.01,50.91,2000 -117.00,50.89,2000 -117.02,50.86,2000 -117.05,50.86,2000 -117.09,50.87,2000 -117.13,50.88,2000 -117.16,50.88,2000 -117.20,50.87,2000 -117.24,50.87,2000 -117.29,50.88,2000 -117.32,50.89,2000 -117.36,50.91,2000 -117.40,50.93,2000 -117.44,50.95,2000 -117.48,50.97,2000 -117.51,50.99,2000 -117.54,51.00,2000 -117.56,51.02,2000 -117.59,51.04,2000 -117.62,51.05,2000 -117.67,51.06,2000 -117.72,51.06,2000 -117.77,51.07,2000 -117.82,51.08,2000 -117.87,51.08,2000 -117.91,51.08,2000 -117.96,51.08,2000 -118.00,51.07,2000 -118.04,51.07,2000 -118.09,51.06,2000 -118.13,51.06,2000 -118.18,51.06,2000 -118.24,51.05,2000 -118.29,51.05,2000 -118.34,51.04,2000 -118.38,51.04,2000 -118.42,51.04,2000 -118.45,51.05,2000 -118.49,51.06,2000 -118.52,51.07,2000 -118.56,51.09,2000 -118.60,51.11,2000 -118.64,51.12,2000 -118.67,51.14,2000 -118.71,51.16,2000 -118.73,51.18,2000 -118.74,51.20,2000 -118.74,51.22,2000 -118.73,51.24,2000 -118.71,51.27,2000 -118.69,51.29,2000 -118.66,51.31,2000 -118.63,51.34,2000 -118.61,51.36,2000 -118.58,51.38,2000 -118.55,51.40,2000 -118.53,51.40,2000 -118.49,51.42,2000 -118.46,51.44,2000 -118.42,51.46,2000 -118.37,51.49,2000 -118.33,51.51,2000 -118.29,51.53,2000 -118.26,51.55,2000 -118.21,51.58,2000 -118.19,51.59,2000 -118.03,51.68,2000 
          </coordinates>
        </LinearRing>
      </innerBoundaryIs>
  </Polygon>
 </MultiGeometry>
</Placemark>
<Placemark>
  <name>10%</name>
  <visibility>1</visibility>
  <styleUrl>#poly_10</styleUrl>
  <MultiGeometry>
    <Polygon>
      <outerBoundaryIs>
        <LinearRing>
          <coordinates>
-116.48,51.80,2000 -116.46,51.80,2000 -116.44,51.79,2000 -116.42,51.79,2000 -116.40,51.78,2000 -116.37,51.77,2000 -116.35,51.76,2000 -116.33,51.76,2000 -116.31,51.75,2000 -116.29,51.74,2000 -116.27,51.73,2000 -116.24,51.72,2000 -116.22,51.71,2000 -116.21,51.70,2000 -116.19,51.69,2000 -116.17,51.68,2000 -116.15,51.67,2000 -116.14,51.65,2000 -116.13,51.64,2000 -116.12,51.63,2000 -116.12,51.62,2000 -116.12,51.61,2000 -116.13,51.59,2000 -116.13,51.58,2000 -116.14,51.56,2000 -116.15,51.55,2000 -116.16,51.54,2000 -116.17,51.52,2000 -116.18,51.51,2000 -116.19,51.50,2000 -116.20,51.49,2000 -116.21,51.47,2000 -116.23,51.46,2000 -116.24,51.45,2000 -116.26,51.44,2000 -116.28,51.42,2000 -116.29,51.41,2000 -116.31,51.40,2000 -116.33,51.39,2000 -116.35,51.38,2000 -116.37,51.38,2000 -116.39,51.38,2000 -116.41,51.38,2000 -116.43,51.39,2000 -116.46,51.40,2000 -116.48,51.40,2000 -116.50,51.41,2000 -116.52,51.42,2000 -116.54,51.43,2000 -116.56,51.44,2000 -116.58,51.45,2000 -116.59,51.46,2000 -116.61,51.47,2000 -116.63,51.48,2000 -116.64,51.49,2000 -116.66,51.50,2000 -116.67,51.51,2000 -116.69,51.52,2000 -116.71,51.53,2000 -116.72,51.55,2000 -116.73,51.56,2000 -116.74,51.57,2000 -116.74,51.58,2000 -116.74,51.60,2000 -116.73,51.61,2000 -116.72,51.62,2000 -116.70,51.64,2000 -116.69,51.65,2000 -116.68,51.66,2000 -116.67,51.67,2000 -116.65,51.69,2000 -116.64,51.70,2000 -116.62,51.71,2000 -116.60,51.72,2000 -116.59,51.74,2000 -116.57,51.75,2000 -116.48,51.80,2000 
          </coordinates>
        </LinearRing>
      </outerBoundaryIs>
  </Polygon>
 </MultiGeometry>
</Placemark>
<Placemark>
  <name>10%</name>
  <visibility>1</visibility>
  <styleUrl>#poly_10</styleUrl>
  <MultiGeometry>
    <Polygon>
      <outerBoundaryIs>
        <LinearRing>
          <coordinates>
-116.72,50.69,2000 -116.69,50.67,2000 -116.67,50.65,2000 -116.64,50.63,2000 -116.61,50.62,2000 -116.58,50.60,2000 -116.54,50.59,2000 -116.50,50.58,2000 -116.46,50.56,2000 -116.42,50.55,2000 -116.39,50.53,2000 -116.36,50.51,2000 -116.34,50.49,2000 -116.32,50.46,2000 -116.31,50.44,2000 -116.30,50.41,2000 -116.30,50.38,2000 -116.29,50.36,2000 -116.29,50.33,2000 -116.29,50.30,2000 -116.29,50.27,2000 -116.30,50.24,2000 -116.30,50.22,2000 -116.31,50.19,2000 -116.32,50.17,2000 -116.32,50.15,2000 -116.33,50.13,2000 -116.34,50.11,2000 -116.36,50.09,2000 -116.37,50.06,2000 -116.39,50.03,2000 -116.41,50.00,2000 -116.43,49.97,2000 -116.44,49.95,2000 -116.47,49.92,2000 -116.49,49.91,2000 -116.52,49.91,2000 -116.55,49.91,2000 -116.57,49.92,2000 -116.61,49.94,2000 -116.63,49.95,2000 -116.66,49.97,2000 -116.69,50.00,2000 -116.72,50.02,2000 -116.75,50.04,2000 -116.78,50.06,2000 -116.80,50.08,2000 -116.82,50.10,2000 -116.83,50.12,2000 -116.84,50.14,2000 -116.85,50.16,2000 -116.87,50.18,2000 -116.89,50.21,2000 -116.90,50.24,2000 -116.90,50.26,2000 -116.91,50.29,2000 -116.91,50.33,2000 -116.91,50.36,2000 -116.91,50.38,2000 -116.91,50.40,2000 -116.91,50.41,2000 -116.90,50.43,2000 -116.88,50.44,2000 -116.87,50.47,2000 -116.85,50.49,2000 -116.83,50.52,2000 -116.80,50.55,2000 -116.78,50.58,2000 -116.72,50.69,2000 
          </coordinates>
        </LinearRing>
      </outerBoundaryIs>
      <innerBoundaryIs>
        <LinearRing>
          <coordinates>
-116.66,50.46,3000 -116.65,50.46,3000 -116.63,50.46,3000 -116.62,50.46,3000 -116.60,50.45,3000 -116.59,50.44,3000 -116.58,50.43,3000 -116.58,50.43,3000 -116.57,50.42,3000 -116.57,50.41,3000 -116.56,50.40,3000 -116.55,50.38,3000 -116.54,50.37,3000 -116.54,50.36,3000 -116.53,50.35,3000 -116.53,50.34,3000 -116.52,50.32,3000 -116.52,50.31,3000 -116.51,50.30,3000 -116.51,50.29,3000 -116.51,50.28,3000 -116.51,50.27,3000 -116.51,50.25,3000 -116.52,50.24,3000 -116.52,50.23,3000 -116.53,50.21,3000 -116.53,50.20,3000 -116.54,50.19,3000 -116.55,50.17,3000 -116.56,50.16,3000 -116.56,50.16,3000 -116.57,50.15,3000 -116.58,50.15,3000 -116.59,50.15,3000 -116.60,50.15,3000 -116.61,50.16,3000 -116.62,50.17,3000 -116.63,50.18,3000 -116.64,50.19,3000 -116.66,50.20,3000 -116.67,50.21,3000 -116.68,50.22,3000 -116.69,50.24,3000 -116.69,50.25,3000 -116.70,50.26,3000 -116.70,50.27,3000 -116.71,50.28,3000 -116.71,50.29,3000 -116.71,50.30,3000 -116.71,50.31,3000 -116.71,50.32,3000 -116.71,50.34,3000 -116.71,50.35,3000 -116.71,50.36,3000 -116.71,50.37,3000 -116.71,50.38,3000 -116.70,50.40,3000 -116.70,50.41,3000 -116.70,50.42,3000 -116.66,50.46,3000 
          </coordinates>
        </LinearRing>
      </innerBoundaryIs>
  </Polygon>
 </MultiGeometry>
</Placemark>
<Placemark>
  <name>10%</name>
  <visibility>1</visibility>
  <styleUrl>#poly_10</styleUrl>
  <MultiGeometry>
    <Polygon>
      <outerBoundaryIs>
        <LinearRing>
          <coordinates>
-124.14,50.94,2000 -124.05,50.96,2000 -123.97,50.97,2000 -123.89,50.99,2000 -123.81,51.00,2000 -123.73,51.01,2000 -123.65,51.02,2000 -123.58,51.04,2000 -123.51,51.05,2000 -123.45,51.05,2000 -123.39,51.06,2000 -123.30,51.07,2000 -123.22,51.07,2000 -123.16,51.06,2000 -123.11,51.06,2000 -123.06,51.05,2000 -123.00,51.04,2000 -122.96,51.02,2000 -122.92,51.00,2000 -122.84,50.98,2000 -122.78,50.97,2000 -122.71,50.97,2000 -122.63,50.96,2000 -122.54,50.95,2000 -122.45,50.94,2000 -122.37,50.93,2000 -122.29,50.91,2000 -122.22,50.89,2000 -122.15,50.86,2000 -122.08,50.83,2000 -122.01,50.80,2000 -121.94,50.77,2000 -121.88,50.73,2000 -121.83,50.70,2000 -121.78,50.67,2000 -121.73,50.63,2000 -121.69,50.59,2000 -121.67,50.55,2000 -121.65,50.51,2000 -121.64,50.46,2000 -121.63,50.42,2000 -121.63,50.37,2000 -121.62,50.32,2000 -121.63,50.27,2000 -121.64,50.23,2000 -121.65,50.19,2000 -121.68,50.15,2000 -121.72,50.11,2000 -121.78,50.09,2000 -121.85,50.07,2000 -121.91,50.06,2000 -121.98,50.06,2000 -122.05,50.06,2000 -122.13,50.07,2000 -122.21,50.09,2000 -122.27,50.11,2000 -122.32,50.14,2000 -122.37,50.18,2000 -122.41,50.22,2000 -122.45,50.27,2000 -122.49,50.32,2000 -122.53,50.36,2000 -122.56,50.40,2000 -122.60,50.46,2000 -122.62,50.50,2000 -122.64,50.54,2000 -122.68,50.57,2000 -122.74,50.58,2000 -122.81,50.59,2000 -122.89,50.57,2000 -122.95,50.54,2000 -122.98,50.51,2000 -123.00,50.46,2000 -123.02,50.41,2000 -123.04,50.36,2000 -123.06,50.31,2000 -123.09,50.26,2000 -123.12,50.23,2000 -123.17,50.20,2000 -123.24,50.18,2000 -123.30,50.17,2000 -123.37,50.16,2000 -123.45,50.16,2000 -123.52,50.16,2000 -123.59,50.16,2000 -123.67,50.16,2000 -123.75,50.17,2000 -123.82,50.18,2000 -123.89,50.19,2000 -123.96,50.21,2000 -124.03,50.22,2000 -124.09,50.24,2000 -124.15,50.27,2000 -124.21,50.30,2000 -124.25,50.34,2000 -124.28,50.38,2000 -124.29,50.42,2000 -124.31,50.46,2000 -124.32,50.51,2000 -124.33,50.56,2000 -124.33,50.62,2000 -124.34,50.67,2000 -124.34,50.73,2000 -124.14,50.94,2000 
          </coordinates>
        </LinearRing>
      </outerBoundaryIs>
      <innerBoundaryIs>
        <LinearRing>
          <coordinates>
-122.53,50.84,3000 -122.49,50.84,3000 -122.45,50.84,3000 -122.41,50.83,3000 -122.38,50.83,3000 -122.34,50.83,3000 -122.31,50.83,3000 -122.28,50.82,3000 -122.26,50.82,3000 -122.22,50.81,3000 -122.21,50.81,3000 -122.18,50.79,3000 -122.16,50.78,3000 -122.13,50.76,3000 -122.10,50.75,3000 -122.06,50.73,3000 -122.03,50.71,3000 -122.00,50.70,3000 -121.97,50.68,3000 -121.95,50.67,3000 -121.92,50.66,3000 -121.91,50.65,3000 -121.89,50.64,3000 -121.87,50.62,3000 -121.85,50.60,3000 -121.83,50.58,3000 -121.80,50.56,3000 -121.78,50.53,3000 -121.77,50.51,3000 -121.76,50.49,3000 -121.76,50.46,3000 -121.75,50.44,3000 -121.75,50.41,3000 -121.75,50.38,3000 -121.76,50.36,3000 -121.76,50.34,3000 -121.76,50.31,3000 -121.77,50.29,3000 -121.78,50.27,3000 -121.81,50.25,3000 -121.83,50.24,3000 -121.86,50.23,3000 -121.89,50.22,3000 -121.93,50.21,3000 -121.96,50.20,3000 -122.00,50.19,3000 -122.03,50.19,3000 -122.06,50.19,3000 -122.09,50.19,3000 -122.12,50.20,3000 -122.15,50.22,3000 -122.18,50.23,3000 -122.20,50.25,3000 -122.23,50.27,3000 -122.25,50.28,3000 -122.28,50.30,3000 -122.30,50.31,3000 -122.32,50.33,3000 -122.35,50.35,3000 -122.36,50.37,3000 -122.38,50.38,3000 -122.39,50.40,3000 -122.41,50.42,3000 -122.42,50.43,3000 -122.44,50.45,3000 -122.46,50.47,3000 -122.48,50.49,3000 -122.50,50.51,3000 -122.52,50.53,3000 -122.54,50.55,3000 -122.56,50.57,3000 -122.58,50.59,3000 -122.60,50.61,3000 -122.62,50.63,3000 -122.64,50.65,3000 -122.66,50.66,3000 -122.68,50.68,3000 -122.70,50.70,3000 -122.72,50.72,3000 -122.53,50.84,3000 
          </coordinates>
        </LinearRing>
      </innerBoundaryIs>
      <innerBoundaryIs>
        <LinearRing>
          <coordinates>
-123.88,50.93,3000 -123.84,50.93,3000 -123.79,50.94,3000 -123.75,50.94,3000 -123.71,50.95,3000 -123.66,50.95,3000 -123.62,50.96,3000 -123.58,50.97,3000 -123.53,50.97,3000 -123.49,50.98,3000 -123.45,50.99,3000 -123.41,51.00,3000 -123.37,51.00,3000 -123.32,51.00,3000 -123.28,51.00,3000 -123.23,51.00,3000 -123.19,50.99,3000 -123.16,50.99,3000 -123.14,51.00,3000 -123.10,50.99,3000 -123.07,50.98,3000 -123.04,50.97,3000 -123.00,50.96,3000 -122.95,50.94,3000 -122.91,50.92,3000 -122.87,50.91,3000 -122.84,50.89,3000 -122.81,50.87,3000 -122.79,50.85,3000 -122.77,50.82,3000 -122.76,50.79,3000 -122.76,50.76,3000 -122.76,50.73,3000 -122.77,50.71,3000 -122.79,50.69,3000 -122.81,50.67,3000 -122.85,50.66,3000 -122.88,50.64,3000 -122.92,50.63,3000 -122.95,50.61,3000 -122.98,50.60,3000 -123.01,50.58,3000 -123.03,50.56,3000 -123.05,50.54,3000 -123.07,50.52,3000 -123.09,50.50,3000 -123.11,50.48,3000 -123.12,50.45,3000 -123.13,50.43,3000 -123.14,50.40,3000 -123.16,50.38,3000 -123.18,50.36,3000 -123.21,50.34,3000 -123.23,50.33,3000 -123.26,50.31,3000 -123.29,50.29,3000 -123.31,50.27,3000 -123.34,50.25,3000 -123.38,50.24,3000 -123.42,50.24,3000 -123.46,50.24,3000 -123.51,50.25,3000 -123.56,50.26,3000 -123.59,50.26,3000 -123.62,50.26,3000 -123.65,50.27,3000 -123.68,50.27,3000 -123.71,50.27,3000 -123.76,50.28,3000 -123.80,50.28,3000 -123.84,50.28,3000 -123.88,50.28,3000 -123.92,50.29,3000 -123.96,50.30,3000 -124.00,50.31,3000 -124.04,50.32,3000 -124.07,50.34,3000 -124.10,50.36,3000 -124.12,50.38,3000 -124.14,50.40,3000 -124.15,50.42,3000 -124.16,50.45,3000 -124.18,50.47,3000 -124.19,50.50,3000 -124.20,50.52,3000 -124.21,50.55,3000 -124.23,50.57,3000 -124.24,50.60,3000 -124.25,50.63,3000 -124.25,50.65,3000 -124.25,50.68,3000 -124.24,50.71,3000 -124.22,50.73,3000 -124.20,50.76,3000 -124.17,50.79,3000 -124.15,50.81,3000 -124.13,50.83,3000 -124.11,50.85,3000 -124.08,50.87,3000 -124.07,50.87,3000 -123.88,50.93,3000 
          </coordinates>
        </LinearRing>
      </innerBoundaryIs>
  </Polygon>
 </MultiGeometry>
</Placemark>
<Placemark>
  <name>10%</name>
  <visibility>1</visibility>
  <styleUrl>#poly_10</styleUrl>
  <MultiGeometry>
    <Polygon>
      <outerBoundaryIs>
        <LinearRing>
          <coordinates>
-118.03,51.68,2000 -117.98,51.69,2000 -117.93,51.70,2000 -117.88,51.71,2000 -117.83,51.71,2000 -117.78,51.71,2000 -117.74,51.70,2000 -117.69,51.69,2000 -117.65,51.68,2000 -117.61,51.67,2000 -117.58,51.65,2000 -117.55,51.63,2000 -117.52,51.60,2000 -117.49,51.58,2000 -117.47,51.56,2000 -117.44,51.54,2000 -117.42,51.53,2000 -117.40,51.51,2000 -117.40,51.49,2000 -117.40,51.46,2000 -117.40,51.43,2000 -117.40,51.40,2000 -117.39,51.37,2000 -117.38,51.34,2000 -117.36,51.31,2000 -117.33,51.29,2000 -117.30,51.27,2000 -117.27,51.24,2000 -117.24,51.22,2000 -117.21,51.20,2000 -117.18,51.17,2000 -117.15,51.15,2000 -117.12,51.12,2000 -117.10,51.10,2000 -117.08,51.08,2000 -117.06,51.05,2000 -117.05,51.03,2000 -117.04,51.00,2000 -117.03,50.97,2000 -117.02,50.94,2000 -117.01,50.91,2000 -117.00,50.89,2000 -117.02,50.86,2000 -117.05,50.86,2000 -117.09,50.87,2000 -117.13,50.88,2000 -117.16,50.88,2000 -117.20,50.87,2000 -117.24,50.87,2000 -117.29,50.88,2000 -117.32,50.89,2000 -117.36,50.91,2000 -117.40,50.93,2000 -117.44,50.95,2000 -117.48,50.97,2000 -117.51,50.99,2000 -117.54,51.00,2000 -117.56,51.02,2000 -117.59,51.04,2000 -117.62,51.05,2000 -117.67,51.06,2000 -117.72,51.06,2000 -117.77,51.07,2000 -117.82,51.08,2000 -117.87,51.08,2000 -117.91,51.08,2000 -117.96,51.08,2000 -118.00,51.07,2000 -118.04,51.07,2000 -118.09,51.06,2000 -118.13,51.06,2000 -118.18,51.06,2000 -118.24,51.05,2000 -118.29,51.05,2000 -118.34,51.04,2000 -118.38,51.04,2000 -118.42,51.04,2000 -118.45,51.05,2000 -118.49,51.06,2000 -118.52,51.07,2000 -118.56,51.09,2000 -118.60,51.11,2000 -118.64,51.12,2000 -118.67,51.14,2000 -118.71,51.16,2000 -118.73,51.18,2000 -118.74,51.20,2000 -118.74,51.22,2000 -118.73,51.24,2000 -118.71,51.27,2000 -118.69,51.29,2000 -118.66,51.31,2000 -118.63,51.34,2000 -118.61,51.36,2000 -118.58,51.38,2000 -118.55,51.40,2000 -118.53,51.40,2000 -118.49,51.42,2000 -118.46,51.44,2000 -118.42,51.46,2000 -118.37,51.49,2000 -118.33,51.51,2000 -118.29,51.53,2000 -118.26,51.55,2000 -118.21,51.58,2000 -118.19,51.59,2000 -118.03,51.68,2000 
          </coordinates>
        </LinearRing>
      </outerBoundaryIs>
      <innerBoundaryIs>
        <LinearRing>
          <coordinates>
-118.24,51.46,3000 -118.22,51.48,3000 -118.20,51.49,3000 -118.18,51.51,3000 -118.16,51.52,3000 -118.14,51.53,3000 -118.12,51.55,3000 -118.10,51.56,3000 -118.08,51.57,3000 -118.05,51.58,3000 -118.03,51.59,3000 -118.01,51.60,3000 -117.98,51.61,3000 -117.95,51.62,3000 -117.92,51.62,3000 -117.89,51.63,3000 -117.87,51.63,3000 -117.84,51.63,3000 -117.81,51.63,3000 -117.78,51.63,3000 -117.75,51.62,3000 -117.73,51.61,3000 -117.70,51.61,3000 -117.68,51.60,3000 -117.65,51.59,3000 -117.63,51.57,3000 -117.61,51.56,3000 -117.59,51.55,3000 -117.57,51.53,3000 -117.55,51.52,3000 -117.53,51.50,3000 -117.52,51.49,3000 -117.51,51.47,3000 -117.50,51.46,3000 -117.50,51.44,3000 -117.49,51.42,3000 -117.49,51.40,3000 -117.49,51.38,3000 -117.50,51.36,3000 -117.50,51.35,3000 -117.51,51.33,3000 -117.52,51.31,3000 -117.53,51.29,3000 -117.54,51.28,3000 -117.56,51.26,3000 -117.58,51.24,3000 -117.60,51.23,3000 -117.62,51.21,3000 -117.64,51.20,3000 -117.66,51.19,3000 -117.69,51.18,3000 -117.71,51.18,3000 -117.74,51.17,3000 -117.77,51.17,3000 -117.80,51.17,3000 -117.83,51.16,3000 -117.86,51.16,3000 -117.89,51.16,3000 -117.92,51.16,3000 -117.95,51.16,3000 -117.98,51.16,3000 -118.00,51.16,3000 -118.03,51.16,3000 -118.06,51.16,3000 -118.09,51.16,3000 -118.12,51.16,3000 -118.15,51.16,3000 -118.18,51.16,3000 -118.21,51.16,3000 -118.24,51.16,3000 -118.28,51.16,3000 -118.31,51.16,3000 -118.34,51.16,3000 -118.37,51.16,3000 -118.40,51.17,3000 -118.42,51.17,3000 -118.46,51.18,3000 -118.49,51.19,3000 -118.51,51.20,3000 -118.53,51.21,3000 -118.54,51.22,3000 -118.54,51.23,3000 -118.53,51.24,3000 -118.51,51.26,3000 -118.49,51.27,3000 -118.47,51.28,3000 -118.45,51.30,3000 -118.43,51.31,3000 -118.42,51.33,3000 -118.40,51.34,3000 -118.38,51.36,3000 -118.37,51.38,3000 -118.35,51.39,3000 -118.33,51.41,3000 -118.24,51.46,3000 
          </coordinates>
        </LinearRing>
      </innerBoundaryIs>
  </Polygon>
 </MultiGeometry>
</Placemark>
<Placemark>
  <name>20%</name>
  <visibility>1</visibility>
  <styleUrl>#poly_20</styleUrl>
  <MultiGeometry>
    <Polygon>
      <outerBoundaryIs>
        <LinearRing>
          <coordinates>
-122.53,50.84,3000 -122.49,50.84,3000 -122.45,50.84,3000 -122.41,50.83,3000 -122.38,50.83,3000 -122.34,50.83,3000 -122.31,50.83,3000 -122.28,50.82,3000 -122.26,50.82,3000 -122.22,50.81,3000 -122.21,50.81,3000 -122.18,50.79,3000 -122.16,50.78,3000 -122.13,50.76,3000 -122.10,50.75,3000 -122.06,50.73,3000 -122.03,50.71,3000 -122.00,50.70,3000 -121.97,50.68,3000 -121.95,50.67,3000 -121.92,50.66,3000 -121.91,50.65,3000 -121.89,50.64,3000 -121.87,50.62,3000 -121.85,50.60,3000 -121.83,50.58,3000 -121.80,50.56,3000 -121.78,50.53,3000 -121.77,50.51,3000 -121.76,50.49,3000 -121.76,50.46,3000 -121.75,50.44,3000 -121.75,50.41,3000 -121.75,50.38,3000 -121.76,50.36,3000 -121.76,50.34,3000 -121.76,50.31,3000 -121.77,50.29,3000 -121.78,50.27,3000 -121.81,50.25,3000 -121.83,50.24,3000 -121.86,50.23,3000 -121.89,50.22,3000 -121.93,50.21,3000 -121.96,50.20,3000 -122.00,50.19,3000 -122.03,50.19,3000 -122.06,50.19,3000 -122.09,50.19,3000 -122.12,50.20,3000 -122.15,50.22,3000 -122.18,50.23,3000 -122.20,50.25,3000 -122.23,50.27,3000 -122.25,50.28,3000 -122.28,50.30,3000 -122.30,50.31,3000 -122.32,50.33,3000 -122.35,50.35,3000 -122.36,50.37,3000 -122.38,50.38,3000 -122.39,50.40,3000 -122.41,50.42,3000 -122.42,50.43,3000 -122.44,50.45,3000 -122.46,50.47,3000 -122.48,50.49,3000 -122.50,50.51,3000 -122.52,50.53,3000 -122.54,50.55,3000 -122.56,50.57,3000 -122.58,50.59,3000 -122.60,50.61,3000 -122.62,50.63,3000 -122.64,50.65,3000 -122.66,50.66,3000 -122.68,50.68,3000 -122.70,50.70,3000 -122.72,50.72,3000 -122.53,50.84,3000 
          </coordinates>
        </LinearRing>
      </outerBoundaryIs>
      <innerBoundaryIs>
        <LinearRing>
          <coordinates>
-122.50,50.76,4000 -122.50,50.76,4000 -122.48,50.75,4000 -122.45,50.75,4000 -122.43,50.75,4000 -122.41,50.75,4000 -122.39,50.75,4000 -122.36,50.75,4000 -122.34,50.74,4000 -122.31,50.74,4000 -122.28,50.74,4000 -122.25,50.74,4000 -122.23,50.73,4000 -122.21,50.72,4000 -122.19,50.72,4000 -122.17,50.71,4000 -122.15,50.70,4000 -122.13,50.69,4000 -122.11,50.68,4000 -122.09,50.67,4000 -122.07,50.66,4000 -122.06,50.65,4000 -122.04,50.64,4000 -122.02,50.63,4000 -122.01,50.62,4000 -121.99,50.60,4000 -121.98,50.59,4000 -121.96,50.57,4000 -121.95,50.56,4000 -121.93,50.54,4000 -121.92,50.53,4000 -121.91,50.52,4000 -121.90,50.51,4000 -121.89,50.50,4000 -121.88,50.49,4000 -121.89,50.48,4000 -121.90,50.47,4000 -121.91,50.46,4000 -121.93,50.45,4000 -121.94,50.44,4000 -121.96,50.42,4000 -121.98,50.41,4000 -121.99,50.39,4000 -122.01,50.38,4000 -122.03,50.36,4000 -122.05,50.35,4000 -122.07,50.34,4000 -122.08,50.33,4000 -122.10,50.33,4000 -122.12,50.33,4000 -122.14,50.34,4000 -122.16,50.34,4000 -122.18,50.35,4000 -122.19,50.37,4000 -122.21,50.38,4000 -122.23,50.40,4000 -122.25,50.41,4000 -122.26,50.43,4000 -122.28,50.44,4000 -122.30,50.45,4000 -122.31,50.46,4000 -122.33,50.48,4000 -122.35,50.49,4000 -122.36,50.50,4000 -122.38,50.52,4000 -122.39,50.53,4000 -122.41,50.54,4000 -122.42,50.55,4000 -122.43,50.56,4000 -122.44,50.57,4000 -122.45,50.58,4000 -122.45,50.59,4000 -122.46,50.60,4000 -122.46,50.61,4000 -122.47,50.62,4000 -122.48,50.64,4000 -122.48,50.65,4000 -122.49,50.67,4000 -122.50,50.69,4000 -122.50,50.70,4000 -122.51,50.72,4000 -122.52,50.74,4000 -122.50,50.76,4000 
          </coordinates>
        </LinearRing>
      </innerBoundaryIs>
  </Polygon>
 </MultiGeometry>
</Placemark>
<Placemark>
  <name>20%</name>
  <visibility>1</visibility>
  <styleUrl>#poly_20</styleUrl>
  <MultiGeometry>
    <Polygon>
      <outerBoundaryIs>
        <LinearRing>
          <coordinates>
-123.88,50.93,3000 -123.84,50.93,3000 -123.79,50.94,3000 -123.75,50.94,3000 -123.71,50.95,3000 -123.66,50.95,3000 -123.62,50.96,3000 -123.58,50.97,3000 -123.53,50.97,3000 -123.49,50.98,3000 -123.45,50.99,3000 -123.41,51.00,3000 -123.37,51.00,3000 -123.32,51.00,3000 -123.28,51.00,3000 -123.23,51.00,3000 -123.19,50.99,3000 -123.16,50.99,3000 -123.14,51.00,3000 -123.10,50.99,3000 -123.07,50.98,3000 -123.04,50.97,3000 -123.00,50.96,3000 -122.95,50.94,3000 -122.91,50.92,3000 -122.87,50.91,3000 -122.84,50.89,3000 -122.81,50.87,3000 -122.79,50.85,3000 -122.77,50.82,3000 -122.76,50.79,3000 -122.76,50.76,3000 -122.76,50.73,3000 -122.77,50.71,3000 -122.79,50.69,3000 -122.81,50.67,3000 -122.85,50.66,3000 -122.88,50.64,3000 -122.92,50.63,3000 -122.95,50.61,3000 -122.98,50.60,3000 -123.01,50.58,3000 -123.03,50.56,3000 -123.05,50.54,3000 -123.07,50.52,3000 -123.09,50.50,3000 -123.11,50.48,3000 -123.12,50.45,3000 -123.13,50.43,3000 -123.14,50.40,3000 -123.16,50.38,3000 -123.18,50.36,3000 -123.21,50.34,3000 -123.23,50.33,3000 -123.26,50.31,3000 -123.29,50.29,3000 -123.31,50.27,3000 -123.34,50.25,3000 -123.38,50.24,3000 -123.42,50.24,3000 -123.46,50.24,3000 -123.51,50.25,3000 -123.56,50.26,3000 -123.59,50.26,3000 -123.62,50.26,3000 -123.65,50.27,3000 -123.68,50.27,3000 -123.71,50.27,3000 -123.76,50.28,3000 -123.80,50.28,3000 -123.84,50.28,3000 -123.88,50.28,3000 -123.92,50.29,3000 -123.96,50.30,3000 -124.00,50.31,3000 -124.04,50.32,3000 -124.07,50.34,3000 -124.10,50.36,3000 -124.12,50.38,3000 -124.14,50.40,3000 -124.15,50.42,3000 -124.16,50.45,3000 -124.18,50.47,3000 -124.19,50.50,3000 -124.20,50.52,3000 -124.21,50.55,3000 -124.23,50.57,3000 -124.24,50.60,3000 -124.25,50.63,3000 -124.25,50.65,3000 -124.25,50.68,3000 -124.24,50.71,3000 -124.22,50.73,3000 -124.20,50.76,3000 -124.17,50.79,3000 -124.15,50.81,3000 -124.13,50.83,3000 -124.11,50.85,3000 -124.08,50.87,3000 -124.07,50.87,3000 -123.88,50.93,3000 
          </coordinates>
        </LinearRing>
      </outerBoundaryIs>
      <innerBoundaryIs>
        <LinearRing>
          <coordinates>
-124.09,50.79,4000 -124.06,50.80,4000 -124.03,50.82,4000 -123.99,50.83,4000 -123.96,50.84,4000 -123.93,50.85,4000 -123.89,50.86,4000 -123.86,50.87,4000 -123.83,50.88,4000 -123.79,50.88,4000 -123.75,50.89,4000 -123.72,50.90,4000 -123.68,50.90,4000 -123.65,50.91,4000 -123.61,50.91,4000 -123.57,50.92,4000 -123.54,50.92,4000 -123.50,50.93,4000 -123.46,50.93,4000 -123.43,50.93,4000 -123.39,50.94,4000 -123.35,50.94,4000 -123.32,50.94,4000 -123.28,50.94,4000 -123.24,50.94,4000 -123.21,50.94,4000 -123.17,50.94,4000 -123.14,50.94,4000 -123.11,50.93,4000 -123.08,50.93,4000 -123.04,50.92,4000 -123.01,50.92,4000 -122.98,50.91,4000 -122.95,50.89,4000 -122.93,50.88,4000 -122.92,50.86,4000 -122.92,50.84,4000 -122.92,50.82,4000 -122.93,50.79,4000 -122.94,50.77,4000 -122.95,50.74,4000 -122.96,50.72,4000 -122.97,50.70,4000 -122.98,50.68,4000 -123.00,50.67,4000 -123.01,50.66,4000 -123.03,50.64,4000 -123.05,50.62,4000 -123.08,50.60,4000 -123.10,50.58,4000 -123.13,50.56,4000 -123.15,50.54,4000 -123.17,50.52,4000 -123.19,50.50,4000 -123.20,50.49,4000 -123.21,50.48,4000 -123.22,50.47,4000 -123.24,50.45,4000 -123.26,50.43,4000 -123.28,50.41,4000 -123.31,50.39,4000 -123.33,50.37,4000 -123.36,50.36,4000 -123.38,50.34,4000 -123.41,50.33,4000 -123.44,50.32,4000 -123.47,50.32,4000 -123.51,50.32,4000 -123.54,50.32,4000 -123.58,50.33,4000 -123.61,50.33,4000 -123.65,50.34,4000 -123.68,50.34,4000 -123.72,50.34,4000 -123.75,50.35,4000 -123.79,50.35,4000 -123.83,50.36,4000 -123.87,50.36,4000 -123.90,50.36,4000 -123.93,50.37,4000 -123.95,50.37,4000 -123.97,50.38,4000 -123.98,50.39,4000 -124.00,50.41,4000 -124.02,50.43,4000 -124.04,50.45,4000 -124.07,50.47,4000 -124.09,50.49,4000 -124.11,50.51,4000 -124.12,50.53,4000 -124.13,50.55,4000 -124.14,50.57,4000 -124.15,50.60,4000 -124.16,50.62,4000 -124.16,50.64,4000 -124.17,50.67,4000 -124.17,50.69,4000 -124.09,50.79,4000 
          </coordinates>
        </LinearRing>
      </innerBoundaryIs>
  </Polygon>
 </MultiGeometry>
</Placemark>
<Placemark>
  <name>20%</name>
  <visibility>1</visibility>
  <styleUrl>#poly_20</styleUrl>
  <MultiGeometry>
    <Polygon>
      <outerBoundaryIs>
        <LinearRing>
          <coordinates>
-116.66,50.46,3000 -116.65,50.46,3000 -116.63,50.46,3000 -116.62,50.46,3000 -116.60,50.45,3000 -116.59,50.44,3000 -116.58,50.43,3000 -116.58,50.43,3000 -116.57,50.42,3000 -116.57,50.41,3000 -116.56,50.40,3000 -116.55,50.38,3000 -116.54,50.37,3000 -116.54,50.36,3000 -116.53,50.35,3000 -116.53,50.34,3000 -116.52,50.32,3000 -116.52,50.31,3000 -116.51,50.30,3000 -116.51,50.29,3000 -116.51,50.28,3000 -116.51,50.27,3000 -116.51,50.25,3000 -116.52,50.24,3000 -116.52,50.23,3000 -116.53,50.21,3000 -116.53,50.20,3000 -116.54,50.19,3000 -116.55,50.17,3000 -116.56,50.16,3000 -116.56,50.16,3000 -116.57,50.15,3000 -116.58,50.15,3000 -116.59,50.15,3000 -116.60,50.15,3000 -116.61,50.16,3000 -116.62,50.17,3000 -116.63,50.18,3000 -116.64,50.19,3000 -116.66,50.20,3000 -116.67,50.21,3000 -116.68,50.22,3000 -116.69,50.24,3000 -116.69,50.25,3000 -116.70,50.26,3000 -116.70,50.27,3000 -116.71,50.28,3000 -116.71,50.29,3000 -116.71,50.30,3000 -116.71,50.31,3000 -116.71,50.32,3000 -116.71,50.34,3000 -116.71,50.35,3000 -116.71,50.36,3000 -116.71,50.37,3000 -116.71,50.38,3000 -116.70,50.40,3000 -116.70,50.41,3000 -116.70,50.42,3000 -116.66,50.46,3000 
          </coordinates>
        </LinearRing>
      </outerBoundaryIs>
  </Polygon>
 </MultiGeometry>
</Placemark>
<Placemark>
  <name>20%</name>
  <visibility>1</visibility>
  <styleUrl>#poly_20</styleUrl>
  <MultiGeometry>
    <Polygon>
      <outerBoundaryIs>
        <LinearRing>
          <coordinates>
-118.24,51.46,3000 -118.22,51.48,3000 -118.20,51.49,3000 -118.18,51.51,3000 -118.16,51.52,3000 -118.14,51.53,3000 -118.12,51.55,3000 -118.10,51.56,3000 -118.08,51.57,3000 -118.05,51.58,3000 -118.03,51.59,3000 -118.01,51.60,3000 -117.98,51.61,3000 -117.95,51.62,3000 -117.92,51.62,3000 -117.89,51.63,3000 -117.87,51.63,3000 -117.84,51.63,3000 -117.81,51.63,3000 -117.78,51.63,3000 -117.75,51.62,3000 -117.73,51.61,3000 -117.70,51.61,3000 -117.68,51.60,3000 -117.65,51.59,3000 -117.63,51.57,3000 -117.61,51.56,3000 -117.59,51.55,3000 -117.57,51.53,3000 -117.55,51.52,3000 -117.53,51.50,3000 -117.52,51.49,3000 -117.51,51.47,3000 -117.50,51.46,3000 -117.50,51.44,3000 -117.49,51.42,3000 -117.49,51.40,3000 -117.49,51.38,3000 -117.50,51.36,3000 -117.50,51.35,3000 -117.51,51.33,3000 -117.52,51.31,3000 -117.53,51.29,3000 -117.54,51.28,3000 -117.56,51.26,3000 -117.58,51.24,3000 -117.60,51.23,3000 -117.62,51.21,3000 -117.64,51.20,3000 -117.66,51.19,3000 -117.69,51.18,3000 -117.71,51.18,3000 -117.74,51.17,3000 -117.77,51.17,3000 -117.80,51.17,3000 -117.83,51.16,3000 -117.86,51.16,3000 -117.89,51.16,3000 -117.92,51.16,3000 -117.95,51.16,3000 -117.98,51.16,3000 -118.00,51.16,3000 -118.03,51.16,3000 -118.06,51.16,3000 -118.09,51.16,3000 -118.12,51.16,3000 -118.15,51.16,3000 -118.18,51.16,3000 -118.21,51.16,3000 -118.24,51.16,3000 -118.28,51.16,3000 -118.31,51.16,3000 -118.34,51.16,3000 -118.37,51.16,3000 -118.40,51.17,3000 -118.42,51.17,3000 -118.46,51.18,3000 -118.49,51.19,3000 -118.51,51.20,3000 -118.53,51.21,3000 -118.54,51.22,3000 -118.54,51.23,3000 -118.53,51.24,3000 -118.51,51.26,3000 -118.49,51.27,3000 -118.47,51.28,3000 -118.45,51.30,3000 -118.43,51.31,3000 -118.42,51.33,3000 -118.40,51.34,3000 -118.38,51.36,3000 -118.37,51.38,3000 -118.35,51.39,3000 -118.33,51.41,3000 -118.24,51.46,3000 
          </coordinates>
        </LinearRing>
      </outerBoundaryIs>
      <innerBoundaryIs>
        <LinearRing>
          <coordinates>
-118.00,51.55,4000 -117.98,51.55,4000 -117.96,51.55,4000 -117.93,51.56,4000 -117.91,51.56,4000 -117.89,51.56,4000 -117.87,51.56,4000 -117.85,51.56,4000 -117.83,51.56,4000 -117.81,51.56,4000 -117.79,51.56,4000 -117.77,51.56,4000 -117.76,51.56,4000 -117.74,51.56,4000 -117.72,51.56,4000 -117.70,51.55,4000 -117.68,51.55,4000 -117.66,51.54,4000 -117.64,51.53,4000 -117.63,51.52,4000 -117.62,51.51,4000 -117.61,51.50,4000 -117.60,51.49,4000 -117.60,51.48,4000 -117.59,51.47,4000 -117.59,51.45,4000 -117.59,51.44,4000 -117.60,51.43,4000 -117.60,51.41,4000 -117.60,51.40,4000 -117.60,51.38,4000 -117.61,51.37,4000 -117.61,51.35,4000 -117.61,51.34,4000 -117.62,51.33,4000 -117.62,51.32,4000 -117.62,51.30,4000 -117.63,51.29,4000 -117.64,51.29,4000 -117.66,51.28,4000 -117.67,51.28,4000 -117.69,51.27,4000 -117.70,51.26,4000 -117.72,51.26,4000 -117.74,51.25,4000 -117.76,51.24,4000 -117.78,51.24,4000 -117.80,51.23,4000 -117.82,51.22,4000 -117.84,51.22,4000 -117.86,51.22,4000 -117.88,51.21,4000 -117.90,51.21,4000 -117.92,51.21,4000 -117.94,51.21,4000 -117.96,51.21,4000 -117.98,51.21,4000 -118.01,51.22,4000 -118.03,51.22,4000 -118.05,51.23,4000 -118.07,51.23,4000 -118.10,51.23,4000 -118.12,51.24,4000 -118.13,51.24,4000 -118.15,51.25,4000 -118.17,51.25,4000 -118.18,51.25,4000 -118.22,51.25,4000 -118.23,51.25,4000 -118.23,51.25,4000 -118.23,51.26,4000 -118.21,51.26,4000 -118.20,51.27,4000 -118.19,51.29,4000 -118.19,51.30,4000 -118.18,51.31,4000 -118.18,51.32,4000 -118.18,51.33,4000 -118.18,51.35,4000 -118.18,51.36,4000 -118.17,51.37,4000 -118.17,51.39,4000 -118.17,51.40,4000 -118.17,51.42,4000 -118.00,51.55,4000 
          </coordinates>
        </LinearRing>
      </innerBoundaryIs>
  </Polygon>
 </MultiGeometry>
</Placemark>
<Placemark>
  <name>30%</name>
  <visibility>1</visibility>
  <styleUrl>#poly_30</styleUrl>
  <MultiGeometry>
    <Polygon>
      <outerBoundaryIs>
        <LinearRing>
          <coordinates>
-124.09,50.79,4000 -124.06,50.80,4000 -124.03,50.82,4000 -123.99,50.83,4000 -123.96,50.84,4000 -123.93,50.85,4000 -123.89,50.86,4000 -123.86,50.87,4000 -123.83,50.88,4000 -123.79,50.88,4000 -123.75,50.89,4000 -123.72,50.90,4000 -123.68,50.90,4000 -123.65,50.91,4000 -123.61,50.91,4000 -123.57,50.92,4000 -123.54,50.92,4000 -123.50,50.93,4000 -123.46,50.93,4000 -123.43,50.93,4000 -123.39,50.94,4000 -123.35,50.94,4000 -123.32,50.94,4000 -123.28,50.94,4000 -123.24,50.94,4000 -123.21,50.94,4000 -123.17,50.94,4000 -123.14,50.94,4000 -123.11,50.93,4000 -123.08,50.93,4000 -123.04,50.92,4000 -123.01,50.92,4000 -122.98,50.91,4000 -122.95,50.89,4000 -122.93,50.88,4000 -122.92,50.86,4000 -122.92,50.84,4000 -122.92,50.82,4000 -122.93,50.79,4000 -122.94,50.77,4000 -122.95,50.74,4000 -122.96,50.72,4000 -122.97,50.70,4000 -122.98,50.68,4000 -123.00,50.67,4000 -123.01,50.66,4000 -123.03,50.64,4000 -123.05,50.62,4000 -123.08,50.60,4000 -123.10,50.58,4000 -123.13,50.56,4000 -123.15,50.54,4000 -123.17,50.52,4000 -123.19,50.50,4000 -123.20,50.49,4000 -123.21,50.48,4000 -123.22,50.47,4000 -123.24,50.45,4000 -123.26,50.43,4000 -123.28,50.41,4000 -123.31,50.39,4000 -123.33,50.37,4000 -123.36,50.36,4000 -123.38,50.34,4000 -123.41,50.33,4000 -123.44,50.32,4000 -123.47,50.32,4000 -123.51,50.32,4000 -123.54,50.32,4000 -123.58,50.33,4000 -123.61,50.33,4000 -123.65,50.34,4000 -123.68,50.34,4000 -123.72,50.34,4000 -123.75,50.35,4000 -123.79,50.35,4000 -123.83,50.36,4000 -123.87,50.36,4000 -123.90,50.36,4000 -123.93,50.37,4000 -123.95,50.37,4000 -123.97,50.38,4000 -123.98,50.39,4000 -124.00,50.41,4000 -124.02,50.43,4000 -124.04,50.45,4000 -124.07,50.47,4000 -124.09,50.49,4000 -124.11,50.51,4000 -124.12,50.53,4000 -124.13,50.55,4000 -124.14,50.57,4000 -124.15,50.60,4000 -124.16,50.62,4000 -124.16,50.64,4000 -124.17,50.67,4000 -124.17,50.69,4000 -124.09,50.79,4000 
          </coordinates>
        </LinearRing>
      </outerBoundaryIs>
      <innerBoundaryIs>
        <LinearRing>
          <coordinates>
-124.07,50.73,5000 -124.05,50.74,5000 -124.02,50.76,5000 -123.99,50.77,5000 -123.97,50.78,5000 -123.94,50.79,5000 -123.92,50.80,5000 -123.89,50.81,5000 -123.87,50.82,5000 -123.84,50.83,5000 -123.81,50.84,5000 -123.78,50.84,5000 -123.75,50.85,5000 -123.72,50.85,5000 -123.68,50.86,5000 -123.65,50.86,5000 -123.62,50.87,5000 -123.59,50.87,5000 -123.56,50.87,5000 -123.53,50.88,5000 -123.50,50.89,5000 -123.47,50.89,5000 -123.44,50.89,5000 -123.40,50.90,5000 -123.37,50.90,5000 -123.34,50.90,5000 -123.31,50.90,5000 -123.28,50.90,5000 -123.24,50.89,5000 -123.20,50.89,5000 -123.17,50.88,5000 -123.14,50.87,5000 -123.11,50.87,5000 -123.08,50.86,5000 -123.06,50.86,5000 -123.02,50.85,5000 -123.02,50.84,5000 -123.02,50.83,5000 -123.03,50.81,5000 -123.04,50.79,5000 -123.04,50.78,5000 -123.05,50.76,5000 -123.06,50.74,5000 -123.06,50.73,5000 -123.07,50.71,5000 -123.08,50.69,5000 -123.09,50.67,5000 -123.10,50.65,5000 -123.12,50.64,5000 -123.13,50.62,5000 -123.15,50.61,5000 -123.17,50.59,5000 -123.18,50.58,5000 -123.20,50.56,5000 -123.22,50.55,5000 -123.24,50.54,5000 -123.27,50.52,5000 -123.29,50.51,5000 -123.32,50.49,5000 -123.34,50.48,5000 -123.36,50.47,5000 -123.38,50.46,5000 -123.40,50.44,5000 -123.41,50.43,5000 -123.44,50.42,5000 -123.46,50.42,5000 -123.49,50.42,5000 -123.52,50.41,5000 -123.56,50.41,5000 -123.59,50.41,5000 -123.62,50.41,5000 -123.66,50.41,5000 -123.68,50.41,5000 -123.70,50.41,5000 -123.71,50.42,5000 -123.73,50.42,5000 -123.75,50.43,5000 -123.78,50.44,5000 -123.81,50.44,5000 -123.85,50.45,5000 -123.88,50.46,5000 -123.91,50.47,5000 -123.94,50.48,5000 -123.97,50.48,5000 -123.99,50.49,5000 -124.02,50.50,5000 -124.03,50.52,5000 -124.04,50.54,5000 -124.05,50.55,5000 -124.05,50.57,5000 -124.06,50.58,5000 -124.06,50.60,5000 -124.07,50.62,5000 -124.07,50.64,5000 -124.08,50.66,5000 -124.08,50.68,5000 -124.09,50.70,5000 -124.07,50.73,5000 
          </coordinates>
        </LinearRing>
      </innerBoundaryIs>
  </Polygon>
 </MultiGeometry>
</Placemark>
<Placemark>
  <name>30%</name>
  <visibility>1</visibility>
  <styleUrl>#poly_30</styleUrl>
  <MultiGeometry>
    <Polygon>
      <outerBoundaryIs>
        <LinearRing>
          <coordinates>
-122.50,50.76,4000 -122.50,50.76,4000 -122.48,50.75,4000 -122.45,50.75,4000 -122.43,50.75,4000 -122.41,50.75,4000 -122.39,50.75,4000 -122.36,50.75,4000 -122.34,50.74,4000 -122.31,50.74,4000 -122.28,50.74,4000 -122.25,50.74,4000 -122.23,50.73,4000 -122.21,50.72,4000 -122.19,50.72,4000 -122.17,50.71,4000 -122.15,50.70,4000 -122.13,50.69,4000 -122.11,50.68,4000 -122.09,50.67,4000 -122.07,50.66,4000 -122.06,50.65,4000 -122.04,50.64,4000 -122.02,50.63,4000 -122.01,50.62,4000 -121.99,50.60,4000 -121.98,50.59,4000 -121.96,50.57,4000 -121.95,50.56,4000 -121.93,50.54,4000 -121.92,50.53,4000 -121.91,50.52,4000 -121.90,50.51,4000 -121.89,50.50,4000 -121.88,50.49,4000 -121.89,50.48,4000 -121.90,50.47,4000 -121.91,50.46,4000 -121.93,50.45,4000 -121.94,50.44,4000 -121.96,50.42,4000 -121.98,50.41,4000 -121.99,50.39,4000 -122.01,50.38,4000 -122.03,50.36,4000 -122.05,50.35,4000 -122.07,50.34,4000 -122.08,50.33,4000 -122.10,50.33,4000 -122.12,50.33,4000 -122.14,50.34,4000 -122.16,50.34,4000 -122.18,50.35,4000 -122.19,50.37,4000 -122.21,50.38,4000 -122.23,50.40,4000 -122.25,50.41,4000 -122.26,50.43,4000 -122.28,50.44,4000 -122.30,50.45,4000 -122.31,50.46,4000 -122.33,50.48,4000 -122.35,50.49,4000 -122.36,50.50,4000 -122.38,50.52,4000 -122.39,50.53,4000 -122.41,50.54,4000 -122.42,50.55,4000 -122.43,50.56,4000 -122.44,50.57,4000 -122.45,50.58,4000 -122.45,50.59,4000 -122.46,50.60,4000 -122.46,50.61,4000 -122.47,50.62,4000 -122.48,50.64,4000 -122.48,50.65,4000 -122.49,50.67,4000 -122.50,50.69,4000 -122.50,50.70,4000 -122.51,50.72,4000 -122.52,50.74,4000 -122.50,50.76,4000 
          </coordinates>
        </LinearRing>
      </outerBoundaryIs>
      <innerBoundaryIs>
        <LinearRing>
          <coordinates>
-122.20,50.64,5000 -122.19,50.64,5000 -122.18,50.64,5000 -122.18,50.64,5000 -122.17,50.63,5000 -122.16,50.62,5000 -122.16,50.62,5000 -122.16,50.61,5000 -122.16,50.60,5000 -122.15,50.60,5000 -122.15,50.59,5000 -122.15,50.58,5000 -122.15,50.58,5000 -122.15,50.57,5000 -122.15,50.56,5000 -122.14,50.55,5000 -122.14,50.54,5000 -122.14,50.54,5000 -122.14,50.53,5000 -122.14,50.52,5000 -122.14,50.51,5000 -122.14,50.50,5000 -122.13,50.49,5000 -122.13,50.49,5000 -122.13,50.48,5000 -122.13,50.47,5000 -122.13,50.47,5000 -122.13,50.46,5000 -122.13,50.46,5000 -122.13,50.44,5000 -122.14,50.45,5000 -122.14,50.44,5000 -122.15,50.46,5000 -122.15,50.46,5000 -122.16,50.47,5000 -122.16,50.47,5000 -122.16,50.48,5000 -122.16,50.48,5000 -122.17,50.49,5000 -122.17,50.49,5000 -122.18,50.50,5000 -122.18,50.51,5000 -122.18,50.51,5000 -122.19,50.52,5000 -122.19,50.53,5000 -122.20,50.53,5000 -122.20,50.54,5000 -122.21,50.55,5000 -122.21,50.55,5000 -122.22,50.56,5000 -122.22,50.57,5000 -122.23,50.58,5000 -122.23,50.59,5000 -122.24,50.59,5000 -122.24,50.60,5000 -122.25,50.61,5000 -122.20,50.64,5000 
          </coordinates>
        </LinearRing>
      </innerBoundaryIs>
  </Polygon>
 </MultiGeometry>
</Placemark>
<Placemark>
  <name>30%</name>
  <visibility>1</visibility>
  <styleUrl>#poly_30</styleUrl>
  <MultiGeometry>
    <Polygon>
      <outerBoundaryIs>
        <LinearRing>
          <coordinates>
-118.00,51.55,4000 -117.98,51.55,4000 -117.96,51.55,4000 -117.93,51.56,4000 -117.91,51.56,4000 -117.89,51.56,4000 -117.87,51.56,4000 -117.85,51.56,4000 -117.83,51.56,4000 -117.81,51.56,4000 -117.79,51.56,4000 -117.77,51.56,4000 -117.76,51.56,4000 -117.74,51.56,4000 -117.72,51.56,4000 -117.70,51.55,4000 -117.68,51.55,4000 -117.66,51.54,4000 -117.64,51.53,4000 -117.63,51.52,4000 -117.62,51.51,4000 -117.61,51.50,4000 -117.60,51.49,4000 -117.60,51.48,4000 -117.59,51.47,4000 -117.59,51.45,4000 -117.59,51.44,4000 -117.60,51.43,4000 -117.60,51.41,4000 -117.60,51.40,4000 -117.60,51.38,4000 -117.61,51.37,4000 -117.61,51.35,4000 -117.61,51.34,4000 -117.62,51.33,4000 -117.62,51.32,4000 -117.62,51.30,4000 -117.63,51.29,4000 -117.64,51.29,4000 -117.66,51.28,4000 -117.67,51.28,4000 -117.69,51.27,4000 -117.70,51.26,4000 -117.72,51.26,4000 -117.74,51.25,4000 -117.76,51.24,4000 -117.78,51.24,4000 -117.80,51.23,4000 -117.82,51.22,4000 -117.84,51.22,4000 -117.86,51.22,4000 -117.88,51.21,4000 -117.90,51.21,4000 -117.92,51.21,4000 -117.94,51.21,4000 -117.96,51.21,4000 -117.98,51.21,4000 -118.01,51.22,4000 -118.03,51.22,4000 -118.05,51.23,4000 -118.07,51.23,4000 -118.10,51.23,4000 -118.12,51.24,4000 -118.13,51.24,4000 -118.15,51.25,4000 -118.17,51.25,4000 -118.18,51.25,4000 -118.22,51.25,4000 -118.23,51.25,4000 -118.23,51.25,4000 -118.23,51.26,4000 -118.21,51.26,4000 -118.20,51.27,4000 -118.19,51.29,4000 -118.19,51.30,4000 -118.18,51.31,4000 -118.18,51.32,4000 -118.18,51.33,4000 -118.18,51.35,4000 -118.18,51.36,4000 -118.17,51.37,4000 -118.17,51.39,4000 -118.17,51.40,4000 -118.17,51.42,4000 -118.00,51.55,4000 
          </coordinates>
        </LinearRing>
      </outerBoundaryIs>
      <innerBoundaryIs>
        <LinearRing>
          <coordinates>
-117.98,51.50,5000 -117.96,51.50,5000 -117.95,51.50,5000 -117.93,51.50,5000 -117.91,51.50,5000 -117.90,51.50,5000 -117.88,51.50,5000 -117.87,51.50,5000 -117.85,51.50,5000 -117.84,51.50,5000 -117.82,51.50,5000 -117.81,51.50,5000 -117.79,51.50,5000 -117.78,51.50,5000 -117.77,51.50,5000 -117.76,51.50,5000 -117.75,51.50,5000 -117.74,51.50,5000 -117.73,51.50,5000 -117.72,51.50,5000 -117.69,51.50,5000 -117.68,51.49,5000 -117.68,51.49,5000 -117.68,51.48,5000 -117.68,51.47,5000 -117.68,51.47,5000 -117.68,51.46,5000 -117.68,51.45,5000 -117.68,51.45,5000 -117.68,51.44,5000 -117.69,51.43,5000 -117.69,51.42,5000 -117.70,51.41,5000 -117.70,51.40,5000 -117.71,51.40,5000 -117.72,51.39,5000 -117.72,51.38,5000 -117.73,51.38,5000 -117.74,51.37,5000 -117.75,51.36,5000 -117.76,51.35,5000 -117.76,51.34,5000 -117.77,51.34,5000 -117.78,51.33,5000 -117.79,51.32,5000 -117.80,51.32,5000 -117.81,51.31,5000 -117.81,51.30,5000 -117.82,51.30,5000 -117.83,51.29,5000 -117.84,51.29,5000 -117.86,51.28,5000 -117.87,51.28,5000 -117.88,51.28,5000 -117.89,51.27,5000 -117.90,51.27,5000 -117.91,51.27,5000 -117.92,51.27,5000 -117.93,51.27,5000 -117.95,51.26,5000 -117.96,51.26,5000 -117.97,51.26,5000 -117.99,51.27,5000 -118.00,51.28,5000 -118.00,51.28,5000 -118.01,51.29,5000 -118.01,51.30,5000 -118.01,51.30,5000 -118.02,51.31,5000 -118.02,51.31,5000 -118.03,51.32,5000 -118.03,51.33,5000 -118.03,51.34,5000 -118.04,51.35,5000 -118.04,51.35,5000 -118.04,51.36,5000 -118.05,51.37,5000 -118.05,51.38,5000 -118.05,51.39,5000 -118.06,51.40,5000 -118.06,51.41,5000 -118.06,51.42,5000 -118.07,51.43,5000 -118.07,51.44,5000 -117.98,51.50,5000 
          </coordinates>
        </LinearRing>
      </innerBoundaryIs>
  </Polygon>
 </MultiGeometry>
</Placemark>
<Placemark>
  <name>40%</name>
  <visibility>1</visibility>
  <styleUrl>#poly_40</styleUrl>
  <MultiGeometry>
    <Polygon>
      <outerBoundaryIs>
        <LinearRing>
          <coordinates>
-124.07,50.73,5000 -124.05,50.74,5000 -124.02,50.76,5000 -123.99,50.77,5000 -123.97,50.78,5000 -123.94,50.79,5000 -123.92,50.80,5000 -123.89,50.81,5000 -123.87,50.82,5000 -123.84,50.83,5000 -123.81,50.84,5000 -123.78,50.84,5000 -123.75,50.85,5000 -123.72,50.85,5000 -123.68,50.86,5000 -123.65,50.86,5000 -123.62,50.87,5000 -123.59,50.87,5000 -123.56,50.87,5000 -123.53,50.88,5000 -123.50,50.89,5000 -123.47,50.89,5000 -123.44,50.89,5000 -123.40,50.90,5000 -123.37,50.90,5000 -123.34,50.90,5000 -123.31,50.90,5000 -123.28,50.90,5000 -123.24,50.89,5000 -123.20,50.89,5000 -123.17,50.88,5000 -123.14,50.87,5000 -123.11,50.87,5000 -123.08,50.86,5000 -123.06,50.86,5000 -123.02,50.85,5000 -123.02,50.84,5000 -123.02,50.83,5000 -123.03,50.81,5000 -123.04,50.79,5000 -123.04,50.78,5000 -123.05,50.76,5000 -123.06,50.74,5000 -123.06,50.73,5000 -123.07,50.71,5000 -123.08,50.69,5000 -123.09,50.67,5000 -123.10,50.65,5000 -123.12,50.64,5000 -123.13,50.62,5000 -123.15,50.61,5000 -123.17,50.59,5000 -123.18,50.58,5000 -123.20,50.56,5000 -123.22,50.55,5000 -123.24,50.54,5000 -123.27,50.52,5000 -123.29,50.51,5000 -123.32,50.49,5000 -123.34,50.48,5000 -123.36,50.47,5000 -123.38,50.46,5000 -123.40,50.44,5000 -123.41,50.43,5000 -123.44,50.42,5000 -123.46,50.42,5000 -123.49,50.42,5000 -123.52,50.41,5000 -123.56,50.41,5000 -123.59,50.41,5000 -123.62,50.41,5000 -123.66,50.41,5000 -123.68,50.41,5000 -123.70,50.41,5000 -123.71,50.42,5000 -123.73,50.42,5000 -123.75,50.43,5000 -123.78,50.44,5000 -123.81,50.44,5000 -123.85,50.45,5000 -123.88,50.46,5000 -123.91,50.47,5000 -123.94,50.48,5000 -123.97,50.48,5000 -123.99,50.49,5000 -124.02,50.50,5000 -124.03,50.52,5000 -124.04,50.54,5000 -124.05,50.55,5000 -124.05,50.57,5000 -124.06,50.58,5000 -124.06,50.60,5000 -124.07,50.62,5000 -124.07,50.64,5000 -124.08,50.66,5000 -124.08,50.68,5000 -124.09,50.70,5000 -124.07,50.73,5000 
          </coordinates>
        </LinearRing>
      </outerBoundaryIs>
      <innerBoundaryIs>
        <LinearRing>
          <coordinates>
-123.83,50.79,6000 -123.81,50.79,6000 -123.78,50.80,6000 -123.76,50.80,6000 -123.74,50.80,6000 -123.72,50.80,6000 -123.69,50.81,6000 -123.67,50.81,6000 -123.65,50.81,6000 -123.63,50.81,6000 -123.60,50.82,6000 -123.58,50.82,6000 -123.56,50.82,6000 -123.53,50.83,6000 -123.51,50.83,6000 -123.48,50.84,6000 -123.46,50.84,6000 -123.43,50.85,6000 -123.41,50.85,6000 -123.39,50.85,6000 -123.36,50.86,6000 -123.34,50.86,6000 -123.32,50.86,6000 -123.29,50.86,6000 -123.26,50.86,6000 -123.24,50.86,6000 -123.21,50.86,6000 -123.19,50.86,6000 -123.17,50.85,6000 -123.15,50.84,6000 -123.14,50.83,6000 -123.14,50.82,6000 -123.14,50.81,6000 -123.14,50.79,6000 -123.14,50.78,6000 -123.14,50.76,6000 -123.15,50.74,6000 -123.16,50.72,6000 -123.16,50.71,6000 -123.17,50.69,6000 -123.18,50.67,6000 -123.19,50.66,6000 -123.19,50.65,6000 -123.20,50.63,6000 -123.20,50.63,6000 -123.21,50.62,6000 -123.24,50.61,6000 -123.25,50.60,6000 -123.27,50.59,6000 -123.28,50.59,6000 -123.30,50.57,6000 -123.32,50.56,6000 -123.34,50.55,6000 -123.36,50.54,6000 -123.38,50.53,6000 -123.41,50.52,6000 -123.43,50.51,6000 -123.45,50.51,6000 -123.47,50.50,6000 -123.49,50.50,6000 -123.52,50.49,6000 -123.54,50.49,6000 -123.57,50.49,6000 -123.59,50.48,6000 -123.61,50.48,6000 -123.64,50.48,6000 -123.66,50.48,6000 -123.69,50.49,6000 -123.71,50.49,6000 -123.73,50.49,6000 -123.75,50.49,6000 -123.78,50.50,6000 -123.80,50.50,6000 -123.83,50.51,6000 -123.85,50.51,6000 -123.87,50.52,6000 -123.89,50.53,6000 -123.90,50.54,6000 -123.92,50.55,6000 -123.93,50.56,6000 -123.94,50.57,6000 -123.95,50.59,6000 -123.95,50.60,6000 -123.96,50.61,6000 -123.96,50.63,6000 -123.97,50.64,6000 -123.97,50.66,6000 -123.97,50.68,6000 -123.98,50.69,6000 -123.98,50.71,6000 -123.83,50.79,6000 
          </coordinates>
        </LinearRing>
      </innerBoundaryIs>
  </Polygon>
 </MultiGeometry>
</Placemark>
<Placemark>
  <name>40%</name>
  <visibility>1</visibility>
  <styleUrl>#poly_40</styleUrl>
  <MultiGeometry>
    <Polygon>
      <outerBoundaryIs>
        <LinearRing>
          <coordinates>
-122.20,50.64,5000 -122.19,50.64,5000 -122.18,50.64,5000 -122.18,50.64,5000 -122.17,50.63,5000 -122.16,50.62,5000 -122.16,50.62,5000 -122.16,50.61,5000 -122.16,50.60,5000 -122.15,50.60,5000 -122.15,50.59,5000 -122.15,50.58,5000 -122.15,50.58,5000 -122.15,50.57,5000 -122.15,50.56,5000 -122.14,50.55,5000 -122.14,50.54,5000 -122.14,50.54,5000 -122.14,50.53,5000 -122.14,50.52,5000 -122.14,50.51,5000 -122.14,50.50,5000 -122.13,50.49,5000 -122.13,50.49,5000 -122.13,50.48,5000 -122.13,50.47,5000 -122.13,50.47,5000 -122.13,50.46,5000 -122.13,50.46,5000 -122.13,50.44,5000 -122.14,50.45,5000 -122.14,50.44,5000 -122.15,50.46,5000 -122.15,50.46,5000 -122.16,50.47,5000 -122.16,50.47,5000 -122.16,50.48,5000 -122.16,50.48,5000 -122.17,50.49,5000 -122.17,50.49,5000 -122.18,50.50,5000 -122.18,50.51,5000 -122.18,50.51,5000 -122.19,50.52,5000 -122.19,50.53,5000 -122.20,50.53,5000 -122.20,50.54,5000 -122.21,50.55,5000 -122.21,50.55,5000 -122.22,50.56,5000 -122.22,50.57,5000 -122.23,50.58,5000 -122.23,50.59,5000 -122.24,50.59,5000 -122.24,50.60,5000 -122.25,50.61,5000 -122.20,50.64,5000 
          </coordinates>
        </LinearRing>
      </outerBoundaryIs>
  </Polygon>
 </MultiGeometry>
</Placemark>
<Placemark>
  <name>40%</name>
  <visibility>1</visibility>
  <styleUrl>#poly_40</styleUrl>
  <MultiGeometry>
    <Polygon>
      <outerBoundaryIs>
        <LinearRing>
          <coordinates>
-117.98,51.50,5000 -117.96,51.50,5000 -117.95,51.50,5000 -117.93,51.50,5000 -117.91,51.50,5000 -117.90,51.50,5000 -117.88,51.50,5000 -117.87,51.50,5000 -117.85,51.50,5000 -117.84,51.50,5000 -117.82,51.50,5000 -117.81,51.50,5000 -117.79,51.50,5000 -117.78,51.50,5000 -117.77,51.50,5000 -117.76,51.50,5000 -117.75,51.50,5000 -117.74,51.50,5000 -117.73,51.50,5000 -117.72,51.50,5000 -117.69,51.50,5000 -117.68,51.49,5000 -117.68,51.49,5000 -117.68,51.48,5000 -117.68,51.47,5000 -117.68,51.47,5000 -117.68,51.46,5000 -117.68,51.45,5000 -117.68,51.45,5000 -117.68,51.44,5000 -117.69,51.43,5000 -117.69,51.42,5000 -117.70,51.41,5000 -117.70,51.40,5000 -117.71,51.40,5000 -117.72,51.39,5000 -117.72,51.38,5000 -117.73,51.38,5000 -117.74,51.37,5000 -117.75,51.36,5000 -117.76,51.35,5000 -117.76,51.34,5000 -117.77,51.34,5000 -117.78,51.33,5000 -117.79,51.32,5000 -117.80,51.32,5000 -117.81,51.31,5000 -117.81,51.30,5000 -117.82,51.30,5000 -117.83,51.29,5000 -117.84,51.29,5000 -117.86,51.28,5000 -117.87,51.28,5000 -117.88,51.28,5000 -117.89,51.27,5000 -117.90,51.27,5000 -117.91,51.27,5000 -117.92,51.27,5000 -117.93,51.27,5000 -117.95,51.26,5000 -117.96,51.26,5000 -117.97,51.26,5000 -117.99,51.27,5000 -118.00,51.28,5000 -118.00,51.28,5000 -118.01,51.29,5000 -118.01,51.30,5000 -118.01,51.30,5000 -118.02,51.31,5000 -118.02,51.31,5000 -118.03,51.32,5000 -118.03,51.33,5000 -118.03,51.34,5000 -118.04,51.35,5000 -118.04,51.35,5000 -118.04,51.36,5000 -118.05,51.37,5000 -118.05,51.38,5000 -118.05,51.39,5000 -118.06,51.40,5000 -118.06,51.41,5000 -118.06,51.42,5000 -118.07,51.43,5000 -118.07,51.44,5000 -117.98,51.50,5000 
          </coordinates>
        </LinearRing>
      </outerBoundaryIs>
  </Polygon>
 </MultiGeometry>
</Placemark>
<Placemark>
  <name>50%</name>
  <visibility>1</visibility>
  <styleUrl>#poly_50</styleUrl>
  <MultiGeometry>
    <Polygon>
      <outerBoundaryIs>
        <LinearRing>
          <coordinates>
-123.83,50.79,6000 -123.81,50.79,6000 -123.78,50.80,6000 -123.76,50.80,6000 -123.74,50.80,6000 -123.72,50.80,6000 -123.69,50.81,6000 -123.67,50.81,6000 -123.65,50.81,6000 -123.63,50.81,6000 -123.60,50.82,6000 -123.58,50.82,6000 -123.56,50.82,6000 -123.53,50.83,6000 -123.51,50.83,6000 -123.48,50.84,6000 -123.46,50.84,6000 -123.43,50.85,6000 -123.41,50.85,6000 -123.39,50.85,6000 -123.36,50.86,6000 -123.34,50.86,6000 -123.32,50.86,6000 -123.29,50.86,6000 -123.26,50.86,6000 -123.24,50.86,6000 -123.21,50.86,6000 -123.19,50.86,6000 -123.17,50.85,6000 -123.15,50.84,6000 -123.14,50.83,6000 -123.14,50.82,6000 -123.14,50.81,6000 -123.14,50.79,6000 -123.14,50.78,6000 -123.14,50.76,6000 -123.15,50.74,6000 -123.16,50.72,6000 -123.16,50.71,6000 -123.17,50.69,6000 -123.18,50.67,6000 -123.19,50.66,6000 -123.19,50.65,6000 -123.20,50.63,6000 -123.20,50.63,6000 -123.21,50.62,6000 -123.24,50.61,6000 -123.25,50.60,6000 -123.27,50.59,6000 -123.28,50.59,6000 -123.30,50.57,6000 -123.32,50.56,6000 -123.34,50.55,6000 -123.36,50.54,6000 -123.38,50.53,6000 -123.41,50.52,6000 -123.43,50.51,6000 -123.45,50.51,6000 -123.47,50.50,6000 -123.49,50.50,6000 -123.52,50.49,6000 -123.54,50.49,6000 -123.57,50.49,6000 -123.59,50.48,6000 -123.61,50.48,6000 -123.64,50.48,6000 -123.66,50.48,6000 -123.69,50.49,6000 -123.71,50.49,6000 -123.73,50.49,6000 -123.75,50.49,6000 -123.78,50.50,6000 -123.80,50.50,6000 -123.83,50.51,6000 -123.85,50.51,6000 -123.87,50.52,6000 -123.89,50.53,6000 -123.90,50.54,6000 -123.92,50.55,6000 -123.93,50.56,6000 -123.94,50.57,6000 -123.95,50.59,6000 -123.95,50.60,6000 -123.96,50.61,6000 -123.96,50.63,6000 -123.97,50.64,6000 -123.97,50.66,6000 -123.97,50.68,6000 -123.98,50.69,6000 -123.98,50.71,6000 -123.83,50.79,6000 
          </coordinates>
        </LinearRing>
      </outerBoundaryIs>
      <innerBoundaryIs>
        <LinearRing>
          <coordinates>
-123.81,50.75,7000 -123.79,50.75,7000 -123.78,50.75,7000 -123.76,50.76,7000 -123.74,50.76,7000 -123.73,50.76,7000 -123.71,50.76,7000 -123.69,50.76,7000 -123.68,50.77,7000 -123.66,50.77,7000 -123.64,50.77,7000 -123.63,50.77,7000 -123.61,50.77,7000 -123.59,50.78,7000 -123.58,50.78,7000 -123.56,50.78,7000 -123.54,50.78,7000 -123.53,50.78,7000 -123.51,50.79,7000 -123.49,50.79,7000 -123.47,50.79,7000 -123.46,50.80,7000 -123.44,50.80,7000 -123.42,50.80,7000 -123.40,50.81,7000 -123.39,50.81,7000 -123.37,50.81,7000 -123.36,50.81,7000 -123.34,50.82,7000 -123.33,50.82,7000 -123.32,50.82,7000 -123.31,50.82,7000 -123.28,50.82,7000 -123.27,50.82,7000 -123.27,50.81,7000 -123.27,50.80,7000 -123.27,50.80,7000 -123.26,50.79,7000 -123.27,50.78,7000 -123.27,50.76,7000 -123.27,50.75,7000 -123.28,50.74,7000 -123.29,50.73,7000 -123.29,50.72,7000 -123.30,50.72,7000 -123.31,50.71,7000 -123.32,50.70,7000 -123.33,50.69,7000 -123.34,50.68,7000 -123.35,50.67,7000 -123.36,50.66,7000 -123.37,50.65,7000 -123.38,50.64,7000 -123.39,50.64,7000 -123.40,50.63,7000 -123.41,50.62,7000 -123.43,50.61,7000 -123.44,50.61,7000 -123.45,50.60,7000 -123.46,50.60,7000 -123.48,50.59,7000 -123.50,50.59,7000 -123.51,50.59,7000 -123.53,50.59,7000 -123.54,50.58,7000 -123.56,50.58,7000 -123.58,50.58,7000 -123.60,50.58,7000 -123.62,50.57,7000 -123.64,50.57,7000 -123.66,50.57,7000 -123.68,50.57,7000 -123.69,50.56,7000 -123.71,50.56,7000 -123.73,50.56,7000 -123.74,50.56,7000 -123.75,50.56,7000 -123.78,50.55,7000 -123.78,50.55,7000 -123.79,50.57,7000 -123.79,50.58,7000 -123.80,50.58,7000 -123.80,50.59,7000 -123.80,50.60,7000 -123.80,50.61,7000 -123.81,50.62,7000 -123.81,50.63,7000 -123.81,50.64,7000 -123.82,50.65,7000 -123.82,50.66,7000 -123.82,50.67,7000 -123.83,50.68,7000 -123.83,50.69,7000 -123.83,50.71,7000 -123.84,50.72,7000 -123.84,50.73,7000 -123.81,50.75,7000 
          </coordinates>
        </LinearRing>
      </innerBoundaryIs>
  </Polygon>
 </MultiGeometry>
</Placemark>
<Placemark>
  <name>60%</name>
  <visibility>1</visibility>
  <styleUrl>#poly_60</styleUrl>
  <MultiGeometry>
    <Polygon>
      <outerBoundaryIs>
        <LinearRing>
          <coordinates>
-123.81,50.75,7000 -123.79,50.75,7000 -123.78,50.75,7000 -123.76,50.76,7000 -123.74,50.76,7000 -123.73,50.76,7000 -123.71,50.76,7000 -123.69,50.76,7000 -123.68,50.77,7000 -123.66,50.77,7000 -123.64,50.77,7000 -123.63,50.77,7000 -123.61,50.77,7000 -123.59,50.78,7000 -123.58,50.78,7000 -123.56,50.78,7000 -123.54,50.78,7000 -123.53,50.78,7000 -123.51,50.79,7000 -123.49,50.79,7000 -123.47,50.79,7000 -123.46,50.80,7000 -123.44,50.80,7000 -123.42,50.80,7000 -123.40,50.81,7000 -123.39,50.81,7000 -123.37,50.81,7000 -123.36,50.81,7000 -123.34,50.82,7000 -123.33,50.82,7000 -123.32,50.82,7000 -123.31,50.82,7000 -123.28,50.82,7000 -123.27,50.82,7000 -123.27,50.81,7000 -123.27,50.80,7000 -123.27,50.80,7000 -123.26,50.79,7000 -123.27,50.78,7000 -123.27,50.76,7000 -123.27,50.75,7000 -123.28,50.74,7000 -123.29,50.73,7000 -123.29,50.72,7000 -123.30,50.72,7000 -123.31,50.71,7000 -123.32,50.70,7000 -123.33,50.69,7000 -123.34,50.68,7000 -123.35,50.67,7000 -123.36,50.66,7000 -123.37,50.65,7000 -123.38,50.64,7000 -123.39,50.64,7000 -123.40,50.63,7000 -123.41,50.62,7000 -123.43,50.61,7000 -123.44,50.61,7000 -123.45,50.60,7000 -123.46,50.60,7000 -123.48,50.59,7000 -123.50,50.59,7000 -123.51,50.59,7000 -123.53,50.59,7000 -123.54,50.58,7000 -123.56,50.58,7000 -123.58,50.58,7000 -123.60,50.58,7000 -123.62,50.57,7000 -123.64,50.57,7000 -123.66,50.57,7000 -123.68,50.57,7000 -123.69,50.56,7000 -123.71,50.56,7000 -123.73,50.56,7000 -123.74,50.56,7000 -123.75,50.56,7000 -123.78,50.55,7000 -123.78,50.55,7000 -123.79,50.57,7000 -123.79,50.58,7000 -123.80,50.58,7000 -123.80,50.59,7000 -123.80,50.60,7000 -123.80,50.61,7000 -123.81,50.62,7000 -123.81,50.63,7000 -123.81,50.64,7000 -123.82,50.65,7000 -123.82,50.66,7000 -123.82,50.67,7000 -123.83,50.68,7000 -123.83,50.69,7000 -123.83,50.71,7000 -123.84,50.72,7000 -123.84,50.73,7000 -123.81,50.75,7000 
          </coordinates>
        </LinearRing>
      </outerBoundaryIs>
  </Polygon>
 </MultiGeometry>
</Placemark>
    </Folder>
  </Document>
</kml>
