<?xml version="1.0" encoding="UTF-8"?>
<kml xmlns="http://www.opengis.net/kml/2.2">
<Document id="prb_72hsnow_ge02_f072">
<name>WPC 72-Hr Prob of Snow > 2"</name>
  <open>1</open>
  <snippet>Valid 12Z 06/10/2026 - 12Z 06/13/2026</snippet>
  <description></description>
    <Style id="poly_1">
        <IconStyle>
           <color>00000000</color>
           <scale>1</scale>
        </IconStyle>
        <LabelStyle>
            <color>ff26478b</color>
            <scale>0.8</scale>
        </LabelStyle>
        <LineStyle>
            <color>6626478b</color>
            <width>0</width>
        </LineStyle>
	<PolyStyle>
            <color>6626478b</color>
	</PolyStyle>
        <BalloonStyle>
            <text>
                <![CDATA[ <table border=0 width="300"><tr><td style="font-size:10pt;">
                During this forecast period, there is a <b>1-5%</b> probability of snowfall exceeding the depicted amount in the enclosed area.
                <br/><br/>
                *<span style="font-size:8pt;">Note that in cases where this contour is embedded within a 5% contour, 
                the probability of snowfall exceeding the depicted amount is &lt;1%.</span>
                </td></tr></table>]]>
            </text>
        </BalloonStyle>
    </Style>

    <Style id="poly_5">
        <IconStyle>
           <color>00000000</color>
           <scale>1</scale>
        </IconStyle>
        <LabelStyle>
            <color>ff00eeee</color>
            <scale>0.8</scale>
        </LabelStyle>
        <LineStyle>
            <color>6600eeee</color>
            <width>0.4</width>
        </LineStyle>
	<PolyStyle>
	    <color>6600eeee</color>
	</PolyStyle>
        <BalloonStyle>
            <text>
                <![CDATA[ <table border=0 width="300"><tr><td style="font-size:10pt;">
                During this forecast period, there is a <b>5-10%</b> probability of snowfall exceeding the depicted amount in the enclosed area.
                <br/><br/>
                *<span style="font-size:8pt;">Note that in cases where this contour is embedded within a 10% contour, 
                the probability of snowfall exceeding the depicted amount is &lt;5%.</span>
                </td></tr></table>]]>
            </text>
        </BalloonStyle>
    </Style>

    <Style id="poly_10">
        <IconStyle>
           <color>00000000</color>
           <scale>1</scale>
        </IconStyle>
        <LabelStyle>
            <color>ff00ff7f</color>
            <scale>0.8</scale>
        </LabelStyle>
        <LineStyle>
            <color>6600ff7f</color>
            <width>0.4</width>
        </LineStyle>
	<PolyStyle>
	    <color>6600ff7f</color>
	</PolyStyle>
        <BalloonStyle>
            <text>
                <![CDATA[ <table border=0 width="300"><tr><td style="font-size:10pt;">
                During this forecast period, there is a <b>10-20%</b> probability of snowfall exceeding the depicted amount in the enclosed area.
                <br/><br/>
                *<span style="font-size:8pt;">Note that in cases where this contour is embedded within a 20% contour, 
                the probability of snowfall exceeding the depicted amount is &lt;10%.</span>
                </td></tr></table>]]>
            </text>
        </BalloonStyle>
    </Style>
    
    <Style id="poly_20">
        <IconStyle>
            <color>00000000</color>
            <scale>1</scale>
        </IconStyle>
        <LabelStyle>
            <color>ff00cd00</color>
            <scale>0.8</scale>
        </LabelStyle>
        <LineStyle>
            <color>6600cd00</color>
	    <width>0.4</width>
	</LineStyle>
	<PolyStyle>
	    <color>6600cd00</color>
	</PolyStyle>
        <BalloonStyle>
            <text>
                <![CDATA[ <table border=0 width="300"><tr><td style="font-size:10pt;">
                During this forecast period, there is a <b>20-30%</b> probability of snowfall exceeding the depicted amount in the enclosed area.
                <br/><br/>
                *<span style="font-size:8pt;">Note that in cases where this contour is embedded within a 30% contour, 
                the probability of snowfall exceeding the depicted amount is &lt;20%.</span>
                </td></tr></table>]]>
            </text>
        </BalloonStyle>
    </Style>

    <Style id="poly_30">
        <IconStyle>
            <color>00000000</color>
            <scale>1</scale>
        </IconStyle>
        <LabelStyle>
            <color>ff008b00</color>
            <scale>0.8</scale>
        </LabelStyle>
        <LineStyle>
            <color>66008b00</color>
	    <width>0.4</width>
	</LineStyle>
	<PolyStyle>
	    <color>66008b00</color>
	</PolyStyle>
        <BalloonStyle>
            <text>
                <![CDATA[ <table border=0 width="300"><tr><td style="font-size:10pt;">
                During this forecast period, there is a <b>30-40%</b> probability of snowfall exceeding the depicted amount in the enclosed area.
                <br/><br/>
                *<span style="font-size:8pt;">Note that in cases where this contour is embedded within a 40% contour, 
                the probability of snowfall exceeding the depicted amount is &lt;30%.</span>
                </td></tr></table>]]>
            </text>
        </BalloonStyle>
    </Style>

    <Style id="poly_40">
        <IconStyle>
            <color>00000000</color>
            <scale>1</scale>
        </IconStyle>
        <LabelStyle>
            <color>ff8b4e10</color>
            <scale>0.8</scale>
        </LabelStyle>
        <LineStyle>
            <color>668b4e10</color>
	    <width>0.4</width>
	</LineStyle>
	<PolyStyle>
	    <color>668b4e10</color>
	</PolyStyle>
        <BalloonStyle>
            <text>
                <![CDATA[ <table border=0 width="300"><tr><td style="font-size:10pt;">
                During this forecast period, there is a <b>40-50%</b> probability of snowfall exceeding the depicted amount in the enclosed area.
                <br/><br/>
                *<span style="font-size:8pt;">Note that in cases where this contour is embedded within a 50% contour, 
                the probability of snowfall exceeding the depicted amount is &lt;40%.</span>
                </td></tr></table>]]>
            </text>
        </BalloonStyle>
    </Style>

    <Style id="poly_50">
        <IconStyle>
            <color>00000000</color>
            <scale>1</scale>
        </IconStyle>
        <LabelStyle>
            <color>ffff901e</color>
            <scale>0.8</scale>
        </LabelStyle>
        <LineStyle>
            <color>66ff901e</color>
	    <width>0.4</width>
	</LineStyle>
	<PolyStyle>
	    <color>66ff901e</color>
	</PolyStyle>
        <BalloonStyle>
            <text>
                <![CDATA[ <table border=0 width="300"><tr><td style="font-size:10pt;">
                During this forecast period, there is a <b>50-60%</b> probability of snowfall exceeding the depicted amount in the enclosed area.
                <br/><br/>
                *<span style="font-size:8pt;">Note that in cases where this contour is embedded within a 60% contour, 
                the probability of snowfall exceeding the depicted amount is &lt;50%.</span>
                </td></tr></table>]]>
            </text>
        </BalloonStyle>
    </Style>

    <Style id="poly_60">
        <IconStyle>
            <color>00000000</color>
            <scale>1</scale>
        </IconStyle>
        <LabelStyle>
            <color>ffeeb200</color>
            <scale>0.8</scale>
        </LabelStyle>
        <LineStyle>
            <color>66eeb200</color>
	    <width>0.4</width>
	</LineStyle>
	<PolyStyle>
	    <color>66eeb200</color>
	</PolyStyle>
        <BalloonStyle>
            <text>
                <![CDATA[ <table border=0 width="300"><tr><td style="font-size:10pt;">
                During this forecast period, there is a <b>60-70%</b> probability of snowfall exceeding the depicted amount in the enclosed area.
                <br/><br/>
                *<span style="font-size:8pt;">Note that in cases where this contour is embedded within a 70% contour, 
                the probability of snowfall exceeding the depicted amount is &lt;60%.</span>
                </td></tr></table>]]>
            </text>
        </BalloonStyle>
    </Style>
    
    <Style id="poly_70">
        <IconStyle>
            <color>00000000</color>
            <scale>1</scale>
        </IconStyle>
        <LabelStyle>
            <color>ffeeee00</color>
            <scale>0.8</scale>
        </LabelStyle>
        <LineStyle>
            <color>66eeee00</color>
	    <width>0.4</width>
	</LineStyle>
	<PolyStyle>
	    <color>66eeee00</color>
	</PolyStyle>
        <BalloonStyle>
            <text>
                <![CDATA[ <table border=0 width="300"><tr><td style="font-size:10pt;">
                During this forecast period, there is a <b>70-80%</b> probability of snowfall exceeding the depicted amount in the enclosed area.
                <br/><br/>
                *<span style="font-size:8pt;">Note that in cases where this contour is embedded within a 80% contour, 
                the probability of snowfall exceeding the depicted amount is &lt;70%.</span>
                </td></tr></table>]]>
            </text>
        </BalloonStyle>
    </Style>

    <Style id="poly_80">
        <IconStyle>
            <color>00000000</color>
            <scale>1</scale>
        </IconStyle>
        <LabelStyle>
            <color>ff4782ff</color>
            <scale>0.8</scale>
        </LabelStyle>
        <LineStyle>
            <color>664782ff</color>
	    <width>0.4</width>
	</LineStyle>
	<PolyStyle>
	    <color>664782ff</color>
	</PolyStyle>
        <BalloonStyle>
            <text>
                <![CDATA[ <table border=0 width="300"><tr><td style="font-size:10pt;">
                During this forecast period, there is a <b>80-90%</b> probability of snowfall exceeding the depicted amount in the enclosed area.
                <br/><br/>
                *<span style="font-size:8pt;">Note that in cases where this contour is embedded within a 90% contour, 
                the probability of snowfall exceeding the depicted amount is &lt;80%.</span>
                </td></tr></table>]]>
            </text>
        </BalloonStyle>
    </Style>

    <Style id="poly_90">
        <IconStyle>
            <color>00000000</color>
            <scale>1</scale>
        </IconStyle>
        <LabelStyle>
            <color>ff2c2cee</color>
            <scale>0.8</scale>
        </LabelStyle>
        <LineStyle>
            <color>662c2cee</color>
            <width>0.4</width>
        </LineStyle>
        <PolyStyle>
            <color>662c2cee</color>
        </PolyStyle>
        <BalloonStyle>
            <text>
                <![CDATA[ <table border=0 width="300"><tr><td style="font-size:10pt;">
                During this forecast period, there is a <b>90-95%</b> probability of snowfall exceeding the depicted amount in the enclosed area.
                <br/><br/>
                *<span style="font-size:8pt;">Note that in cases where this contour is embedded within a 95% contour, 
                the probability of snowfall exceeding the depicted amount is &lt;90%.</span>
                </td></tr></table>]]>
            </text>
        </BalloonStyle>
    </Style>

    <Style id="poly_95">
        <IconStyle>
            <color>00000000</color>
            <scale>1</scale>
        </IconStyle>
        <LabelStyle>
            <color>ff00008b</color>
            <scale>0.8</scale>
        </LabelStyle>
        <LineStyle>
            <color>6600008b</color>
	    <width>0.4</width>
	</LineStyle>
	<PolyStyle>
	    <color>6600008b</color>
	</PolyStyle>
        <BalloonStyle>
            <text>
                <![CDATA[ <table border=0 width="300"><tr><td style="font-size:10pt;">
                The probability of snowfall exceeding the depicted amount is <b>&ge;95%</b> in the enclosed area during this forecast period.
                </td></tr></table>]]>
            </text>
        </BalloonStyle>
    </Style>

  <ScreenOverlay>
    <name>Logos</name>
    <description></description>
    <Icon>
      <href>https://www.wpc.ncep.noaa.gov/images/noaa_and_nws_logo.png</href>
    </Icon>
   <overlayXY x=".01" y=".01" xunits="fraction" yunits="fraction" />
   <screenXY x=".01" y=".01" xunits="fraction" yunits="fraction" />
   <rotationXY x="0" y="0" xunits="fraction" yunits="fraction" />
   <size x="-1" y="-1" xunits="fraction" yunits="fraction" />
  </ScreenOverlay>
    <Folder>
      <name>Snow Probabilities</name>
      <open>0</open>
<Placemark>
  <name>1%</name>
  <visibility>1</visibility>
  <styleUrl>#poly_1</styleUrl>
  <MultiGeometry>
    <Polygon>
      <outerBoundaryIs>
        <LinearRing>
          <coordinates>
-114.73,46.51,0 -114.68,46.53,0 -114.63,46.54,0 -114.59,46.55,0 -114.54,46.56,0 -114.49,46.57,0 -114.44,46.57,0 -114.39,46.57,0 -114.33,46.57,0 -114.28,46.56,0 -114.24,46.55,0 -114.20,46.54,0 -114.16,46.52,0 -114.13,46.50,0 -114.10,46.48,0 -114.08,46.45,0 -114.05,46.42,0 -114.03,46.39,0 -114.01,46.35,0 -113.99,46.32,0 -113.98,46.29,0 -113.97,46.25,0 -113.96,46.22,0 -113.95,46.18,0 -113.94,46.15,0 -113.93,46.12,0 -113.92,46.08,0 -113.91,46.05,0 -113.91,46.01,0 -113.90,45.98,0 -113.89,45.95,0 -113.89,45.91,0 -113.88,45.88,0 -113.88,45.84,0 -113.89,45.81,0 -113.91,45.78,0 -113.93,45.75,0 -113.96,45.73,0 -113.99,45.70,0 -114.03,45.68,0 -114.06,45.66,0 -114.10,45.64,0 -114.15,45.63,0 -114.19,45.63,0 -114.24,45.62,0 -114.29,45.62,0 -114.34,45.61,0 -114.39,45.61,0 -114.44,45.60,0 -114.49,45.60,0 -114.54,45.61,0 -114.58,45.62,0 -114.62,45.64,0 -114.66,45.66,0 -114.70,45.68,0 -114.73,45.71,0 -114.76,45.73,0 -114.78,45.76,0 -114.80,45.79,0 -114.81,45.82,0 -114.81,45.86,0 -114.82,45.89,0 -114.83,45.92,0 -114.84,45.96,0 -114.85,45.99,0 -114.85,46.03,0 -114.86,46.06,0 -114.87,46.09,0 -114.88,46.13,0 -114.88,46.16,0 -114.89,46.20,0 -114.89,46.23,0 -114.89,46.26,0 -114.89,46.30,0 -114.88,46.33,0 -114.88,46.37,0 -114.87,46.40,0 -114.73,46.51,0 
          </coordinates>
        </LinearRing>
      </outerBoundaryIs>
      <innerBoundaryIs>
        <LinearRing>
          <coordinates>
-114.46,46.42,1000 -114.42,46.40,1000 -114.38,46.38,1000 -114.34,46.37,1000 -114.31,46.35,1000 -114.27,46.33,1000 -114.24,46.32,1000 -114.22,46.31,1000 -114.20,46.30,1000 -114.19,46.29,1000 -114.18,46.28,1000 -114.16,46.26,1000 -114.14,46.24,1000 -114.12,46.21,1000 -114.10,46.19,1000 -114.08,46.16,1000 -114.06,46.14,1000 -114.05,46.12,1000 -114.03,46.09,1000 -114.02,46.07,1000 -114.01,46.04,1000 -114.00,46.02,1000 -114.00,45.99,1000 -114.00,45.97,1000 -114.01,45.94,1000 -114.02,45.92,1000 -114.03,45.89,1000 -114.05,45.86,1000 -114.07,45.84,1000 -114.08,45.82,1000 -114.09,45.80,1000 -114.10,45.79,1000 -114.12,45.78,1000 -114.14,45.76,1000 -114.17,45.75,1000 -114.21,45.73,1000 -114.24,45.71,1000 -114.28,45.70,1000 -114.31,45.69,1000 -114.34,45.69,1000 -114.38,45.70,1000 -114.42,45.71,1000 -114.46,45.72,1000 -114.50,45.73,1000 -114.53,45.74,1000 -114.55,45.75,1000 -114.57,45.75,1000 -114.59,45.76,1000 -114.61,45.78,1000 -114.63,45.80,1000 -114.66,45.83,1000 -114.68,45.85,1000 -114.70,45.88,1000 -114.72,45.90,1000 -114.73,45.92,1000 -114.74,45.95,1000 -114.74,45.97,1000 -114.74,46.00,1000 -114.74,46.02,1000 -114.74,46.05,1000 -114.74,46.07,1000 -114.74,46.10,1000 -114.73,46.12,1000 -114.72,46.15,1000 -114.71,46.17,1000 -114.70,46.20,1000 -114.68,46.22,1000 -114.67,46.25,1000 -114.46,46.42,1000 
          </coordinates>
        </LinearRing>
      </innerBoundaryIs>
  </Polygon>
 </MultiGeometry>
</Placemark>
<Placemark>
  <name>1%</name>
  <visibility>1</visibility>
  <styleUrl>#poly_1</styleUrl>
  <MultiGeometry>
    <Polygon>
      <outerBoundaryIs>
        <LinearRing>
          <coordinates>
-110.61,45.61,0 -110.51,45.63,0 -110.41,45.65,0 -110.32,45.66,0 -110.25,45.67,0 -110.18,45.66,0 -110.10,45.63,0 -110.02,45.61,0 -109.92,45.58,0 -109.81,45.55,0 -109.70,45.52,0 -109.61,45.49,0 -109.52,45.46,0 -109.44,45.44,0 -109.36,45.41,0 -109.30,45.38,0 -109.22,45.33,0 -109.16,45.26,0 -109.12,45.19,0 -109.10,45.13,0 -109.09,45.06,0 -109.09,44.99,0 -109.10,44.93,0 -109.12,44.88,0 -109.16,44.83,0 -109.20,44.77,0 -109.25,44.72,0 -109.30,44.66,0 -109.37,44.59,0 -109.42,44.52,0 -109.46,44.46,0 -109.47,44.39,0 -109.46,44.33,0 -109.44,44.27,0 -109.40,44.23,0 -109.35,44.19,0 -109.31,44.14,0 -109.30,44.08,0 -109.29,44.01,0 -109.29,43.94,0 -109.29,43.88,0 -109.30,43.82,0 -109.36,43.78,0 -109.43,43.74,0 -109.51,43.70,0 -109.61,43.66,0 -109.70,43.64,0 -109.79,43.64,0 -109.89,43.64,0 -109.98,43.66,0 -110.06,43.68,0 -110.13,43.72,0 -110.17,43.76,0 -110.21,43.82,0 -110.24,43.87,0 -110.27,43.92,0 -110.29,43.98,0 -110.31,44.06,0 -110.32,44.12,0 -110.32,44.20,0 -110.32,44.28,0 -110.32,44.36,0 -110.33,44.44,0 -110.33,44.52,0 -110.33,44.58,0 -110.34,44.67,0 -110.34,44.73,0 -110.35,44.79,0 -110.37,44.84,0 -110.41,44.89,0 -110.46,44.93,0 -110.51,44.97,0 -110.57,45.03,0 -110.63,45.09,0 -110.68,45.16,0 -110.70,45.22,0 -110.72,45.28,0 -110.72,45.34,0 -110.73,45.41,0 -110.61,45.61,0 
          </coordinates>
        </LinearRing>
      </outerBoundaryIs>
      <innerBoundaryIs>
        <LinearRing>
          <coordinates>
-110.35,45.54,1000 -110.31,45.54,1000 -110.27,45.55,1000 -110.23,45.55,1000 -110.19,45.55,1000 -110.15,45.55,1000 -110.11,45.55,1000 -110.07,45.54,1000 -110.03,45.53,1000 -109.99,45.52,1000 -109.96,45.50,1000 -109.93,45.49,1000 -109.90,45.48,1000 -109.88,45.47,1000 -109.85,45.47,1000 -109.82,45.46,1000 -109.78,45.45,1000 -109.73,45.44,1000 -109.68,45.43,1000 -109.64,45.42,1000 -109.60,45.41,1000 -109.55,45.39,1000 -109.52,45.38,1000 -109.48,45.36,1000 -109.45,45.34,1000 -109.42,45.32,1000 -109.40,45.30,1000 -109.37,45.27,1000 -109.35,45.25,1000 -109.33,45.23,1000 -109.31,45.21,1000 -109.29,45.20,1000 -109.27,45.18,1000 -109.26,45.16,1000 -109.25,45.13,1000 -109.23,45.10,1000 -109.22,45.07,1000 -109.21,45.04,1000 -109.21,45.01,1000 -109.22,44.98,1000 -109.24,44.95,1000 -109.26,44.92,1000 -109.28,44.90,1000 -109.30,44.88,1000 -109.33,44.86,1000 -109.35,44.85,1000 -109.38,44.83,1000 -109.41,44.81,1000 -109.43,44.79,1000 -109.46,44.77,1000 -109.50,44.75,1000 -109.53,44.74,1000 -109.57,44.72,1000 -109.62,44.71,1000 -109.66,44.70,1000 -109.70,44.69,1000 -109.73,44.69,1000 -109.76,44.70,1000 -109.78,44.73,1000 -109.80,44.76,1000 -109.83,44.79,1000 -109.86,44.80,1000 -109.89,44.82,1000 -109.93,44.83,1000 -109.97,44.84,1000 -110.00,44.85,1000 -110.04,44.87,1000 -110.07,44.89,1000 -110.10,44.92,1000 -110.13,44.94,1000 -110.16,44.96,1000 -110.19,44.98,1000 -110.22,45.00,1000 -110.24,45.01,1000 -110.27,45.03,1000 -110.30,45.05,1000 -110.33,45.06,1000 -110.35,45.08,1000 -110.38,45.10,1000 -110.40,45.12,1000 -110.42,45.15,1000 -110.44,45.17,1000 -110.46,45.20,1000 -110.48,45.23,1000 -110.49,45.26,1000 -110.50,45.29,1000 -110.50,45.32,1000 -110.50,45.34,1000 -110.50,45.37,1000 -110.49,45.40,1000 -110.49,45.43,1000 -110.35,45.54,1000 
          </coordinates>
        </LinearRing>
      </innerBoundaryIs>
      <innerBoundaryIs>
        <LinearRing>
          <coordinates>
-109.93,44.42,1000 -109.91,44.40,1000 -109.89,44.38,1000 -109.86,44.37,1000 -109.84,44.35,1000 -109.82,44.33,1000 -109.80,44.32,1000 -109.78,44.30,1000 -109.77,44.29,1000 -109.75,44.28,1000 -109.72,44.26,1000 -109.70,44.25,1000 -109.68,44.24,1000 -109.66,44.23,1000 -109.64,44.22,1000 -109.63,44.20,1000 -109.61,44.18,1000 -109.60,44.16,1000 -109.58,44.14,1000 -109.57,44.12,1000 -109.56,44.10,1000 -109.55,44.08,1000 -109.54,44.06,1000 -109.53,44.04,1000 -109.52,44.02,1000 -109.51,44.00,1000 -109.51,43.98,1000 -109.51,43.96,1000 -109.52,43.94,1000 -109.53,43.91,1000 -109.54,43.89,1000 -109.56,43.87,1000 -109.58,43.86,1000 -109.61,43.84,1000 -109.63,43.83,1000 -109.66,43.82,1000 -109.69,43.81,1000 -109.72,43.80,1000 -109.75,43.79,1000 -109.78,43.79,1000 -109.81,43.79,1000 -109.84,43.79,1000 -109.87,43.80,1000 -109.90,43.81,1000 -109.92,43.82,1000 -109.95,43.84,1000 -109.98,43.85,1000 -110.00,43.87,1000 -110.02,43.89,1000 -110.04,43.91,1000 -110.06,43.93,1000 -110.07,43.95,1000 -110.08,43.97,1000 -110.09,43.99,1000 -110.09,44.01,1000 -110.10,44.04,1000 -110.10,44.06,1000 -110.10,44.08,1000 -110.10,44.10,1000 -110.09,44.12,1000 -110.09,44.15,1000 -110.08,44.17,1000 -110.07,44.19,1000 -110.06,44.21,1000 -110.05,44.24,1000 -110.04,44.26,1000 -109.93,44.42,1000 
          </coordinates>
        </LinearRing>
      </innerBoundaryIs>
  </Polygon>
 </MultiGeometry>
</Placemark>
<Placemark>
  <name>1%</name>
  <visibility>1</visibility>
  <styleUrl>#poly_1</styleUrl>
  <MultiGeometry>
    <Polygon>
      <outerBoundaryIs>
        <LinearRing>
          <coordinates>
-108.10,45.14,0 -108.06,45.16,0 -108.01,45.18,0 -107.96,45.20,0 -107.92,45.21,0 -107.87,45.22,0 -107.82,45.22,0 -107.76,45.21,0 -107.71,45.20,0 -107.66,45.19,0 -107.62,45.18,0 -107.57,45.16,0 -107.54,45.13,0 -107.51,45.11,0 -107.48,45.07,0 -107.45,45.04,0 -107.42,45.00,0 -107.40,44.97,0 -107.39,44.93,0 -107.38,44.90,0 -107.38,44.86,0 -107.38,44.83,0 -107.37,44.80,0 -107.36,44.78,0 -107.32,44.77,0 -107.28,44.77,0 -107.23,44.76,0 -107.18,44.76,0 -107.13,44.76,0 -107.08,44.75,0 -107.03,44.73,0 -106.98,44.71,0 -106.94,44.69,0 -106.91,44.66,0 -106.89,44.63,0 -106.87,44.60,0 -106.86,44.56,0 -106.85,44.53,0 -106.84,44.49,0 -106.83,44.45,0 -106.83,44.40,0 -106.83,44.36,0 -106.84,44.32,0 -106.86,44.28,0 -106.89,44.25,0 -106.93,44.21,0 -106.97,44.18,0 -107.00,44.15,0 -107.04,44.13,0 -107.08,44.13,0 -107.12,44.12,0 -107.16,44.10,0 -107.19,44.09,0 -107.23,44.08,0 -107.27,44.09,0 -107.31,44.10,0 -107.35,44.11,0 -107.39,44.11,0 -107.43,44.11,0 -107.48,44.12,0 -107.52,44.14,0 -107.56,44.17,0 -107.61,44.20,0 -107.65,44.23,0 -107.68,44.26,0 -107.70,44.29,0 -107.71,44.33,0 -107.71,44.37,0 -107.71,44.40,0 -107.72,44.43,0 -107.73,44.46,0 -107.77,44.47,0 -107.81,44.48,0 -107.86,44.48,0 -107.91,44.49,0 -107.97,44.50,0 -108.01,44.51,0 -108.06,44.53,0 -108.09,44.55,0 -108.12,44.58,0 -108.14,44.61,0 -108.17,44.64,0 -108.20,44.67,0 -108.22,44.71,0 -108.24,44.74,0 -108.25,44.78,0 -108.26,44.82,0 -108.27,44.87,0 -108.26,44.91,0 -108.25,44.95,0 -108.23,44.98,0 -108.21,45.02,0 -108.19,45.05,0 -108.16,45.09,0 -108.10,45.14,0 
          </coordinates>
        </LinearRing>
      </outerBoundaryIs>
      <innerBoundaryIs>
        <LinearRing>
          <coordinates>
-107.31,44.64,1000 -107.31,44.64,1000 -107.29,44.64,1000 -107.26,44.63,1000 -107.25,44.62,1000 -107.23,44.62,1000 -107.21,44.61,1000 -107.20,44.60,1000 -107.18,44.59,1000 -107.15,44.58,1000 -107.13,44.57,1000 -107.11,44.56,1000 -107.09,44.55,1000 -107.08,44.54,1000 -107.06,44.54,1000 -107.05,44.53,1000 -107.02,44.52,1000 -107.01,44.50,1000 -107.00,44.49,1000 -107.00,44.48,1000 -107.00,44.47,1000 -107.00,44.45,1000 -107.01,44.44,1000 -107.01,44.42,1000 -107.02,44.41,1000 -107.02,44.39,1000 -107.03,44.38,1000 -107.04,44.37,1000 -107.04,44.35,1000 -107.05,44.34,1000 -107.05,44.33,1000 -107.06,44.31,1000 -107.08,44.30,1000 -107.09,44.29,1000 -107.11,44.28,1000 -107.12,44.27,1000 -107.14,44.26,1000 -107.16,44.25,1000 -107.18,44.23,1000 -107.19,44.23,1000 -107.21,44.22,1000 -107.23,44.21,1000 -107.25,44.21,1000 -107.27,44.21,1000 -107.29,44.21,1000 -107.31,44.22,1000 -107.33,44.23,1000 -107.35,44.23,1000 -107.36,44.24,1000 -107.38,44.25,1000 -107.40,44.26,1000 -107.42,44.27,1000 -107.43,44.28,1000 -107.45,44.29,1000 -107.46,44.30,1000 -107.47,44.31,1000 -107.48,44.33,1000 -107.49,44.34,1000 -107.50,44.35,1000 -107.51,44.36,1000 -107.52,44.37,1000 -107.53,44.38,1000 -107.54,44.40,1000 -107.55,44.41,1000 -107.56,44.42,1000 -107.56,44.44,1000 -107.56,44.45,1000 -107.56,44.47,1000 -107.56,44.48,1000 -107.56,44.50,1000 -107.56,44.51,1000 -107.56,44.53,1000 -107.55,44.55,1000 -107.55,44.56,1000 -107.54,44.57,1000 -107.53,44.58,1000 -107.51,44.59,1000 -107.49,44.60,1000 -107.47,44.61,1000 -107.45,44.61,1000 -107.43,44.62,1000 -107.31,44.64,1000 
          </coordinates>
        </LinearRing>
      </innerBoundaryIs>
      <innerBoundaryIs>
        <LinearRing>
          <coordinates>
-107.84,45.05,1000 -107.82,45.04,1000 -107.80,45.04,1000 -107.78,45.03,1000 -107.76,45.02,1000 -107.74,45.02,1000 -107.72,45.01,1000 -107.70,45.00,1000 -107.68,45.00,1000 -107.66,44.99,1000 -107.65,44.98,1000 -107.63,44.97,1000 -107.62,44.96,1000 -107.61,44.95,1000 -107.60,44.94,1000 -107.59,44.93,1000 -107.58,44.91,1000 -107.57,44.90,1000 -107.57,44.88,1000 -107.56,44.87,1000 -107.56,44.85,1000 -107.56,44.84,1000 -107.56,44.82,1000 -107.56,44.81,1000 -107.56,44.79,1000 -107.57,44.78,1000 -107.58,44.77,1000 -107.59,44.76,1000 -107.60,44.74,1000 -107.61,44.73,1000 -107.63,44.72,1000 -107.64,44.70,1000 -107.66,44.69,1000 -107.68,44.68,1000 -107.70,44.67,1000 -107.72,44.66,1000 -107.74,44.65,1000 -107.75,44.65,1000 -107.77,44.64,1000 -107.79,44.64,1000 -107.81,44.64,1000 -107.83,44.64,1000 -107.85,44.65,1000 -107.87,44.65,1000 -107.89,44.66,1000 -107.91,44.67,1000 -107.93,44.68,1000 -107.95,44.69,1000 -107.97,44.70,1000 -107.99,44.71,1000 -108.00,44.72,1000 -108.02,44.73,1000 -108.03,44.74,1000 -108.04,44.75,1000 -108.05,44.76,1000 -108.06,44.77,1000 -108.06,44.79,1000 -108.07,44.80,1000 -108.07,44.82,1000 -108.07,44.83,1000 -108.07,44.84,1000 -108.06,44.86,1000 -108.06,44.87,1000 -108.06,44.89,1000 -108.05,44.90,1000 -108.05,44.92,1000 -107.84,45.05,1000 
          </coordinates>
        </LinearRing>
      </innerBoundaryIs>
  </Polygon>
 </MultiGeometry>
</Placemark>
<Placemark>
  <name>1%</name>
  <visibility>1</visibility>
  <styleUrl>#poly_1</styleUrl>
  <MultiGeometry>
    <Polygon>
      <outerBoundaryIs>
        <LinearRing>
          <coordinates>
-114.23,47.69,0 -114.20,47.71,0 -114.17,47.72,0 -114.13,47.74,0 -114.10,47.75,0 -114.07,47.77,0 -114.03,47.77,0 -114.00,47.78,0 -113.96,47.78,0 -113.92,47.78,0 -113.88,47.77,0 -113.84,47.76,0 -113.80,47.75,0 -113.77,47.75,0 -113.74,47.74,0 -113.71,47.73,0 -113.68,47.71,0 -113.66,47.70,0 -113.64,47.68,0 -113.61,47.66,0 -113.58,47.64,0 -113.55,47.62,0 -113.52,47.60,0 -113.50,47.58,0 -113.48,47.56,0 -113.47,47.54,0 -113.46,47.51,0 -113.45,47.49,0 -113.45,47.46,0 -113.44,47.44,0 -113.44,47.41,0 -113.44,47.39,0 -113.44,47.37,0 -113.43,47.34,0 -113.43,47.32,0 -113.43,47.29,0 -113.43,47.27,0 -113.43,47.24,0 -113.44,47.22,0 -113.45,47.20,0 -113.47,47.18,0 -113.49,47.15,0 -113.52,47.13,0 -113.54,47.11,0 -113.57,47.10,0 -113.60,47.08,0 -113.63,47.07,0 -113.66,47.06,0 -113.70,47.05,0 -113.73,47.04,0 -113.77,47.04,0 -113.80,47.03,0 -113.84,47.03,0 -113.88,47.03,0 -113.91,47.02,0 -113.95,47.02,0 -113.98,47.02,0 -114.02,47.02,0 -114.06,47.02,0 -114.09,47.03,0 -114.12,47.04,0 -114.16,47.05,0 -114.19,47.07,0 -114.23,47.08,0 -114.26,47.10,0 -114.29,47.12,0 -114.31,47.14,0 -114.33,47.16,0 -114.34,47.19,0 -114.35,47.22,0 -114.36,47.24,0 -114.36,47.27,0 -114.37,47.30,0 -114.38,47.32,0 -114.39,47.35,0 -114.39,47.37,0 -114.40,47.40,0 -114.40,47.42,0 -114.40,47.45,0 -114.40,47.47,0 -114.39,47.49,0 -114.38,47.51,0 -114.37,47.54,0 -114.35,47.56,0 -114.33,47.58,0 -114.31,47.60,0 -114.29,47.63,0 -114.27,47.65,0 -114.23,47.69,0 
          </coordinates>
        </LinearRing>
      </outerBoundaryIs>
      <innerBoundaryIs>
        <LinearRing>
          <coordinates>
-114.20,47.55,1000 -114.18,47.56,1000 -114.16,47.57,1000 -114.13,47.59,1000 -114.11,47.60,1000 -114.09,47.61,1000 -114.06,47.62,1000 -114.04,47.63,1000 -114.02,47.63,1000 -113.99,47.64,1000 -113.97,47.64,1000 -113.94,47.64,1000 -113.92,47.64,1000 -113.89,47.64,1000 -113.86,47.63,1000 -113.83,47.62,1000 -113.80,47.62,1000 -113.78,47.61,1000 -113.75,47.60,1000 -113.73,47.60,1000 -113.71,47.59,1000 -113.68,47.58,1000 -113.66,47.57,1000 -113.65,47.56,1000 -113.63,47.54,1000 -113.62,47.53,1000 -113.61,47.51,1000 -113.59,47.49,1000 -113.58,47.48,1000 -113.57,47.46,1000 -113.56,47.44,1000 -113.55,47.42,1000 -113.54,47.40,1000 -113.54,47.38,1000 -113.54,47.36,1000 -113.55,47.34,1000 -113.56,47.32,1000 -113.57,47.30,1000 -113.58,47.28,1000 -113.60,47.26,1000 -113.61,47.25,1000 -113.62,47.23,1000 -113.63,47.22,1000 -113.64,47.21,1000 -113.66,47.20,1000 -113.67,47.19,1000 -113.69,47.18,1000 -113.71,47.17,1000 -113.74,47.16,1000 -113.76,47.14,1000 -113.79,47.13,1000 -113.81,47.12,1000 -113.84,47.11,1000 -113.86,47.11,1000 -113.89,47.11,1000 -113.92,47.11,1000 -113.95,47.12,1000 -113.98,47.13,1000 -114.01,47.14,1000 -114.04,47.15,1000 -114.06,47.15,1000 -114.08,47.16,1000 -114.10,47.16,1000 -114.12,47.18,1000 -114.13,47.19,1000 -114.15,47.20,1000 -114.17,47.21,1000 -114.19,47.23,1000 -114.21,47.24,1000 -114.23,47.26,1000 -114.25,47.28,1000 -114.26,47.29,1000 -114.27,47.31,1000 -114.28,47.33,1000 -114.28,47.34,1000 -114.28,47.36,1000 -114.28,47.38,1000 -114.27,47.40,1000 -114.27,47.42,1000 -114.26,47.44,1000 -114.26,47.46,1000 -114.25,47.48,1000 -114.20,47.55,1000 
          </coordinates>
        </LinearRing>
      </innerBoundaryIs>
  </Polygon>
 </MultiGeometry>
</Placemark>
<Placemark>
  <name>1%</name>
  <visibility>1</visibility>
  <styleUrl>#poly_1</styleUrl>
  <MultiGeometry>
    <Polygon>
      <outerBoundaryIs>
        <LinearRing>
          <coordinates>
-115.93,51.73,0 -115.89,51.72,0 -115.85,51.72,0 -115.82,51.71,0 -115.78,51.70,0 -115.75,51.69,0 -115.72,51.69,0 -115.70,51.68,0 -115.68,51.68,0 -115.66,51.67,0 -115.64,51.66,0 -115.62,51.65,0 -115.60,51.64,0 -115.57,51.63,0 -115.55,51.62,0 -115.52,51.60,0 -115.49,51.59,0 -115.46,51.58,0 -115.44,51.56,0 -115.42,51.55,0 -115.40,51.54,0 -115.38,51.52,0 -115.36,51.50,0 -115.36,51.49,0 -115.35,51.47,0 -115.34,51.46,0 -115.32,51.45,0 -115.30,51.43,0 -115.27,51.42,0 -115.25,51.40,0 -115.24,51.39,0 -115.24,51.37,0 -115.25,51.36,0 -115.26,51.34,0 -115.28,51.33,0 -115.30,51.31,0 -115.32,51.30,0 -115.34,51.28,0 -115.36,51.27,0 -115.38,51.26,0 -115.41,51.24,0 -115.43,51.23,0 -115.45,51.22,0 -115.47,51.21,0 -115.50,51.19,0 -115.52,51.18,0 -115.54,51.18,0 -115.57,51.18,0 -115.60,51.18,0 -115.63,51.19,0 -115.66,51.19,0 -115.68,51.19,0 -115.71,51.18,0 -115.73,51.18,0 -115.76,51.18,0 -115.80,51.18,0 -115.82,51.18,0 -115.85,51.19,0 -115.88,51.20,0 -115.91,51.20,0 -115.94,51.21,0 -115.97,51.22,0 -116.01,51.23,0 -116.03,51.24,0 -116.06,51.24,0 -116.08,51.25,0 -116.12,51.26,0 -116.14,51.27,0 -116.15,51.28,0 -116.17,51.30,0 -116.18,51.31,0 -116.20,51.33,0 -116.21,51.35,0 -116.22,51.36,0 -116.24,51.38,0 -116.25,51.40,0 -116.26,51.42,0 -116.27,51.44,0 -116.27,51.46,0 -116.27,51.48,0 -116.26,51.50,0 -116.25,51.52,0 -116.23,51.54,0 -116.22,51.56,0 -116.20,51.58,0 -116.19,51.59,0 -116.18,51.61,0 -116.17,51.62,0 -116.15,51.63,0 -115.93,51.73,0 
          </coordinates>
        </LinearRing>
      </outerBoundaryIs>
  </Polygon>
 </MultiGeometry>
</Placemark>
<Placemark>
  <name>5%</name>
  <visibility>1</visibility>
  <styleUrl>#poly_5</styleUrl>
  <MultiGeometry>
    <Polygon>
      <outerBoundaryIs>
        <LinearRing>
          <coordinates>
-110.35,45.54,1000 -110.31,45.54,1000 -110.27,45.55,1000 -110.23,45.55,1000 -110.19,45.55,1000 -110.15,45.55,1000 -110.11,45.55,1000 -110.07,45.54,1000 -110.03,45.53,1000 -109.99,45.52,1000 -109.96,45.50,1000 -109.93,45.49,1000 -109.90,45.48,1000 -109.88,45.47,1000 -109.85,45.47,1000 -109.82,45.46,1000 -109.78,45.45,1000 -109.73,45.44,1000 -109.68,45.43,1000 -109.64,45.42,1000 -109.60,45.41,1000 -109.55,45.39,1000 -109.52,45.38,1000 -109.48,45.36,1000 -109.45,45.34,1000 -109.42,45.32,1000 -109.40,45.30,1000 -109.37,45.27,1000 -109.35,45.25,1000 -109.33,45.23,1000 -109.31,45.21,1000 -109.29,45.20,1000 -109.27,45.18,1000 -109.26,45.16,1000 -109.25,45.13,1000 -109.23,45.10,1000 -109.22,45.07,1000 -109.21,45.04,1000 -109.21,45.01,1000 -109.22,44.98,1000 -109.24,44.95,1000 -109.26,44.92,1000 -109.28,44.90,1000 -109.30,44.88,1000 -109.33,44.86,1000 -109.35,44.85,1000 -109.38,44.83,1000 -109.41,44.81,1000 -109.43,44.79,1000 -109.46,44.77,1000 -109.50,44.75,1000 -109.53,44.74,1000 -109.57,44.72,1000 -109.62,44.71,1000 -109.66,44.70,1000 -109.70,44.69,1000 -109.73,44.69,1000 -109.76,44.70,1000 -109.78,44.73,1000 -109.80,44.76,1000 -109.83,44.79,1000 -109.86,44.80,1000 -109.89,44.82,1000 -109.93,44.83,1000 -109.97,44.84,1000 -110.00,44.85,1000 -110.04,44.87,1000 -110.07,44.89,1000 -110.10,44.92,1000 -110.13,44.94,1000 -110.16,44.96,1000 -110.19,44.98,1000 -110.22,45.00,1000 -110.24,45.01,1000 -110.27,45.03,1000 -110.30,45.05,1000 -110.33,45.06,1000 -110.35,45.08,1000 -110.38,45.10,1000 -110.40,45.12,1000 -110.42,45.15,1000 -110.44,45.17,1000 -110.46,45.20,1000 -110.48,45.23,1000 -110.49,45.26,1000 -110.50,45.29,1000 -110.50,45.32,1000 -110.50,45.34,1000 -110.50,45.37,1000 -110.49,45.40,1000 -110.49,45.43,1000 -110.35,45.54,1000 
          </coordinates>
        </LinearRing>
      </outerBoundaryIs>
      <innerBoundaryIs>
        <LinearRing>
          <coordinates>
-110.33,45.36,2000 -110.31,45.37,2000 -110.28,45.39,2000 -110.25,45.40,2000 -110.23,45.41,2000 -110.20,45.42,2000 -110.18,45.43,2000 -110.15,45.44,2000 -110.13,45.45,2000 -110.10,45.45,2000 -110.07,45.45,2000 -110.04,45.45,2000 -110.01,45.45,2000 -109.98,45.45,2000 -109.94,45.44,2000 -109.91,45.43,2000 -109.88,45.43,2000 -109.85,45.42,2000 -109.82,45.41,2000 -109.79,45.40,2000 -109.76,45.39,2000 -109.73,45.38,2000 -109.70,45.37,2000 -109.67,45.36,2000 -109.65,45.35,2000 -109.63,45.34,2000 -109.61,45.33,2000 -109.59,45.32,2000 -109.58,45.31,2000 -109.56,45.30,2000 -109.53,45.29,2000 -109.51,45.27,2000 -109.48,45.26,2000 -109.45,45.24,2000 -109.43,45.22,2000 -109.41,45.20,2000 -109.39,45.19,2000 -109.37,45.17,2000 -109.35,45.15,2000 -109.34,45.13,2000 -109.33,45.11,2000 -109.32,45.08,2000 -109.32,45.06,2000 -109.32,45.04,2000 -109.32,45.02,2000 -109.33,45.00,2000 -109.34,44.98,2000 -109.36,44.96,2000 -109.37,44.94,2000 -109.40,44.92,2000 -109.42,44.91,2000 -109.44,44.89,2000 -109.47,44.87,2000 -109.50,44.86,2000 -109.52,44.85,2000 -109.55,44.84,2000 -109.58,44.84,2000 -109.61,44.83,2000 -109.64,44.83,2000 -109.67,44.84,2000 -109.70,44.84,2000 -109.73,44.84,2000 -109.76,44.85,2000 -109.79,44.86,2000 -109.82,44.87,2000 -109.84,44.89,2000 -109.87,44.90,2000 -109.90,44.92,2000 -109.92,44.94,2000 -109.94,44.95,2000 -109.96,44.96,2000 -109.98,44.97,2000 -109.99,44.98,2000 -110.02,44.99,2000 -110.04,45.00,2000 -110.06,45.01,2000 -110.08,45.02,2000 -110.11,45.04,2000 -110.14,45.05,2000 -110.16,45.07,2000 -110.19,45.08,2000 -110.21,45.10,2000 -110.23,45.11,2000 -110.25,45.13,2000 -110.27,45.15,2000 -110.28,45.17,2000 -110.29,45.19,2000 -110.30,45.21,2000 -110.32,45.23,2000 -110.33,45.24,2000 -110.35,45.26,2000 -110.36,45.27,2000 -110.33,45.36,2000 
          </coordinates>
        </LinearRing>
      </innerBoundaryIs>
  </Polygon>
 </MultiGeometry>
</Placemark>
<Placemark>
  <name>5%</name>
  <visibility>1</visibility>
  <styleUrl>#poly_5</styleUrl>
  <MultiGeometry>
    <Polygon>
      <outerBoundaryIs>
        <LinearRing>
          <coordinates>
-107.31,44.64,1000 -107.31,44.64,1000 -107.29,44.64,1000 -107.26,44.63,1000 -107.25,44.62,1000 -107.23,44.62,1000 -107.21,44.61,1000 -107.20,44.60,1000 -107.18,44.59,1000 -107.15,44.58,1000 -107.13,44.57,1000 -107.11,44.56,1000 -107.09,44.55,1000 -107.08,44.54,1000 -107.06,44.54,1000 -107.05,44.53,1000 -107.02,44.52,1000 -107.01,44.50,1000 -107.00,44.49,1000 -107.00,44.48,1000 -107.00,44.47,1000 -107.00,44.45,1000 -107.01,44.44,1000 -107.01,44.42,1000 -107.02,44.41,1000 -107.02,44.39,1000 -107.03,44.38,1000 -107.04,44.37,1000 -107.04,44.35,1000 -107.05,44.34,1000 -107.05,44.33,1000 -107.06,44.31,1000 -107.08,44.30,1000 -107.09,44.29,1000 -107.11,44.28,1000 -107.12,44.27,1000 -107.14,44.26,1000 -107.16,44.25,1000 -107.18,44.23,1000 -107.19,44.23,1000 -107.21,44.22,1000 -107.23,44.21,1000 -107.25,44.21,1000 -107.27,44.21,1000 -107.29,44.21,1000 -107.31,44.22,1000 -107.33,44.23,1000 -107.35,44.23,1000 -107.36,44.24,1000 -107.38,44.25,1000 -107.40,44.26,1000 -107.42,44.27,1000 -107.43,44.28,1000 -107.45,44.29,1000 -107.46,44.30,1000 -107.47,44.31,1000 -107.48,44.33,1000 -107.49,44.34,1000 -107.50,44.35,1000 -107.51,44.36,1000 -107.52,44.37,1000 -107.53,44.38,1000 -107.54,44.40,1000 -107.55,44.41,1000 -107.56,44.42,1000 -107.56,44.44,1000 -107.56,44.45,1000 -107.56,44.47,1000 -107.56,44.48,1000 -107.56,44.50,1000 -107.56,44.51,1000 -107.56,44.53,1000 -107.55,44.55,1000 -107.55,44.56,1000 -107.54,44.57,1000 -107.53,44.58,1000 -107.51,44.59,1000 -107.49,44.60,1000 -107.47,44.61,1000 -107.45,44.61,1000 -107.43,44.62,1000 -107.31,44.64,1000 
          </coordinates>
        </LinearRing>
      </outerBoundaryIs>
  </Polygon>
 </MultiGeometry>
</Placemark>
<Placemark>
  <name>5%</name>
  <visibility>1</visibility>
  <styleUrl>#poly_5</styleUrl>
  <MultiGeometry>
    <Polygon>
      <outerBoundaryIs>
        <LinearRing>
          <coordinates>
-114.20,47.55,1000 -114.18,47.56,1000 -114.16,47.57,1000 -114.13,47.59,1000 -114.11,47.60,1000 -114.09,47.61,1000 -114.06,47.62,1000 -114.04,47.63,1000 -114.02,47.63,1000 -113.99,47.64,1000 -113.97,47.64,1000 -113.94,47.64,1000 -113.92,47.64,1000 -113.89,47.64,1000 -113.86,47.63,1000 -113.83,47.62,1000 -113.80,47.62,1000 -113.78,47.61,1000 -113.75,47.60,1000 -113.73,47.60,1000 -113.71,47.59,1000 -113.68,47.58,1000 -113.66,47.57,1000 -113.65,47.56,1000 -113.63,47.54,1000 -113.62,47.53,1000 -113.61,47.51,1000 -113.59,47.49,1000 -113.58,47.48,1000 -113.57,47.46,1000 -113.56,47.44,1000 -113.55,47.42,1000 -113.54,47.40,1000 -113.54,47.38,1000 -113.54,47.36,1000 -113.55,47.34,1000 -113.56,47.32,1000 -113.57,47.30,1000 -113.58,47.28,1000 -113.60,47.26,1000 -113.61,47.25,1000 -113.62,47.23,1000 -113.63,47.22,1000 -113.64,47.21,1000 -113.66,47.20,1000 -113.67,47.19,1000 -113.69,47.18,1000 -113.71,47.17,1000 -113.74,47.16,1000 -113.76,47.14,1000 -113.79,47.13,1000 -113.81,47.12,1000 -113.84,47.11,1000 -113.86,47.11,1000 -113.89,47.11,1000 -113.92,47.11,1000 -113.95,47.12,1000 -113.98,47.13,1000 -114.01,47.14,1000 -114.04,47.15,1000 -114.06,47.15,1000 -114.08,47.16,1000 -114.10,47.16,1000 -114.12,47.18,1000 -114.13,47.19,1000 -114.15,47.20,1000 -114.17,47.21,1000 -114.19,47.23,1000 -114.21,47.24,1000 -114.23,47.26,1000 -114.25,47.28,1000 -114.26,47.29,1000 -114.27,47.31,1000 -114.28,47.33,1000 -114.28,47.34,1000 -114.28,47.36,1000 -114.28,47.38,1000 -114.27,47.40,1000 -114.27,47.42,1000 -114.26,47.44,1000 -114.26,47.46,1000 -114.25,47.48,1000 -114.20,47.55,1000 
          </coordinates>
        </LinearRing>
      </outerBoundaryIs>
      <innerBoundaryIs>
        <LinearRing>
          <coordinates>
-113.95,47.57,2000 -113.93,47.57,2000 -113.92,47.57,2000 -113.90,47.56,2000 -113.88,47.56,2000 -113.86,47.56,2000 -113.85,47.55,2000 -113.83,47.54,2000 -113.81,47.53,2000 -113.80,47.52,2000 -113.79,47.51,2000 -113.77,47.50,2000 -113.76,47.49,2000 -113.74,47.48,2000 -113.73,47.47,2000 -113.71,47.46,2000 -113.70,47.45,2000 -113.69,47.43,2000 -113.68,47.42,2000 -113.67,47.41,2000 -113.66,47.39,2000 -113.66,47.38,2000 -113.66,47.37,2000 -113.66,47.36,2000 -113.67,47.35,2000 -113.68,47.34,2000 -113.69,47.32,2000 -113.70,47.31,2000 -113.71,47.30,2000 -113.72,47.29,2000 -113.74,47.27,2000 -113.75,47.26,2000 -113.77,47.25,2000 -113.78,47.24,2000 -113.80,47.23,2000 -113.82,47.22,2000 -113.83,47.21,2000 -113.85,47.21,2000 -113.87,47.20,2000 -113.88,47.20,2000 -113.90,47.20,2000 -113.91,47.20,2000 -113.93,47.20,2000 -113.95,47.21,2000 -113.97,47.21,2000 -113.99,47.22,2000 -114.01,47.23,2000 -114.03,47.24,2000 -114.05,47.25,2000 -114.07,47.26,2000 -114.09,47.27,2000 -114.11,47.28,2000 -114.12,47.29,2000 -114.13,47.30,2000 -114.14,47.31,2000 -114.15,47.32,2000 -114.16,47.33,2000 -114.16,47.34,2000 -114.16,47.35,2000 -114.16,47.37,2000 -114.15,47.38,2000 -114.15,47.39,2000 -114.14,47.40,2000 -114.14,47.42,2000 -114.13,47.43,2000 -114.12,47.44,2000 -114.11,47.46,2000 -114.09,47.47,2000 -114.08,47.49,2000 -114.07,47.50,2000 -113.95,47.57,2000 
          </coordinates>
        </LinearRing>
      </innerBoundaryIs>
  </Polygon>
 </MultiGeometry>
</Placemark>
<Placemark>
  <name>5%</name>
  <visibility>1</visibility>
  <styleUrl>#poly_5</styleUrl>
  <MultiGeometry>
    <Polygon>
      <outerBoundaryIs>
        <LinearRing>
          <coordinates>
-107.84,45.05,1000 -107.82,45.04,1000 -107.80,45.04,1000 -107.78,45.03,1000 -107.76,45.02,1000 -107.74,45.02,1000 -107.72,45.01,1000 -107.70,45.00,1000 -107.68,45.00,1000 -107.66,44.99,1000 -107.65,44.98,1000 -107.63,44.97,1000 -107.62,44.96,1000 -107.61,44.95,1000 -107.60,44.94,1000 -107.59,44.93,1000 -107.58,44.91,1000 -107.57,44.90,1000 -107.57,44.88,1000 -107.56,44.87,1000 -107.56,44.85,1000 -107.56,44.84,1000 -107.56,44.82,1000 -107.56,44.81,1000 -107.56,44.79,1000 -107.57,44.78,1000 -107.58,44.77,1000 -107.59,44.76,1000 -107.60,44.74,1000 -107.61,44.73,1000 -107.63,44.72,1000 -107.64,44.70,1000 -107.66,44.69,1000 -107.68,44.68,1000 -107.70,44.67,1000 -107.72,44.66,1000 -107.74,44.65,1000 -107.75,44.65,1000 -107.77,44.64,1000 -107.79,44.64,1000 -107.81,44.64,1000 -107.83,44.64,1000 -107.85,44.65,1000 -107.87,44.65,1000 -107.89,44.66,1000 -107.91,44.67,1000 -107.93,44.68,1000 -107.95,44.69,1000 -107.97,44.70,1000 -107.99,44.71,1000 -108.00,44.72,1000 -108.02,44.73,1000 -108.03,44.74,1000 -108.04,44.75,1000 -108.05,44.76,1000 -108.06,44.77,1000 -108.06,44.79,1000 -108.07,44.80,1000 -108.07,44.82,1000 -108.07,44.83,1000 -108.07,44.84,1000 -108.06,44.86,1000 -108.06,44.87,1000 -108.06,44.89,1000 -108.05,44.90,1000 -108.05,44.92,1000 -107.84,45.05,1000 
          </coordinates>
        </LinearRing>
      </outerBoundaryIs>
  </Polygon>
 </MultiGeometry>
</Placemark>
<Placemark>
  <name>5%</name>
  <visibility>1</visibility>
  <styleUrl>#poly_5</styleUrl>
  <MultiGeometry>
    <Polygon>
      <outerBoundaryIs>
        <LinearRing>
          <coordinates>
-109.93,44.42,1000 -109.91,44.40,1000 -109.89,44.38,1000 -109.86,44.37,1000 -109.84,44.35,1000 -109.82,44.33,1000 -109.80,44.32,1000 -109.78,44.30,1000 -109.77,44.29,1000 -109.75,44.28,1000 -109.72,44.26,1000 -109.70,44.25,1000 -109.68,44.24,1000 -109.66,44.23,1000 -109.64,44.22,1000 -109.63,44.20,1000 -109.61,44.18,1000 -109.60,44.16,1000 -109.58,44.14,1000 -109.57,44.12,1000 -109.56,44.10,1000 -109.55,44.08,1000 -109.54,44.06,1000 -109.53,44.04,1000 -109.52,44.02,1000 -109.51,44.00,1000 -109.51,43.98,1000 -109.51,43.96,1000 -109.52,43.94,1000 -109.53,43.91,1000 -109.54,43.89,1000 -109.56,43.87,1000 -109.58,43.86,1000 -109.61,43.84,1000 -109.63,43.83,1000 -109.66,43.82,1000 -109.69,43.81,1000 -109.72,43.80,1000 -109.75,43.79,1000 -109.78,43.79,1000 -109.81,43.79,1000 -109.84,43.79,1000 -109.87,43.80,1000 -109.90,43.81,1000 -109.92,43.82,1000 -109.95,43.84,1000 -109.98,43.85,1000 -110.00,43.87,1000 -110.02,43.89,1000 -110.04,43.91,1000 -110.06,43.93,1000 -110.07,43.95,1000 -110.08,43.97,1000 -110.09,43.99,1000 -110.09,44.01,1000 -110.10,44.04,1000 -110.10,44.06,1000 -110.10,44.08,1000 -110.10,44.10,1000 -110.09,44.12,1000 -110.09,44.15,1000 -110.08,44.17,1000 -110.07,44.19,1000 -110.06,44.21,1000 -110.05,44.24,1000 -110.04,44.26,1000 -109.93,44.42,1000 
          </coordinates>
        </LinearRing>
      </outerBoundaryIs>
  </Polygon>
 </MultiGeometry>
</Placemark>
<Placemark>
  <name>5%</name>
  <visibility>1</visibility>
  <styleUrl>#poly_5</styleUrl>
  <MultiGeometry>
    <Polygon>
      <outerBoundaryIs>
        <LinearRing>
          <coordinates>
-114.46,46.42,1000 -114.42,46.40,1000 -114.38,46.38,1000 -114.34,46.37,1000 -114.31,46.35,1000 -114.27,46.33,1000 -114.24,46.32,1000 -114.22,46.31,1000 -114.20,46.30,1000 -114.19,46.29,1000 -114.18,46.28,1000 -114.16,46.26,1000 -114.14,46.24,1000 -114.12,46.21,1000 -114.10,46.19,1000 -114.08,46.16,1000 -114.06,46.14,1000 -114.05,46.12,1000 -114.03,46.09,1000 -114.02,46.07,1000 -114.01,46.04,1000 -114.00,46.02,1000 -114.00,45.99,1000 -114.00,45.97,1000 -114.01,45.94,1000 -114.02,45.92,1000 -114.03,45.89,1000 -114.05,45.86,1000 -114.07,45.84,1000 -114.08,45.82,1000 -114.09,45.80,1000 -114.10,45.79,1000 -114.12,45.78,1000 -114.14,45.76,1000 -114.17,45.75,1000 -114.21,45.73,1000 -114.24,45.71,1000 -114.28,45.70,1000 -114.31,45.69,1000 -114.34,45.69,1000 -114.38,45.70,1000 -114.42,45.71,1000 -114.46,45.72,1000 -114.50,45.73,1000 -114.53,45.74,1000 -114.55,45.75,1000 -114.57,45.75,1000 -114.59,45.76,1000 -114.61,45.78,1000 -114.63,45.80,1000 -114.66,45.83,1000 -114.68,45.85,1000 -114.70,45.88,1000 -114.72,45.90,1000 -114.73,45.92,1000 -114.74,45.95,1000 -114.74,45.97,1000 -114.74,46.00,1000 -114.74,46.02,1000 -114.74,46.05,1000 -114.74,46.07,1000 -114.74,46.10,1000 -114.73,46.12,1000 -114.72,46.15,1000 -114.71,46.17,1000 -114.70,46.20,1000 -114.68,46.22,1000 -114.67,46.25,1000 -114.46,46.42,1000 
          </coordinates>
        </LinearRing>
      </outerBoundaryIs>
      <innerBoundaryIs>
        <LinearRing>
          <coordinates>
-114.43,46.27,2000 -114.41,46.26,2000 -114.39,46.25,2000 -114.36,46.24,2000 -114.34,46.22,2000 -114.32,46.21,2000 -114.30,46.20,2000 -114.28,46.19,2000 -114.26,46.18,2000 -114.25,46.17,2000 -114.23,46.15,2000 -114.21,46.14,2000 -114.20,46.13,2000 -114.18,46.11,2000 -114.17,46.09,2000 -114.16,46.08,2000 -114.15,46.06,2000 -114.14,46.04,2000 -114.14,46.02,2000 -114.13,46.00,2000 -114.12,45.99,2000 -114.12,45.98,2000 -114.11,45.96,2000 -114.11,45.96,2000 -114.12,45.96,2000 -114.13,45.95,2000 -114.14,45.94,2000 -114.15,45.92,2000 -114.17,45.91,2000 -114.18,45.89,2000 -114.20,45.87,2000 -114.22,45.85,2000 -114.24,45.83,2000 -114.25,45.82,2000 -114.27,45.80,2000 -114.29,45.79,2000 -114.31,45.78,2000 -114.33,45.78,2000 -114.35,45.78,2000 -114.37,45.78,2000 -114.39,45.79,2000 -114.42,45.80,2000 -114.44,45.81,2000 -114.47,45.83,2000 -114.49,45.84,2000 -114.51,45.86,2000 -114.53,45.87,2000 -114.55,45.88,2000 -114.57,45.89,2000 -114.59,45.90,2000 -114.60,45.91,2000 -114.61,45.91,2000 -114.61,45.91,2000 -114.61,45.93,2000 -114.61,45.94,2000 -114.61,45.95,2000 -114.61,45.97,2000 -114.60,45.99,2000 -114.60,46.01,2000 -114.60,46.03,2000 -114.60,46.05,2000 -114.59,46.07,2000 -114.59,46.09,2000 -114.43,46.27,2000 
          </coordinates>
        </LinearRing>
      </innerBoundaryIs>
  </Polygon>
 </MultiGeometry>
</Placemark>
<Placemark>
  <name>10%</name>
  <visibility>1</visibility>
  <styleUrl>#poly_10</styleUrl>
  <MultiGeometry>
    <Polygon>
      <outerBoundaryIs>
        <LinearRing>
          <coordinates>
-110.33,45.36,2000 -110.31,45.37,2000 -110.28,45.39,2000 -110.25,45.40,2000 -110.23,45.41,2000 -110.20,45.42,2000 -110.18,45.43,2000 -110.15,45.44,2000 -110.13,45.45,2000 -110.10,45.45,2000 -110.07,45.45,2000 -110.04,45.45,2000 -110.01,45.45,2000 -109.98,45.45,2000 -109.94,45.44,2000 -109.91,45.43,2000 -109.88,45.43,2000 -109.85,45.42,2000 -109.82,45.41,2000 -109.79,45.40,2000 -109.76,45.39,2000 -109.73,45.38,2000 -109.70,45.37,2000 -109.67,45.36,2000 -109.65,45.35,2000 -109.63,45.34,2000 -109.61,45.33,2000 -109.59,45.32,2000 -109.58,45.31,2000 -109.56,45.30,2000 -109.53,45.29,2000 -109.51,45.27,2000 -109.48,45.26,2000 -109.45,45.24,2000 -109.43,45.22,2000 -109.41,45.20,2000 -109.39,45.19,2000 -109.37,45.17,2000 -109.35,45.15,2000 -109.34,45.13,2000 -109.33,45.11,2000 -109.32,45.08,2000 -109.32,45.06,2000 -109.32,45.04,2000 -109.32,45.02,2000 -109.33,45.00,2000 -109.34,44.98,2000 -109.36,44.96,2000 -109.37,44.94,2000 -109.40,44.92,2000 -109.42,44.91,2000 -109.44,44.89,2000 -109.47,44.87,2000 -109.50,44.86,2000 -109.52,44.85,2000 -109.55,44.84,2000 -109.58,44.84,2000 -109.61,44.83,2000 -109.64,44.83,2000 -109.67,44.84,2000 -109.70,44.84,2000 -109.73,44.84,2000 -109.76,44.85,2000 -109.79,44.86,2000 -109.82,44.87,2000 -109.84,44.89,2000 -109.87,44.90,2000 -109.90,44.92,2000 -109.92,44.94,2000 -109.94,44.95,2000 -109.96,44.96,2000 -109.98,44.97,2000 -109.99,44.98,2000 -110.02,44.99,2000 -110.04,45.00,2000 -110.06,45.01,2000 -110.08,45.02,2000 -110.11,45.04,2000 -110.14,45.05,2000 -110.16,45.07,2000 -110.19,45.08,2000 -110.21,45.10,2000 -110.23,45.11,2000 -110.25,45.13,2000 -110.27,45.15,2000 -110.28,45.17,2000 -110.29,45.19,2000 -110.30,45.21,2000 -110.32,45.23,2000 -110.33,45.24,2000 -110.35,45.26,2000 -110.36,45.27,2000 -110.33,45.36,2000 
          </coordinates>
        </LinearRing>
      </outerBoundaryIs>
      <innerBoundaryIs>
        <LinearRing>
          <coordinates>
-110.07,45.31,3000 -110.05,45.31,3000 -110.04,45.31,3000 -110.02,45.32,3000 -110.00,45.32,3000 -109.99,45.32,3000 -109.97,45.32,3000 -109.95,45.32,3000 -109.93,45.32,3000 -109.92,45.32,3000 -109.90,45.32,3000 -109.88,45.32,3000 -109.87,45.32,3000 -109.85,45.31,3000 -109.83,45.31,3000 -109.82,45.31,3000 -109.80,45.30,3000 -109.79,45.30,3000 -109.77,45.29,3000 -109.75,45.29,3000 -109.74,45.28,3000 -109.72,45.27,3000 -109.70,45.26,3000 -109.69,45.26,3000 -109.67,45.25,3000 -109.66,45.24,3000 -109.64,45.24,3000 -109.63,45.23,3000 -109.61,45.22,3000 -109.60,45.22,3000 -109.59,45.21,3000 -109.58,45.20,3000 -109.57,45.20,3000 -109.55,45.19,3000 -109.53,45.19,3000 -109.53,45.18,3000 -109.52,45.18,3000 -109.52,45.16,3000 -109.52,45.15,3000 -109.52,45.14,3000 -109.52,45.13,3000 -109.52,45.12,3000 -109.52,45.10,3000 -109.52,45.09,3000 -109.52,45.07,3000 -109.52,45.06,3000 -109.52,45.04,3000 -109.52,45.03,3000 -109.52,45.02,3000 -109.52,45.01,3000 -109.52,45.00,3000 -109.52,44.99,3000 -109.53,44.98,3000 -109.54,44.98,3000 -109.55,44.98,3000 -109.57,44.98,3000 -109.59,44.98,3000 -109.60,44.98,3000 -109.62,44.98,3000 -109.64,44.98,3000 -109.66,44.98,3000 -109.67,44.98,3000 -109.69,44.98,3000 -109.70,44.98,3000 -109.72,44.98,3000 -109.74,44.98,3000 -109.76,44.98,3000 -109.78,44.99,3000 -109.79,44.99,3000 -109.80,45.00,3000 -109.82,45.01,3000 -109.83,45.01,3000 -109.85,45.02,3000 -109.86,45.03,3000 -109.88,45.03,3000 -109.89,45.04,3000 -109.91,45.05,3000 -109.93,45.06,3000 -109.94,45.07,3000 -109.96,45.08,3000 -109.97,45.08,3000 -109.99,45.09,3000 -110.00,45.10,3000 -110.01,45.11,3000 -110.02,45.11,3000 -110.03,45.12,3000 -110.04,45.12,3000 -110.05,45.12,3000 -110.05,45.13,3000 -110.06,45.13,3000 -110.06,45.14,3000 -110.06,45.15,3000 -110.07,45.16,3000 -110.07,45.17,3000 -110.07,45.18,3000 -110.08,45.20,3000 -110.08,45.21,3000 -110.09,45.22,3000 -110.09,45.23,3000 -110.10,45.25,3000 -110.10,45.26,3000 -110.11,45.28,3000 -110.11,45.29,3000 -110.07,45.31,3000 
          </coordinates>
        </LinearRing>
      </innerBoundaryIs>
  </Polygon>
 </MultiGeometry>
</Placemark>
<Placemark>
  <name>10%</name>
  <visibility>1</visibility>
  <styleUrl>#poly_10</styleUrl>
  <MultiGeometry>
    <Polygon>
      <outerBoundaryIs>
        <LinearRing>
          <coordinates>
-114.43,46.27,2000 -114.41,46.26,2000 -114.39,46.25,2000 -114.36,46.24,2000 -114.34,46.22,2000 -114.32,46.21,2000 -114.30,46.20,2000 -114.28,46.19,2000 -114.26,46.18,2000 -114.25,46.17,2000 -114.23,46.15,2000 -114.21,46.14,2000 -114.20,46.13,2000 -114.18,46.11,2000 -114.17,46.09,2000 -114.16,46.08,2000 -114.15,46.06,2000 -114.14,46.04,2000 -114.14,46.02,2000 -114.13,46.00,2000 -114.12,45.99,2000 -114.12,45.98,2000 -114.11,45.96,2000 -114.11,45.96,2000 -114.12,45.96,2000 -114.13,45.95,2000 -114.14,45.94,2000 -114.15,45.92,2000 -114.17,45.91,2000 -114.18,45.89,2000 -114.20,45.87,2000 -114.22,45.85,2000 -114.24,45.83,2000 -114.25,45.82,2000 -114.27,45.80,2000 -114.29,45.79,2000 -114.31,45.78,2000 -114.33,45.78,2000 -114.35,45.78,2000 -114.37,45.78,2000 -114.39,45.79,2000 -114.42,45.80,2000 -114.44,45.81,2000 -114.47,45.83,2000 -114.49,45.84,2000 -114.51,45.86,2000 -114.53,45.87,2000 -114.55,45.88,2000 -114.57,45.89,2000 -114.59,45.90,2000 -114.60,45.91,2000 -114.61,45.91,2000 -114.61,45.91,2000 -114.61,45.93,2000 -114.61,45.94,2000 -114.61,45.95,2000 -114.61,45.97,2000 -114.60,45.99,2000 -114.60,46.01,2000 -114.60,46.03,2000 -114.60,46.05,2000 -114.59,46.07,2000 -114.59,46.09,2000 -114.43,46.27,2000 
          </coordinates>
        </LinearRing>
      </outerBoundaryIs>
  </Polygon>
 </MultiGeometry>
</Placemark>
<Placemark>
  <name>10%</name>
  <visibility>1</visibility>
  <styleUrl>#poly_10</styleUrl>
  <MultiGeometry>
    <Polygon>
      <outerBoundaryIs>
        <LinearRing>
          <coordinates>
-113.95,47.57,2000 -113.93,47.57,2000 -113.92,47.57,2000 -113.90,47.56,2000 -113.88,47.56,2000 -113.86,47.56,2000 -113.85,47.55,2000 -113.83,47.54,2000 -113.81,47.53,2000 -113.80,47.52,2000 -113.79,47.51,2000 -113.77,47.50,2000 -113.76,47.49,2000 -113.74,47.48,2000 -113.73,47.47,2000 -113.71,47.46,2000 -113.70,47.45,2000 -113.69,47.43,2000 -113.68,47.42,2000 -113.67,47.41,2000 -113.66,47.39,2000 -113.66,47.38,2000 -113.66,47.37,2000 -113.66,47.36,2000 -113.67,47.35,2000 -113.68,47.34,2000 -113.69,47.32,2000 -113.70,47.31,2000 -113.71,47.30,2000 -113.72,47.29,2000 -113.74,47.27,2000 -113.75,47.26,2000 -113.77,47.25,2000 -113.78,47.24,2000 -113.80,47.23,2000 -113.82,47.22,2000 -113.83,47.21,2000 -113.85,47.21,2000 -113.87,47.20,2000 -113.88,47.20,2000 -113.90,47.20,2000 -113.91,47.20,2000 -113.93,47.20,2000 -113.95,47.21,2000 -113.97,47.21,2000 -113.99,47.22,2000 -114.01,47.23,2000 -114.03,47.24,2000 -114.05,47.25,2000 -114.07,47.26,2000 -114.09,47.27,2000 -114.11,47.28,2000 -114.12,47.29,2000 -114.13,47.30,2000 -114.14,47.31,2000 -114.15,47.32,2000 -114.16,47.33,2000 -114.16,47.34,2000 -114.16,47.35,2000 -114.16,47.37,2000 -114.15,47.38,2000 -114.15,47.39,2000 -114.14,47.40,2000 -114.14,47.42,2000 -114.13,47.43,2000 -114.12,47.44,2000 -114.11,47.46,2000 -114.09,47.47,2000 -114.08,47.49,2000 -114.07,47.50,2000 -113.95,47.57,2000 
          </coordinates>
        </LinearRing>
      </outerBoundaryIs>
  </Polygon>
 </MultiGeometry>
</Placemark>
<Placemark>
  <name>20%</name>
  <visibility>1</visibility>
  <styleUrl>#poly_20</styleUrl>
  <MultiGeometry>
    <Polygon>
      <outerBoundaryIs>
        <LinearRing>
          <coordinates>
-110.07,45.31,3000 -110.05,45.31,3000 -110.04,45.31,3000 -110.02,45.32,3000 -110.00,45.32,3000 -109.99,45.32,3000 -109.97,45.32,3000 -109.95,45.32,3000 -109.93,45.32,3000 -109.92,45.32,3000 -109.90,45.32,3000 -109.88,45.32,3000 -109.87,45.32,3000 -109.85,45.31,3000 -109.83,45.31,3000 -109.82,45.31,3000 -109.80,45.30,3000 -109.79,45.30,3000 -109.77,45.29,3000 -109.75,45.29,3000 -109.74,45.28,3000 -109.72,45.27,3000 -109.70,45.26,3000 -109.69,45.26,3000 -109.67,45.25,3000 -109.66,45.24,3000 -109.64,45.24,3000 -109.63,45.23,3000 -109.61,45.22,3000 -109.60,45.22,3000 -109.59,45.21,3000 -109.58,45.20,3000 -109.57,45.20,3000 -109.55,45.19,3000 -109.53,45.19,3000 -109.53,45.18,3000 -109.52,45.18,3000 -109.52,45.16,3000 -109.52,45.15,3000 -109.52,45.14,3000 -109.52,45.13,3000 -109.52,45.12,3000 -109.52,45.10,3000 -109.52,45.09,3000 -109.52,45.07,3000 -109.52,45.06,3000 -109.52,45.04,3000 -109.52,45.03,3000 -109.52,45.02,3000 -109.52,45.01,3000 -109.52,45.00,3000 -109.52,44.99,3000 -109.53,44.98,3000 -109.54,44.98,3000 -109.55,44.98,3000 -109.57,44.98,3000 -109.59,44.98,3000 -109.60,44.98,3000 -109.62,44.98,3000 -109.64,44.98,3000 -109.66,44.98,3000 -109.67,44.98,3000 -109.69,44.98,3000 -109.70,44.98,3000 -109.72,44.98,3000 -109.74,44.98,3000 -109.76,44.98,3000 -109.78,44.99,3000 -109.79,44.99,3000 -109.80,45.00,3000 -109.82,45.01,3000 -109.83,45.01,3000 -109.85,45.02,3000 -109.86,45.03,3000 -109.88,45.03,3000 -109.89,45.04,3000 -109.91,45.05,3000 -109.93,45.06,3000 -109.94,45.07,3000 -109.96,45.08,3000 -109.97,45.08,3000 -109.99,45.09,3000 -110.00,45.10,3000 -110.01,45.11,3000 -110.02,45.11,3000 -110.03,45.12,3000 -110.04,45.12,3000 -110.05,45.12,3000 -110.05,45.13,3000 -110.06,45.13,3000 -110.06,45.14,3000 -110.06,45.15,3000 -110.07,45.16,3000 -110.07,45.17,3000 -110.07,45.18,3000 -110.08,45.20,3000 -110.08,45.21,3000 -110.09,45.22,3000 -110.09,45.23,3000 -110.10,45.25,3000 -110.10,45.26,3000 -110.11,45.28,3000 -110.11,45.29,3000 -110.07,45.31,3000 
          </coordinates>
        </LinearRing>
      </outerBoundaryIs>
  </Polygon>
 </MultiGeometry>
</Placemark>
    </Folder>
  </Document>
</kml>
