<?xml version="1.0" encoding="UTF-8"?>
<kml xmlns="http://www.opengis.net/kml/2.2">
<Document id="prb_72hsnow_ge02_f072">
<name>WPC 72-Hr Prob of Snow > 2"</name>
  <open>1</open>
  <snippet>Valid 12Z 05/27/2026 - 12Z 05/30/2026</snippet>
  <description></description>
    <Style id="poly_1">
        <IconStyle>
           <color>00000000</color>
           <scale>1</scale>
        </IconStyle>
        <LabelStyle>
            <color>ff26478b</color>
            <scale>0.8</scale>
        </LabelStyle>
        <LineStyle>
            <color>6626478b</color>
            <width>0</width>
        </LineStyle>
	<PolyStyle>
            <color>6626478b</color>
	</PolyStyle>
        <BalloonStyle>
            <text>
                <![CDATA[ <table border=0 width="300"><tr><td style="font-size:10pt;">
                During this forecast period, there is a <b>1-5%</b> probability of snowfall exceeding the depicted amount in the enclosed area.
                <br/><br/>
                *<span style="font-size:8pt;">Note that in cases where this contour is embedded within a 5% contour, 
                the probability of snowfall exceeding the depicted amount is &lt;1%.</span>
                </td></tr></table>]]>
            </text>
        </BalloonStyle>
    </Style>

    <Style id="poly_5">
        <IconStyle>
           <color>00000000</color>
           <scale>1</scale>
        </IconStyle>
        <LabelStyle>
            <color>ff00eeee</color>
            <scale>0.8</scale>
        </LabelStyle>
        <LineStyle>
            <color>6600eeee</color>
            <width>0.4</width>
        </LineStyle>
	<PolyStyle>
	    <color>6600eeee</color>
	</PolyStyle>
        <BalloonStyle>
            <text>
                <![CDATA[ <table border=0 width="300"><tr><td style="font-size:10pt;">
                During this forecast period, there is a <b>5-10%</b> probability of snowfall exceeding the depicted amount in the enclosed area.
                <br/><br/>
                *<span style="font-size:8pt;">Note that in cases where this contour is embedded within a 10% contour, 
                the probability of snowfall exceeding the depicted amount is &lt;5%.</span>
                </td></tr></table>]]>
            </text>
        </BalloonStyle>
    </Style>

    <Style id="poly_10">
        <IconStyle>
           <color>00000000</color>
           <scale>1</scale>
        </IconStyle>
        <LabelStyle>
            <color>ff00ff7f</color>
            <scale>0.8</scale>
        </LabelStyle>
        <LineStyle>
            <color>6600ff7f</color>
            <width>0.4</width>
        </LineStyle>
	<PolyStyle>
	    <color>6600ff7f</color>
	</PolyStyle>
        <BalloonStyle>
            <text>
                <![CDATA[ <table border=0 width="300"><tr><td style="font-size:10pt;">
                During this forecast period, there is a <b>10-20%</b> probability of snowfall exceeding the depicted amount in the enclosed area.
                <br/><br/>
                *<span style="font-size:8pt;">Note that in cases where this contour is embedded within a 20% contour, 
                the probability of snowfall exceeding the depicted amount is &lt;10%.</span>
                </td></tr></table>]]>
            </text>
        </BalloonStyle>
    </Style>
    
    <Style id="poly_20">
        <IconStyle>
            <color>00000000</color>
            <scale>1</scale>
        </IconStyle>
        <LabelStyle>
            <color>ff00cd00</color>
            <scale>0.8</scale>
        </LabelStyle>
        <LineStyle>
            <color>6600cd00</color>
	    <width>0.4</width>
	</LineStyle>
	<PolyStyle>
	    <color>6600cd00</color>
	</PolyStyle>
        <BalloonStyle>
            <text>
                <![CDATA[ <table border=0 width="300"><tr><td style="font-size:10pt;">
                During this forecast period, there is a <b>20-30%</b> probability of snowfall exceeding the depicted amount in the enclosed area.
                <br/><br/>
                *<span style="font-size:8pt;">Note that in cases where this contour is embedded within a 30% contour, 
                the probability of snowfall exceeding the depicted amount is &lt;20%.</span>
                </td></tr></table>]]>
            </text>
        </BalloonStyle>
    </Style>

    <Style id="poly_30">
        <IconStyle>
            <color>00000000</color>
            <scale>1</scale>
        </IconStyle>
        <LabelStyle>
            <color>ff008b00</color>
            <scale>0.8</scale>
        </LabelStyle>
        <LineStyle>
            <color>66008b00</color>
	    <width>0.4</width>
	</LineStyle>
	<PolyStyle>
	    <color>66008b00</color>
	</PolyStyle>
        <BalloonStyle>
            <text>
                <![CDATA[ <table border=0 width="300"><tr><td style="font-size:10pt;">
                During this forecast period, there is a <b>30-40%</b> probability of snowfall exceeding the depicted amount in the enclosed area.
                <br/><br/>
                *<span style="font-size:8pt;">Note that in cases where this contour is embedded within a 40% contour, 
                the probability of snowfall exceeding the depicted amount is &lt;30%.</span>
                </td></tr></table>]]>
            </text>
        </BalloonStyle>
    </Style>

    <Style id="poly_40">
        <IconStyle>
            <color>00000000</color>
            <scale>1</scale>
        </IconStyle>
        <LabelStyle>
            <color>ff8b4e10</color>
            <scale>0.8</scale>
        </LabelStyle>
        <LineStyle>
            <color>668b4e10</color>
	    <width>0.4</width>
	</LineStyle>
	<PolyStyle>
	    <color>668b4e10</color>
	</PolyStyle>
        <BalloonStyle>
            <text>
                <![CDATA[ <table border=0 width="300"><tr><td style="font-size:10pt;">
                During this forecast period, there is a <b>40-50%</b> probability of snowfall exceeding the depicted amount in the enclosed area.
                <br/><br/>
                *<span style="font-size:8pt;">Note that in cases where this contour is embedded within a 50% contour, 
                the probability of snowfall exceeding the depicted amount is &lt;40%.</span>
                </td></tr></table>]]>
            </text>
        </BalloonStyle>
    </Style>

    <Style id="poly_50">
        <IconStyle>
            <color>00000000</color>
            <scale>1</scale>
        </IconStyle>
        <LabelStyle>
            <color>ffff901e</color>
            <scale>0.8</scale>
        </LabelStyle>
        <LineStyle>
            <color>66ff901e</color>
	    <width>0.4</width>
	</LineStyle>
	<PolyStyle>
	    <color>66ff901e</color>
	</PolyStyle>
        <BalloonStyle>
            <text>
                <![CDATA[ <table border=0 width="300"><tr><td style="font-size:10pt;">
                During this forecast period, there is a <b>50-60%</b> probability of snowfall exceeding the depicted amount in the enclosed area.
                <br/><br/>
                *<span style="font-size:8pt;">Note that in cases where this contour is embedded within a 60% contour, 
                the probability of snowfall exceeding the depicted amount is &lt;50%.</span>
                </td></tr></table>]]>
            </text>
        </BalloonStyle>
    </Style>

    <Style id="poly_60">
        <IconStyle>
            <color>00000000</color>
            <scale>1</scale>
        </IconStyle>
        <LabelStyle>
            <color>ffeeb200</color>
            <scale>0.8</scale>
        </LabelStyle>
        <LineStyle>
            <color>66eeb200</color>
	    <width>0.4</width>
	</LineStyle>
	<PolyStyle>
	    <color>66eeb200</color>
	</PolyStyle>
        <BalloonStyle>
            <text>
                <![CDATA[ <table border=0 width="300"><tr><td style="font-size:10pt;">
                During this forecast period, there is a <b>60-70%</b> probability of snowfall exceeding the depicted amount in the enclosed area.
                <br/><br/>
                *<span style="font-size:8pt;">Note that in cases where this contour is embedded within a 70% contour, 
                the probability of snowfall exceeding the depicted amount is &lt;60%.</span>
                </td></tr></table>]]>
            </text>
        </BalloonStyle>
    </Style>
    
    <Style id="poly_70">
        <IconStyle>
            <color>00000000</color>
            <scale>1</scale>
        </IconStyle>
        <LabelStyle>
            <color>ffeeee00</color>
            <scale>0.8</scale>
        </LabelStyle>
        <LineStyle>
            <color>66eeee00</color>
	    <width>0.4</width>
	</LineStyle>
	<PolyStyle>
	    <color>66eeee00</color>
	</PolyStyle>
        <BalloonStyle>
            <text>
                <![CDATA[ <table border=0 width="300"><tr><td style="font-size:10pt;">
                During this forecast period, there is a <b>70-80%</b> probability of snowfall exceeding the depicted amount in the enclosed area.
                <br/><br/>
                *<span style="font-size:8pt;">Note that in cases where this contour is embedded within a 80% contour, 
                the probability of snowfall exceeding the depicted amount is &lt;70%.</span>
                </td></tr></table>]]>
            </text>
        </BalloonStyle>
    </Style>

    <Style id="poly_80">
        <IconStyle>
            <color>00000000</color>
            <scale>1</scale>
        </IconStyle>
        <LabelStyle>
            <color>ff4782ff</color>
            <scale>0.8</scale>
        </LabelStyle>
        <LineStyle>
            <color>664782ff</color>
	    <width>0.4</width>
	</LineStyle>
	<PolyStyle>
	    <color>664782ff</color>
	</PolyStyle>
        <BalloonStyle>
            <text>
                <![CDATA[ <table border=0 width="300"><tr><td style="font-size:10pt;">
                During this forecast period, there is a <b>80-90%</b> probability of snowfall exceeding the depicted amount in the enclosed area.
                <br/><br/>
                *<span style="font-size:8pt;">Note that in cases where this contour is embedded within a 90% contour, 
                the probability of snowfall exceeding the depicted amount is &lt;80%.</span>
                </td></tr></table>]]>
            </text>
        </BalloonStyle>
    </Style>

    <Style id="poly_90">
        <IconStyle>
            <color>00000000</color>
            <scale>1</scale>
        </IconStyle>
        <LabelStyle>
            <color>ff2c2cee</color>
            <scale>0.8</scale>
        </LabelStyle>
        <LineStyle>
            <color>662c2cee</color>
            <width>0.4</width>
        </LineStyle>
        <PolyStyle>
            <color>662c2cee</color>
        </PolyStyle>
        <BalloonStyle>
            <text>
                <![CDATA[ <table border=0 width="300"><tr><td style="font-size:10pt;">
                During this forecast period, there is a <b>90-95%</b> probability of snowfall exceeding the depicted amount in the enclosed area.
                <br/><br/>
                *<span style="font-size:8pt;">Note that in cases where this contour is embedded within a 95% contour, 
                the probability of snowfall exceeding the depicted amount is &lt;90%.</span>
                </td></tr></table>]]>
            </text>
        </BalloonStyle>
    </Style>

    <Style id="poly_95">
        <IconStyle>
            <color>00000000</color>
            <scale>1</scale>
        </IconStyle>
        <LabelStyle>
            <color>ff00008b</color>
            <scale>0.8</scale>
        </LabelStyle>
        <LineStyle>
            <color>6600008b</color>
	    <width>0.4</width>
	</LineStyle>
	<PolyStyle>
	    <color>6600008b</color>
	</PolyStyle>
        <BalloonStyle>
            <text>
                <![CDATA[ <table border=0 width="300"><tr><td style="font-size:10pt;">
                The probability of snowfall exceeding the depicted amount is <b>&ge;95%</b> in the enclosed area during this forecast period.
                </td></tr></table>]]>
            </text>
        </BalloonStyle>
    </Style>

  <ScreenOverlay>
    <name>Logos</name>
    <description></description>
    <Icon>
      <href>https://www.wpc.ncep.noaa.gov/images/noaa_and_nws_logo.png</href>
    </Icon>
   <overlayXY x=".01" y=".01" xunits="fraction" yunits="fraction" />
   <screenXY x=".01" y=".01" xunits="fraction" yunits="fraction" />
   <rotationXY x="0" y="0" xunits="fraction" yunits="fraction" />
   <size x="-1" y="-1" xunits="fraction" yunits="fraction" />
  </ScreenOverlay>
    <Folder>
      <name>Snow Probabilities</name>
      <open>0</open>
<Placemark>
  <name>1%</name>
  <visibility>1</visibility>
  <styleUrl>#poly_1</styleUrl>
  <MultiGeometry>
    <Polygon>
      <outerBoundaryIs>
        <LinearRing>
          <coordinates>
-120.82,39.61,0 -120.67,39.67,0 -120.52,39.71,0 -120.38,39.73,0 -120.25,39.73,0 -120.12,39.70,0 -120.01,39.65,0 -119.94,39.59,0 -119.86,39.47,0 -119.80,39.37,0 -119.72,39.24,0 -119.64,39.10,0 -119.56,38.97,0 -119.48,38.87,0 -119.35,38.80,0 -119.22,38.78,0 -119.10,38.75,0 -118.97,38.70,0 -118.85,38.63,0 -118.75,38.55,0 -118.72,38.43,0 -118.71,38.28,0 -118.66,38.18,0 -118.51,38.15,0 -118.32,38.17,0 -118.17,38.17,0 -118.06,38.12,0 -118.00,38.04,0 -117.94,37.96,0 -117.89,37.84,0 -117.86,37.74,0 -117.84,37.62,0 -117.82,37.51,0 -117.82,37.41,0 -117.89,37.29,0 -117.96,37.21,0 -117.94,37.11,0 -117.92,37.03,0 -117.90,36.92,0 -117.88,36.80,0 -117.86,36.68,0 -117.84,36.56,0 -117.82,36.43,0 -117.81,36.32,0 -117.81,36.22,0 -117.83,36.11,0 -117.89,36.05,0 -118.00,35.98,0 -118.14,35.94,0 -118.30,35.94,0 -118.45,35.97,0 -118.54,36.00,0 -118.61,36.03,0 -118.70,36.03,0 -118.80,36.04,0 -118.92,36.07,0 -119.03,36.15,0 -119.08,36.25,0 -119.12,36.38,0 -119.15,36.50,0 -119.18,36.60,0 -119.21,36.70,0 -119.30,36.75,0 -119.41,36.83,0 -119.46,36.94,0 -119.50,37.08,0 -119.54,37.19,0 -119.62,37.24,0 -119.70,37.28,0 -119.77,37.37,0 -119.84,37.49,0 -119.90,37.58,0 -119.96,37.67,0 -120.02,37.75,0 -120.09,37.84,0 -120.15,37.93,0 -120.18,38.04,0 -120.22,38.16,0 -120.29,38.23,0 -120.38,38.31,0 -120.46,38.40,0 -120.50,38.49,0 -120.53,38.58,0 -120.56,38.69,0 -120.61,38.82,0 -120.65,38.92,0 -120.70,39.02,0 -120.75,39.14,0 -120.80,39.25,0 -120.85,39.38,0 -120.91,39.50,0 -120.82,39.61,0 
          </coordinates>
        </LinearRing>
      </outerBoundaryIs>
      <innerBoundaryIs>
        <LinearRing>
          <coordinates>
-120.58,39.59,1000 -120.43,39.61,1000 -120.31,39.62,1000 -120.16,39.57,1000 -120.08,39.53,1000 -120.00,39.47,1000 -119.96,39.39,1000 -119.91,39.28,1000 -119.85,39.18,1000 -119.78,39.08,1000 -119.71,38.98,1000 -119.63,38.90,1000 -119.55,38.83,1000 -119.46,38.77,1000 -119.32,38.72,1000 -119.19,38.69,1000 -119.11,38.65,1000 -119.04,38.59,1000 -118.98,38.52,1000 -118.92,38.43,1000 -118.88,38.35,1000 -118.88,38.23,1000 -118.86,38.13,1000 -118.74,38.06,1000 -118.59,38.01,1000 -118.43,38.02,1000 -118.28,38.03,1000 -118.16,38.01,1000 -118.07,37.96,1000 -117.99,37.88,1000 -117.94,37.78,1000 -117.90,37.69,1000 -117.90,37.58,1000 -117.93,37.49,1000 -117.98,37.39,1000 -118.01,37.28,1000 -118.00,37.18,1000 -117.98,37.07,1000 -117.95,36.96,1000 -117.93,36.85,1000 -117.91,36.73,1000 -117.89,36.61,1000 -117.88,36.49,1000 -117.87,36.40,1000 -117.89,36.29,1000 -117.94,36.22,1000 -118.01,36.15,1000 -118.10,36.10,1000 -118.22,36.08,1000 -118.35,36.07,1000 -118.45,36.07,1000 -118.55,36.08,1000 -118.70,36.12,1000 -118.85,36.18,1000 -118.93,36.25,1000 -119.00,36.33,1000 -119.06,36.43,1000 -119.10,36.52,1000 -119.14,36.62,1000 -119.18,36.74,1000 -119.24,36.85,1000 -119.31,36.95,1000 -119.39,37.05,1000 -119.47,37.16,1000 -119.55,37.26,1000 -119.62,37.34,1000 -119.70,37.43,1000 -119.76,37.50,1000 -119.81,37.56,1000 -119.85,37.66,1000 -119.90,37.76,1000 -119.96,37.83,1000 -120.03,37.90,1000 -120.10,37.99,1000 -120.15,38.08,1000 -120.19,38.19,1000 -120.23,38.30,1000 -120.28,38.39,1000 -120.35,38.47,1000 -120.41,38.53,1000 -120.48,38.66,1000 -120.51,38.75,1000 -120.53,38.86,1000 -120.56,38.98,1000 -120.58,39.11,1000 -120.60,39.25,1000 -120.63,39.39,1000 -120.65,39.54,1000 -120.58,39.59,1000 
          </coordinates>
        </LinearRing>
      </innerBoundaryIs>
  </Polygon>
 </MultiGeometry>
</Placemark>
<Placemark>
  <name>1%</name>
  <visibility>1</visibility>
  <styleUrl>#poly_1</styleUrl>
  <MultiGeometry>
    <Polygon>
      <outerBoundaryIs>
        <LinearRing>
          <coordinates>
-117.51,39.37,0 -117.47,39.38,0 -117.42,39.39,0 -117.38,39.40,0 -117.33,39.41,0 -117.29,39.42,0 -117.24,39.42,0 -117.20,39.43,0 -117.15,39.43,0 -117.10,39.43,0 -117.06,39.42,0 -117.01,39.41,0 -116.97,39.39,0 -116.93,39.36,0 -116.90,39.33,0 -116.88,39.30,0 -116.86,39.26,0 -116.85,39.22,0 -116.83,39.19,0 -116.82,39.16,0 -116.80,39.14,0 -116.76,39.12,0 -116.73,39.10,0 -116.69,39.08,0 -116.65,39.06,0 -116.61,39.04,0 -116.58,39.01,0 -116.56,38.98,0 -116.54,38.95,0 -116.53,38.91,0 -116.52,38.88,0 -116.51,38.84,0 -116.50,38.80,0 -116.49,38.77,0 -116.49,38.73,0 -116.49,38.69,0 -116.50,38.66,0 -116.52,38.63,0 -116.54,38.60,0 -116.57,38.57,0 -116.60,38.54,0 -116.64,38.52,0 -116.68,38.50,0 -116.72,38.49,0 -116.77,38.48,0 -116.81,38.47,0 -116.86,38.46,0 -116.90,38.45,0 -116.95,38.45,0 -116.99,38.45,0 -117.04,38.44,0 -117.08,38.44,0 -117.12,38.43,0 -117.17,38.43,0 -117.21,38.42,0 -117.26,38.41,0 -117.30,38.41,0 -117.35,38.40,0 -117.39,38.40,0 -117.44,38.39,0 -117.49,38.39,0 -117.53,38.40,0 -117.57,38.41,0 -117.61,38.43,0 -117.65,38.46,0 -117.69,38.48,0 -117.72,38.51,0 -117.74,38.54,0 -117.76,38.57,0 -117.78,38.61,0 -117.79,38.65,0 -117.80,38.68,0 -117.81,38.71,0 -117.82,38.75,0 -117.83,38.78,0 -117.84,38.82,0 -117.84,38.85,0 -117.84,38.89,0 -117.85,38.92,0 -117.85,38.96,0 -117.85,38.99,0 -117.84,39.03,0 -117.82,39.06,0 -117.80,39.09,0 -117.78,39.12,0 -117.75,39.15,0 -117.73,39.18,0 -117.71,39.20,0 -117.68,39.23,0 -117.66,39.23,0 -117.51,39.37,0 
          </coordinates>
        </LinearRing>
      </outerBoundaryIs>
      <innerBoundaryIs>
        <LinearRing>
          <coordinates>
-117.48,39.21,1000 -117.45,39.23,1000 -117.42,39.24,1000 -117.39,39.25,1000 -117.36,39.26,1000 -117.32,39.27,1000 -117.29,39.27,1000 -117.26,39.27,1000 -117.23,39.26,1000 -117.20,39.25,1000 -117.17,39.23,1000 -117.13,39.21,1000 -117.10,39.19,1000 -117.07,39.17,1000 -117.05,39.15,1000 -117.03,39.14,1000 -117.01,39.12,1000 -116.99,39.10,1000 -116.97,39.09,1000 -116.94,39.07,1000 -116.91,39.06,1000 -116.88,39.04,1000 -116.85,39.02,1000 -116.82,39.00,1000 -116.80,38.99,1000 -116.77,38.97,1000 -116.75,38.95,1000 -116.74,38.94,1000 -116.72,38.92,1000 -116.70,38.90,1000 -116.67,38.88,1000 -116.65,38.85,1000 -116.64,38.83,1000 -116.64,38.80,1000 -116.65,38.78,1000 -116.66,38.75,1000 -116.68,38.72,1000 -116.70,38.70,1000 -116.72,38.67,1000 -116.74,38.65,1000 -116.76,38.63,1000 -116.78,38.61,1000 -116.81,38.60,1000 -116.84,38.58,1000 -116.88,38.57,1000 -116.91,38.56,1000 -116.94,38.56,1000 -116.97,38.55,1000 -117.00,38.55,1000 -117.03,38.54,1000 -117.07,38.54,1000 -117.10,38.53,1000 -117.13,38.52,1000 -117.16,38.52,1000 -117.20,38.51,1000 -117.23,38.51,1000 -117.26,38.50,1000 -117.29,38.50,1000 -117.32,38.50,1000 -117.36,38.50,1000 -117.39,38.51,1000 -117.42,38.52,1000 -117.45,38.53,1000 -117.48,38.54,1000 -117.51,38.54,1000 -117.54,38.55,1000 -117.57,38.56,1000 -117.59,38.57,1000 -117.62,38.59,1000 -117.64,38.62,1000 -117.67,38.64,1000 -117.69,38.66,1000 -117.71,38.69,1000 -117.72,38.72,1000 -117.74,38.74,1000 -117.74,38.77,1000 -117.75,38.80,1000 -117.75,38.83,1000 -117.75,38.86,1000 -117.74,38.89,1000 -117.73,38.92,1000 -117.72,38.95,1000 -117.70,38.98,1000 -117.68,39.00,1000 -117.67,39.02,1000 -117.65,39.05,1000 -117.63,39.06,1000 -117.48,39.21,1000 
          </coordinates>
        </LinearRing>
      </innerBoundaryIs>
  </Polygon>
 </MultiGeometry>
</Placemark>
<Placemark>
  <name>1%</name>
  <visibility>1</visibility>
  <styleUrl>#poly_1</styleUrl>
  <MultiGeometry>
    <Polygon>
      <outerBoundaryIs>
        <LinearRing>
          <coordinates>
-122.55,41.69,0 -122.52,41.70,0 -122.50,41.71,0 -122.47,41.72,0 -122.44,41.73,0 -122.41,41.74,0 -122.39,41.75,0 -122.36,41.75,0 -122.33,41.76,0 -122.30,41.76,0 -122.27,41.77,0 -122.24,41.77,0 -122.21,41.77,0 -122.18,41.77,0 -122.15,41.77,0 -122.12,41.76,0 -122.09,41.76,0 -122.06,41.75,0 -122.03,41.75,0 -122.00,41.74,0 -121.98,41.72,0 -121.95,41.71,0 -121.93,41.70,0 -121.91,41.68,0 -121.89,41.66,0 -121.88,41.64,0 -121.87,41.62,0 -121.86,41.60,0 -121.85,41.58,0 -121.84,41.56,0 -121.84,41.53,0 -121.83,41.51,0 -121.82,41.49,0 -121.82,41.46,0 -121.82,41.44,0 -121.81,41.42,0 -121.81,41.39,0 -121.81,41.37,0 -121.81,41.35,0 -121.82,41.33,0 -121.83,41.31,0 -121.84,41.29,0 -121.86,41.27,0 -121.87,41.25,0 -121.89,41.23,0 -121.92,41.21,0 -121.94,41.20,0 -121.96,41.19,0 -121.99,41.18,0 -122.01,41.17,0 -122.04,41.16,0 -122.07,41.15,0 -122.10,41.14,0 -122.13,41.13,0 -122.16,41.13,0 -122.19,41.13,0 -122.22,41.12,0 -122.25,41.12,0 -122.28,41.12,0 -122.31,41.12,0 -122.34,41.12,0 -122.37,41.13,0 -122.40,41.13,0 -122.43,41.14,0 -122.46,41.15,0 -122.48,41.16,0 -122.51,41.17,0 -122.53,41.19,0 -122.55,41.20,0 -122.57,41.22,0 -122.59,41.24,0 -122.60,41.25,0 -122.61,41.27,0 -122.62,41.29,0 -122.64,41.32,0 -122.64,41.34,0 -122.65,41.36,0 -122.66,41.38,0 -122.67,41.40,0 -122.67,41.42,0 -122.67,41.45,0 -122.67,41.47,0 -122.67,41.49,0 -122.67,41.51,0 -122.67,41.54,0 -122.67,41.56,0 -122.55,41.69,0 
          </coordinates>
        </LinearRing>
      </outerBoundaryIs>
      <innerBoundaryIs>
        <LinearRing>
          <coordinates>
-122.30,41.64,1000 -122.29,41.64,1000 -122.28,41.64,1000 -122.27,41.64,1000 -122.24,41.63,1000 -122.23,41.63,1000 -122.22,41.62,1000 -122.20,41.61,1000 -122.19,41.60,1000 -122.17,41.59,1000 -122.15,41.59,1000 -122.13,41.58,1000 -122.12,41.57,1000 -122.10,41.56,1000 -122.08,41.55,1000 -122.07,41.54,1000 -122.05,41.53,1000 -122.04,41.53,1000 -122.03,41.52,1000 -122.00,41.50,1000 -121.99,41.50,1000 -121.99,41.49,1000 -121.99,41.48,1000 -121.99,41.47,1000 -122.01,41.45,1000 -122.02,41.44,1000 -122.02,41.43,1000 -122.03,41.42,1000 -122.04,41.41,1000 -122.05,41.40,1000 -122.06,41.38,1000 -122.07,41.37,1000 -122.08,41.36,1000 -122.10,41.34,1000 -122.11,41.33,1000 -122.12,41.32,1000 -122.13,41.31,1000 -122.14,41.30,1000 -122.14,41.29,1000 -122.15,41.28,1000 -122.17,41.26,1000 -122.18,41.26,1000 -122.19,41.26,1000 -122.20,41.26,1000 -122.21,41.26,1000 -122.22,41.26,1000 -122.25,41.27,1000 -122.26,41.27,1000 -122.27,41.28,1000 -122.29,41.29,1000 -122.30,41.30,1000 -122.32,41.31,1000 -122.34,41.31,1000 -122.36,41.32,1000 -122.37,41.33,1000 -122.39,41.34,1000 -122.41,41.35,1000 -122.42,41.36,1000 -122.44,41.37,1000 -122.45,41.37,1000 -122.46,41.38,1000 -122.49,41.40,1000 -122.50,41.40,1000 -122.50,41.41,1000 -122.50,41.42,1000 -122.50,41.43,1000 -122.48,41.45,1000 -122.47,41.46,1000 -122.47,41.47,1000 -122.46,41.48,1000 -122.45,41.49,1000 -122.44,41.50,1000 -122.43,41.51,1000 -122.42,41.52,1000 -122.41,41.53,1000 -122.40,41.54,1000 -122.39,41.56,1000 -122.38,41.57,1000 -122.36,41.58,1000 -122.35,41.60,1000 -122.34,41.61,1000 -122.30,41.64,1000 
          </coordinates>
        </LinearRing>
      </innerBoundaryIs>
  </Polygon>
 </MultiGeometry>
</Placemark>
<Placemark>
  <name>5%</name>
  <visibility>1</visibility>
  <styleUrl>#poly_5</styleUrl>
  <MultiGeometry>
    <Polygon>
      <outerBoundaryIs>
        <LinearRing>
          <coordinates>
-122.30,41.64,1000 -122.29,41.64,1000 -122.28,41.64,1000 -122.27,41.64,1000 -122.24,41.63,1000 -122.23,41.63,1000 -122.22,41.62,1000 -122.20,41.61,1000 -122.19,41.60,1000 -122.17,41.59,1000 -122.15,41.59,1000 -122.13,41.58,1000 -122.12,41.57,1000 -122.10,41.56,1000 -122.08,41.55,1000 -122.07,41.54,1000 -122.05,41.53,1000 -122.04,41.53,1000 -122.03,41.52,1000 -122.00,41.50,1000 -121.99,41.50,1000 -121.99,41.49,1000 -121.99,41.48,1000 -121.99,41.47,1000 -122.01,41.45,1000 -122.02,41.44,1000 -122.02,41.43,1000 -122.03,41.42,1000 -122.04,41.41,1000 -122.05,41.40,1000 -122.06,41.38,1000 -122.07,41.37,1000 -122.08,41.36,1000 -122.10,41.34,1000 -122.11,41.33,1000 -122.12,41.32,1000 -122.13,41.31,1000 -122.14,41.30,1000 -122.14,41.29,1000 -122.15,41.28,1000 -122.17,41.26,1000 -122.18,41.26,1000 -122.19,41.26,1000 -122.20,41.26,1000 -122.21,41.26,1000 -122.22,41.26,1000 -122.25,41.27,1000 -122.26,41.27,1000 -122.27,41.28,1000 -122.29,41.29,1000 -122.30,41.30,1000 -122.32,41.31,1000 -122.34,41.31,1000 -122.36,41.32,1000 -122.37,41.33,1000 -122.39,41.34,1000 -122.41,41.35,1000 -122.42,41.36,1000 -122.44,41.37,1000 -122.45,41.37,1000 -122.46,41.38,1000 -122.49,41.40,1000 -122.50,41.40,1000 -122.50,41.41,1000 -122.50,41.42,1000 -122.50,41.43,1000 -122.48,41.45,1000 -122.47,41.46,1000 -122.47,41.47,1000 -122.46,41.48,1000 -122.45,41.49,1000 -122.44,41.50,1000 -122.43,41.51,1000 -122.42,41.52,1000 -122.41,41.53,1000 -122.40,41.54,1000 -122.39,41.56,1000 -122.38,41.57,1000 -122.36,41.58,1000 -122.35,41.60,1000 -122.34,41.61,1000 -122.30,41.64,1000 
          </coordinates>
        </LinearRing>
      </outerBoundaryIs>
  </Polygon>
 </MultiGeometry>
</Placemark>
<Placemark>
  <name>5%</name>
  <visibility>1</visibility>
  <styleUrl>#poly_5</styleUrl>
  <MultiGeometry>
    <Polygon>
      <outerBoundaryIs>
        <LinearRing>
          <coordinates>
-117.48,39.21,1000 -117.45,39.23,1000 -117.42,39.24,1000 -117.39,39.25,1000 -117.36,39.26,1000 -117.32,39.27,1000 -117.29,39.27,1000 -117.26,39.27,1000 -117.23,39.26,1000 -117.20,39.25,1000 -117.17,39.23,1000 -117.13,39.21,1000 -117.10,39.19,1000 -117.07,39.17,1000 -117.05,39.15,1000 -117.03,39.14,1000 -117.01,39.12,1000 -116.99,39.10,1000 -116.97,39.09,1000 -116.94,39.07,1000 -116.91,39.06,1000 -116.88,39.04,1000 -116.85,39.02,1000 -116.82,39.00,1000 -116.80,38.99,1000 -116.77,38.97,1000 -116.75,38.95,1000 -116.74,38.94,1000 -116.72,38.92,1000 -116.70,38.90,1000 -116.67,38.88,1000 -116.65,38.85,1000 -116.64,38.83,1000 -116.64,38.80,1000 -116.65,38.78,1000 -116.66,38.75,1000 -116.68,38.72,1000 -116.70,38.70,1000 -116.72,38.67,1000 -116.74,38.65,1000 -116.76,38.63,1000 -116.78,38.61,1000 -116.81,38.60,1000 -116.84,38.58,1000 -116.88,38.57,1000 -116.91,38.56,1000 -116.94,38.56,1000 -116.97,38.55,1000 -117.00,38.55,1000 -117.03,38.54,1000 -117.07,38.54,1000 -117.10,38.53,1000 -117.13,38.52,1000 -117.16,38.52,1000 -117.20,38.51,1000 -117.23,38.51,1000 -117.26,38.50,1000 -117.29,38.50,1000 -117.32,38.50,1000 -117.36,38.50,1000 -117.39,38.51,1000 -117.42,38.52,1000 -117.45,38.53,1000 -117.48,38.54,1000 -117.51,38.54,1000 -117.54,38.55,1000 -117.57,38.56,1000 -117.59,38.57,1000 -117.62,38.59,1000 -117.64,38.62,1000 -117.67,38.64,1000 -117.69,38.66,1000 -117.71,38.69,1000 -117.72,38.72,1000 -117.74,38.74,1000 -117.74,38.77,1000 -117.75,38.80,1000 -117.75,38.83,1000 -117.75,38.86,1000 -117.74,38.89,1000 -117.73,38.92,1000 -117.72,38.95,1000 -117.70,38.98,1000 -117.68,39.00,1000 -117.67,39.02,1000 -117.65,39.05,1000 -117.63,39.06,1000 -117.48,39.21,1000 
          </coordinates>
        </LinearRing>
      </outerBoundaryIs>
      <innerBoundaryIs>
        <LinearRing>
          <coordinates>
-117.45,39.11,2000 -117.42,39.12,2000 -117.39,39.12,2000 -117.36,39.13,2000 -117.34,39.13,2000 -117.31,39.14,2000 -117.29,39.14,2000 -117.27,39.15,2000 -117.25,39.15,2000 -117.23,39.15,2000 -117.21,39.15,2000 -117.20,39.14,2000 -117.18,39.12,2000 -117.17,39.11,2000 -117.15,39.10,2000 -117.13,39.08,2000 -117.11,39.07,2000 -117.09,39.05,2000 -117.07,39.03,2000 -117.05,39.01,2000 -117.03,39.00,2000 -117.02,38.98,2000 -117.00,38.97,2000 -116.99,38.96,2000 -116.97,38.94,2000 -116.97,38.93,2000 -116.95,38.92,2000 -116.93,38.91,2000 -116.91,38.90,2000 -116.89,38.88,2000 -116.87,38.87,2000 -116.84,38.86,2000 -116.82,38.84,2000 -116.81,38.82,2000 -116.80,38.81,2000 -116.80,38.79,2000 -116.81,38.77,2000 -116.82,38.76,2000 -116.84,38.74,2000 -116.86,38.72,2000 -116.88,38.70,2000 -116.90,38.69,2000 -116.92,38.68,2000 -116.94,38.67,2000 -116.96,38.67,2000 -116.99,38.66,2000 -117.02,38.66,2000 -117.04,38.65,2000 -117.07,38.65,2000 -117.09,38.65,2000 -117.12,38.64,2000 -117.14,38.63,2000 -117.17,38.63,2000 -117.19,38.62,2000 -117.22,38.61,2000 -117.24,38.60,2000 -117.26,38.59,2000 -117.29,38.59,2000 -117.31,38.59,2000 -117.34,38.59,2000 -117.36,38.59,2000 -117.39,38.60,2000 -117.41,38.61,2000 -117.44,38.62,2000 -117.47,38.63,2000 -117.49,38.64,2000 -117.52,38.65,2000 -117.54,38.66,2000 -117.57,38.67,2000 -117.58,38.69,2000 -117.60,38.70,2000 -117.62,38.72,2000 -117.63,38.73,2000 -117.64,38.75,2000 -117.64,38.77,2000 -117.65,38.79,2000 -117.65,38.82,2000 -117.65,38.84,2000 -117.65,38.86,2000 -117.64,38.88,2000 -117.63,38.90,2000 -117.63,38.91,2000 -117.62,38.93,2000 -117.61,38.94,2000 -117.60,38.96,2000 -117.58,38.98,2000 -117.57,38.99,2000 -117.55,39.01,2000 -117.54,39.03,2000 -117.52,39.05,2000 -117.51,39.06,2000 -117.49,39.08,2000 -117.45,39.11,2000 
          </coordinates>
        </LinearRing>
      </innerBoundaryIs>
  </Polygon>
 </MultiGeometry>
</Placemark>
<Placemark>
  <name>5%</name>
  <visibility>1</visibility>
  <styleUrl>#poly_5</styleUrl>
  <MultiGeometry>
    <Polygon>
      <outerBoundaryIs>
        <LinearRing>
          <coordinates>
-120.58,39.59,1000 -120.43,39.61,1000 -120.31,39.62,1000 -120.16,39.57,1000 -120.08,39.53,1000 -120.00,39.47,1000 -119.96,39.39,1000 -119.91,39.28,1000 -119.85,39.18,1000 -119.78,39.08,1000 -119.71,38.98,1000 -119.63,38.90,1000 -119.55,38.83,1000 -119.46,38.77,1000 -119.32,38.72,1000 -119.19,38.69,1000 -119.11,38.65,1000 -119.04,38.59,1000 -118.98,38.52,1000 -118.92,38.43,1000 -118.88,38.35,1000 -118.88,38.23,1000 -118.86,38.13,1000 -118.74,38.06,1000 -118.59,38.01,1000 -118.43,38.02,1000 -118.28,38.03,1000 -118.16,38.01,1000 -118.07,37.96,1000 -117.99,37.88,1000 -117.94,37.78,1000 -117.90,37.69,1000 -117.90,37.58,1000 -117.93,37.49,1000 -117.98,37.39,1000 -118.01,37.28,1000 -118.00,37.18,1000 -117.98,37.07,1000 -117.95,36.96,1000 -117.93,36.85,1000 -117.91,36.73,1000 -117.89,36.61,1000 -117.88,36.49,1000 -117.87,36.40,1000 -117.89,36.29,1000 -117.94,36.22,1000 -118.01,36.15,1000 -118.10,36.10,1000 -118.22,36.08,1000 -118.35,36.07,1000 -118.45,36.07,1000 -118.55,36.08,1000 -118.70,36.12,1000 -118.85,36.18,1000 -118.93,36.25,1000 -119.00,36.33,1000 -119.06,36.43,1000 -119.10,36.52,1000 -119.14,36.62,1000 -119.18,36.74,1000 -119.24,36.85,1000 -119.31,36.95,1000 -119.39,37.05,1000 -119.47,37.16,1000 -119.55,37.26,1000 -119.62,37.34,1000 -119.70,37.43,1000 -119.76,37.50,1000 -119.81,37.56,1000 -119.85,37.66,1000 -119.90,37.76,1000 -119.96,37.83,1000 -120.03,37.90,1000 -120.10,37.99,1000 -120.15,38.08,1000 -120.19,38.19,1000 -120.23,38.30,1000 -120.28,38.39,1000 -120.35,38.47,1000 -120.41,38.53,1000 -120.48,38.66,1000 -120.51,38.75,1000 -120.53,38.86,1000 -120.56,38.98,1000 -120.58,39.11,1000 -120.60,39.25,1000 -120.63,39.39,1000 -120.65,39.54,1000 -120.58,39.59,1000 
          </coordinates>
        </LinearRing>
      </outerBoundaryIs>
      <innerBoundaryIs>
        <LinearRing>
          <coordinates>
-120.55,39.47,2000 -120.39,39.50,2000 -120.25,39.50,2000 -120.15,39.44,2000 -120.08,39.34,2000 -120.04,39.27,2000 -120.00,39.19,2000 -119.95,39.10,2000 -119.87,39.01,2000 -119.76,38.91,2000 -119.65,38.83,2000 -119.53,38.77,2000 -119.39,38.72,2000 -119.27,38.66,2000 -119.16,38.59,2000 -119.06,38.51,2000 -118.98,38.41,2000 -118.95,38.31,2000 -118.94,38.19,2000 -118.91,38.08,2000 -118.84,37.99,2000 -118.72,37.95,2000 -118.56,37.92,2000 -118.39,37.91,2000 -118.23,37.89,2000 -118.11,37.87,2000 -118.00,37.78,2000 -117.99,37.68,2000 -117.99,37.60,2000 -118.01,37.53,2000 -118.06,37.46,2000 -118.10,37.39,2000 -118.11,37.31,2000 -118.09,37.19,2000 -118.06,37.10,2000 -118.02,36.99,2000 -117.99,36.87,2000 -117.96,36.75,2000 -117.94,36.63,2000 -117.94,36.51,2000 -117.94,36.39,2000 -117.97,36.30,2000 -118.06,36.21,2000 -118.18,36.14,2000 -118.31,36.11,2000 -118.46,36.11,2000 -118.62,36.14,2000 -118.75,36.19,2000 -118.84,36.26,2000 -118.91,36.35,2000 -118.98,36.45,2000 -119.03,36.54,2000 -119.07,36.64,2000 -119.12,36.74,2000 -119.19,36.86,2000 -119.25,36.94,2000 -119.31,37.03,2000 -119.38,37.12,2000 -119.46,37.22,2000 -119.53,37.31,2000 -119.60,37.41,2000 -119.67,37.51,2000 -119.73,37.60,2000 -119.80,37.70,2000 -119.87,37.80,2000 -119.93,37.91,2000 -120.00,38.01,2000 -120.07,38.12,2000 -120.14,38.24,2000 -120.21,38.36,2000 -120.28,38.48,2000 -120.34,38.59,2000 -120.38,38.68,2000 -120.42,38.82,2000 -120.42,38.92,2000 -120.42,39.00,2000 -120.46,39.11,2000 -120.50,39.20,2000 -120.55,39.47,2000 
          </coordinates>
        </LinearRing>
      </innerBoundaryIs>
  </Polygon>
 </MultiGeometry>
</Placemark>
<Placemark>
  <name>10%</name>
  <visibility>1</visibility>
  <styleUrl>#poly_10</styleUrl>
  <MultiGeometry>
    <Polygon>
      <outerBoundaryIs>
        <LinearRing>
          <coordinates>
-120.55,39.47,2000 -120.39,39.50,2000 -120.25,39.50,2000 -120.15,39.44,2000 -120.08,39.34,2000 -120.04,39.27,2000 -120.00,39.19,2000 -119.95,39.10,2000 -119.87,39.01,2000 -119.76,38.91,2000 -119.65,38.83,2000 -119.53,38.77,2000 -119.39,38.72,2000 -119.27,38.66,2000 -119.16,38.59,2000 -119.06,38.51,2000 -118.98,38.41,2000 -118.95,38.31,2000 -118.94,38.19,2000 -118.91,38.08,2000 -118.84,37.99,2000 -118.72,37.95,2000 -118.56,37.92,2000 -118.39,37.91,2000 -118.23,37.89,2000 -118.11,37.87,2000 -118.00,37.78,2000 -117.99,37.68,2000 -117.99,37.60,2000 -118.01,37.53,2000 -118.06,37.46,2000 -118.10,37.39,2000 -118.11,37.31,2000 -118.09,37.19,2000 -118.06,37.10,2000 -118.02,36.99,2000 -117.99,36.87,2000 -117.96,36.75,2000 -117.94,36.63,2000 -117.94,36.51,2000 -117.94,36.39,2000 -117.97,36.30,2000 -118.06,36.21,2000 -118.18,36.14,2000 -118.31,36.11,2000 -118.46,36.11,2000 -118.62,36.14,2000 -118.75,36.19,2000 -118.84,36.26,2000 -118.91,36.35,2000 -118.98,36.45,2000 -119.03,36.54,2000 -119.07,36.64,2000 -119.12,36.74,2000 -119.19,36.86,2000 -119.25,36.94,2000 -119.31,37.03,2000 -119.38,37.12,2000 -119.46,37.22,2000 -119.53,37.31,2000 -119.60,37.41,2000 -119.67,37.51,2000 -119.73,37.60,2000 -119.80,37.70,2000 -119.87,37.80,2000 -119.93,37.91,2000 -120.00,38.01,2000 -120.07,38.12,2000 -120.14,38.24,2000 -120.21,38.36,2000 -120.28,38.48,2000 -120.34,38.59,2000 -120.38,38.68,2000 -120.42,38.82,2000 -120.42,38.92,2000 -120.42,39.00,2000 -120.46,39.11,2000 -120.50,39.20,2000 -120.55,39.47,2000 
          </coordinates>
        </LinearRing>
      </outerBoundaryIs>
      <innerBoundaryIs>
        <LinearRing>
          <coordinates>
-120.22,39.04,3000 -120.10,39.00,3000 -119.99,38.97,3000 -119.89,38.92,3000 -119.82,38.87,3000 -119.77,38.81,3000 -119.68,38.74,3000 -119.59,38.69,3000 -119.48,38.65,3000 -119.36,38.59,3000 -119.24,38.54,3000 -119.16,38.48,3000 -119.10,38.40,3000 -119.07,38.31,3000 -119.05,38.23,3000 -119.02,38.14,3000 -118.97,38.05,3000 -118.91,37.96,3000 -118.85,37.88,3000 -118.79,37.82,3000 -118.70,37.77,3000 -118.60,37.74,3000 -118.52,37.73,3000 -118.43,37.78,3000 -118.34,37.83,3000 -118.22,37.81,3000 -118.14,37.73,3000 -118.16,37.64,3000 -118.21,37.53,3000 -118.24,37.43,3000 -118.24,37.34,3000 -118.22,37.26,3000 -118.20,37.18,3000 -118.16,37.10,3000 -118.11,37.00,3000 -118.09,36.92,3000 -118.07,36.83,3000 -118.05,36.74,3000 -118.04,36.66,3000 -118.02,36.55,3000 -118.03,36.46,3000 -118.07,36.37,3000 -118.12,36.27,3000 -118.20,36.20,3000 -118.32,36.18,3000 -118.45,36.19,3000 -118.58,36.22,3000 -118.68,36.25,3000 -118.77,36.29,3000 -118.84,36.36,3000 -118.88,36.44,3000 -118.92,36.53,3000 -118.95,36.63,3000 -118.98,36.71,3000 -119.03,36.78,3000 -119.11,36.87,3000 -119.15,36.94,3000 -119.21,37.02,3000 -119.27,37.12,3000 -119.33,37.21,3000 -119.39,37.30,3000 -119.44,37.37,3000 -119.52,37.46,3000 -119.59,37.52,3000 -119.65,37.59,3000 -119.70,37.67,3000 -119.75,37.75,3000 -119.81,37.86,3000 -119.85,37.93,3000 -119.89,38.02,3000 -119.94,38.11,3000 -119.98,38.20,3000 -120.03,38.28,3000 -120.07,38.36,3000 -120.13,38.46,3000 -120.19,38.55,3000 -120.24,38.63,3000 -120.28,38.70,3000 -120.31,38.79,3000 -120.31,38.85,3000 -120.22,39.04,3000 
          </coordinates>
        </LinearRing>
      </innerBoundaryIs>
  </Polygon>
 </MultiGeometry>
</Placemark>
<Placemark>
  <name>10%</name>
  <visibility>1</visibility>
  <styleUrl>#poly_10</styleUrl>
  <MultiGeometry>
    <Polygon>
      <outerBoundaryIs>
        <LinearRing>
          <coordinates>
-117.45,39.11,2000 -117.42,39.12,2000 -117.39,39.12,2000 -117.36,39.13,2000 -117.34,39.13,2000 -117.31,39.14,2000 -117.29,39.14,2000 -117.27,39.15,2000 -117.25,39.15,2000 -117.23,39.15,2000 -117.21,39.15,2000 -117.20,39.14,2000 -117.18,39.12,2000 -117.17,39.11,2000 -117.15,39.10,2000 -117.13,39.08,2000 -117.11,39.07,2000 -117.09,39.05,2000 -117.07,39.03,2000 -117.05,39.01,2000 -117.03,39.00,2000 -117.02,38.98,2000 -117.00,38.97,2000 -116.99,38.96,2000 -116.97,38.94,2000 -116.97,38.93,2000 -116.95,38.92,2000 -116.93,38.91,2000 -116.91,38.90,2000 -116.89,38.88,2000 -116.87,38.87,2000 -116.84,38.86,2000 -116.82,38.84,2000 -116.81,38.82,2000 -116.80,38.81,2000 -116.80,38.79,2000 -116.81,38.77,2000 -116.82,38.76,2000 -116.84,38.74,2000 -116.86,38.72,2000 -116.88,38.70,2000 -116.90,38.69,2000 -116.92,38.68,2000 -116.94,38.67,2000 -116.96,38.67,2000 -116.99,38.66,2000 -117.02,38.66,2000 -117.04,38.65,2000 -117.07,38.65,2000 -117.09,38.65,2000 -117.12,38.64,2000 -117.14,38.63,2000 -117.17,38.63,2000 -117.19,38.62,2000 -117.22,38.61,2000 -117.24,38.60,2000 -117.26,38.59,2000 -117.29,38.59,2000 -117.31,38.59,2000 -117.34,38.59,2000 -117.36,38.59,2000 -117.39,38.60,2000 -117.41,38.61,2000 -117.44,38.62,2000 -117.47,38.63,2000 -117.49,38.64,2000 -117.52,38.65,2000 -117.54,38.66,2000 -117.57,38.67,2000 -117.58,38.69,2000 -117.60,38.70,2000 -117.62,38.72,2000 -117.63,38.73,2000 -117.64,38.75,2000 -117.64,38.77,2000 -117.65,38.79,2000 -117.65,38.82,2000 -117.65,38.84,2000 -117.65,38.86,2000 -117.64,38.88,2000 -117.63,38.90,2000 -117.63,38.91,2000 -117.62,38.93,2000 -117.61,38.94,2000 -117.60,38.96,2000 -117.58,38.98,2000 -117.57,38.99,2000 -117.55,39.01,2000 -117.54,39.03,2000 -117.52,39.05,2000 -117.51,39.06,2000 -117.49,39.08,2000 -117.45,39.11,2000 
          </coordinates>
        </LinearRing>
      </outerBoundaryIs>
      <innerBoundaryIs>
        <LinearRing>
          <coordinates>
-117.42,38.94,3000 -117.41,38.94,3000 -117.40,38.94,3000 -117.39,38.94,3000 -117.37,38.95,3000 -117.36,38.95,3000 -117.35,38.94,3000 -117.35,38.94,3000 -117.34,38.94,3000 -117.33,38.93,3000 -117.32,38.93,3000 -117.32,38.92,3000 -117.32,38.92,3000 -117.32,38.91,3000 -117.32,38.90,3000 -117.31,38.90,3000 -117.31,38.89,3000 -117.31,38.88,3000 -117.31,38.87,3000 -117.31,38.86,3000 -117.31,38.85,3000 -117.32,38.84,3000 -117.32,38.83,3000 -117.32,38.82,3000 -117.32,38.81,3000 -117.32,38.81,3000 -117.32,38.80,3000 -117.32,38.79,3000 -117.32,38.78,3000 -117.32,38.77,3000 -117.33,38.76,3000 -117.33,38.76,3000 -117.33,38.75,3000 -117.33,38.74,3000 -117.33,38.74,3000 -117.34,38.73,3000 -117.34,38.72,3000 -117.35,38.73,3000 -117.36,38.73,3000 -117.37,38.73,3000 -117.38,38.72,3000 -117.39,38.73,3000 -117.39,38.73,3000 -117.39,38.74,3000 -117.40,38.74,3000 -117.40,38.75,3000 -117.40,38.75,3000 -117.40,38.76,3000 -117.40,38.77,3000 -117.41,38.77,3000 -117.41,38.78,3000 -117.41,38.79,3000 -117.41,38.80,3000 -117.42,38.80,3000 -117.42,38.81,3000 -117.42,38.82,3000 -117.43,38.83,3000 -117.43,38.84,3000 -117.43,38.85,3000 -117.43,38.85,3000 -117.44,38.86,3000 -117.44,38.87,3000 -117.44,38.88,3000 -117.45,38.89,3000 -117.45,38.90,3000 -117.42,38.94,3000 
          </coordinates>
        </LinearRing>
      </innerBoundaryIs>
  </Polygon>
 </MultiGeometry>
</Placemark>
<Placemark>
  <name>20%</name>
  <visibility>1</visibility>
  <styleUrl>#poly_20</styleUrl>
  <MultiGeometry>
    <Polygon>
      <outerBoundaryIs>
        <LinearRing>
          <coordinates>
-117.42,38.94,3000 -117.41,38.94,3000 -117.40,38.94,3000 -117.39,38.94,3000 -117.37,38.95,3000 -117.36,38.95,3000 -117.35,38.94,3000 -117.35,38.94,3000 -117.34,38.94,3000 -117.33,38.93,3000 -117.32,38.93,3000 -117.32,38.92,3000 -117.32,38.92,3000 -117.32,38.91,3000 -117.32,38.90,3000 -117.31,38.90,3000 -117.31,38.89,3000 -117.31,38.88,3000 -117.31,38.87,3000 -117.31,38.86,3000 -117.31,38.85,3000 -117.32,38.84,3000 -117.32,38.83,3000 -117.32,38.82,3000 -117.32,38.81,3000 -117.32,38.81,3000 -117.32,38.80,3000 -117.32,38.79,3000 -117.32,38.78,3000 -117.32,38.77,3000 -117.33,38.76,3000 -117.33,38.76,3000 -117.33,38.75,3000 -117.33,38.74,3000 -117.33,38.74,3000 -117.34,38.73,3000 -117.34,38.72,3000 -117.35,38.73,3000 -117.36,38.73,3000 -117.37,38.73,3000 -117.38,38.72,3000 -117.39,38.73,3000 -117.39,38.73,3000 -117.39,38.74,3000 -117.40,38.74,3000 -117.40,38.75,3000 -117.40,38.75,3000 -117.40,38.76,3000 -117.40,38.77,3000 -117.41,38.77,3000 -117.41,38.78,3000 -117.41,38.79,3000 -117.41,38.80,3000 -117.42,38.80,3000 -117.42,38.81,3000 -117.42,38.82,3000 -117.43,38.83,3000 -117.43,38.84,3000 -117.43,38.85,3000 -117.43,38.85,3000 -117.44,38.86,3000 -117.44,38.87,3000 -117.44,38.88,3000 -117.45,38.89,3000 -117.45,38.90,3000 -117.42,38.94,3000 
          </coordinates>
        </LinearRing>
      </outerBoundaryIs>
  </Polygon>
 </MultiGeometry>
</Placemark>
<Placemark>
  <name>20%</name>
  <visibility>1</visibility>
  <styleUrl>#poly_20</styleUrl>
  <MultiGeometry>
    <Polygon>
      <outerBoundaryIs>
        <LinearRing>
          <coordinates>
-120.22,39.04,3000 -120.10,39.00,3000 -119.99,38.97,3000 -119.89,38.92,3000 -119.82,38.87,3000 -119.77,38.81,3000 -119.68,38.74,3000 -119.59,38.69,3000 -119.48,38.65,3000 -119.36,38.59,3000 -119.24,38.54,3000 -119.16,38.48,3000 -119.10,38.40,3000 -119.07,38.31,3000 -119.05,38.23,3000 -119.02,38.14,3000 -118.97,38.05,3000 -118.91,37.96,3000 -118.85,37.88,3000 -118.79,37.82,3000 -118.70,37.77,3000 -118.60,37.74,3000 -118.52,37.73,3000 -118.43,37.78,3000 -118.34,37.83,3000 -118.22,37.81,3000 -118.14,37.73,3000 -118.16,37.64,3000 -118.21,37.53,3000 -118.24,37.43,3000 -118.24,37.34,3000 -118.22,37.26,3000 -118.20,37.18,3000 -118.16,37.10,3000 -118.11,37.00,3000 -118.09,36.92,3000 -118.07,36.83,3000 -118.05,36.74,3000 -118.04,36.66,3000 -118.02,36.55,3000 -118.03,36.46,3000 -118.07,36.37,3000 -118.12,36.27,3000 -118.20,36.20,3000 -118.32,36.18,3000 -118.45,36.19,3000 -118.58,36.22,3000 -118.68,36.25,3000 -118.77,36.29,3000 -118.84,36.36,3000 -118.88,36.44,3000 -118.92,36.53,3000 -118.95,36.63,3000 -118.98,36.71,3000 -119.03,36.78,3000 -119.11,36.87,3000 -119.15,36.94,3000 -119.21,37.02,3000 -119.27,37.12,3000 -119.33,37.21,3000 -119.39,37.30,3000 -119.44,37.37,3000 -119.52,37.46,3000 -119.59,37.52,3000 -119.65,37.59,3000 -119.70,37.67,3000 -119.75,37.75,3000 -119.81,37.86,3000 -119.85,37.93,3000 -119.89,38.02,3000 -119.94,38.11,3000 -119.98,38.20,3000 -120.03,38.28,3000 -120.07,38.36,3000 -120.13,38.46,3000 -120.19,38.55,3000 -120.24,38.63,3000 -120.28,38.70,3000 -120.31,38.79,3000 -120.31,38.85,3000 -120.22,39.04,3000 
          </coordinates>
        </LinearRing>
      </outerBoundaryIs>
      <innerBoundaryIs>
        <LinearRing>
          <coordinates>
-120.18,38.90,4000 -120.10,38.87,4000 -120.01,38.84,4000 -119.92,38.80,4000 -119.83,38.76,4000 -119.73,38.71,4000 -119.61,38.66,4000 -119.50,38.61,4000 -119.41,38.56,4000 -119.32,38.50,4000 -119.25,38.45,4000 -119.19,38.39,4000 -119.16,38.32,4000 -119.14,38.23,4000 -119.11,38.14,4000 -119.06,38.06,4000 -119.01,37.98,4000 -118.94,37.89,4000 -118.87,37.81,4000 -118.80,37.75,4000 -118.72,37.69,4000 -118.64,37.62,4000 -118.56,37.56,4000 -118.49,37.50,4000 -118.42,37.42,4000 -118.36,37.35,4000 -118.31,37.27,4000 -118.26,37.17,4000 -118.23,37.09,4000 -118.19,37.00,4000 -118.16,36.91,4000 -118.13,36.81,4000 -118.11,36.73,4000 -118.10,36.65,4000 -118.10,36.53,4000 -118.12,36.44,4000 -118.16,36.36,4000 -118.23,36.30,4000 -118.33,36.26,4000 -118.43,36.24,4000 -118.53,36.26,4000 -118.63,36.30,4000 -118.72,36.35,4000 -118.78,36.40,4000 -118.82,36.46,4000 -118.86,36.54,4000 -118.90,36.62,4000 -118.94,36.71,4000 -118.98,36.81,4000 -119.03,36.89,4000 -119.10,36.98,4000 -119.17,37.05,4000 -119.23,37.13,4000 -119.27,37.21,4000 -119.30,37.29,4000 -119.35,37.38,4000 -119.41,37.45,4000 -119.49,37.54,4000 -119.57,37.62,4000 -119.64,37.70,4000 -119.70,37.78,4000 -119.75,37.85,4000 -119.81,37.93,4000 -119.86,38.03,4000 -119.90,38.11,4000 -119.94,38.19,4000 -119.98,38.28,4000 -120.02,38.38,4000 -120.06,38.46,4000 -120.09,38.54,4000 -120.13,38.64,4000 -120.15,38.73,4000 -120.17,38.80,4000 -120.19,38.88,4000 -120.18,38.90,4000 
          </coordinates>
        </LinearRing>
      </innerBoundaryIs>
  </Polygon>
 </MultiGeometry>
</Placemark>
<Placemark>
  <name>30%</name>
  <visibility>1</visibility>
  <styleUrl>#poly_30</styleUrl>
  <MultiGeometry>
    <Polygon>
      <outerBoundaryIs>
        <LinearRing>
          <coordinates>
-120.18,38.90,4000 -120.10,38.87,4000 -120.01,38.84,4000 -119.92,38.80,4000 -119.83,38.76,4000 -119.73,38.71,4000 -119.61,38.66,4000 -119.50,38.61,4000 -119.41,38.56,4000 -119.32,38.50,4000 -119.25,38.45,4000 -119.19,38.39,4000 -119.16,38.32,4000 -119.14,38.23,4000 -119.11,38.14,4000 -119.06,38.06,4000 -119.01,37.98,4000 -118.94,37.89,4000 -118.87,37.81,4000 -118.80,37.75,4000 -118.72,37.69,4000 -118.64,37.62,4000 -118.56,37.56,4000 -118.49,37.50,4000 -118.42,37.42,4000 -118.36,37.35,4000 -118.31,37.27,4000 -118.26,37.17,4000 -118.23,37.09,4000 -118.19,37.00,4000 -118.16,36.91,4000 -118.13,36.81,4000 -118.11,36.73,4000 -118.10,36.65,4000 -118.10,36.53,4000 -118.12,36.44,4000 -118.16,36.36,4000 -118.23,36.30,4000 -118.33,36.26,4000 -118.43,36.24,4000 -118.53,36.26,4000 -118.63,36.30,4000 -118.72,36.35,4000 -118.78,36.40,4000 -118.82,36.46,4000 -118.86,36.54,4000 -118.90,36.62,4000 -118.94,36.71,4000 -118.98,36.81,4000 -119.03,36.89,4000 -119.10,36.98,4000 -119.17,37.05,4000 -119.23,37.13,4000 -119.27,37.21,4000 -119.30,37.29,4000 -119.35,37.38,4000 -119.41,37.45,4000 -119.49,37.54,4000 -119.57,37.62,4000 -119.64,37.70,4000 -119.70,37.78,4000 -119.75,37.85,4000 -119.81,37.93,4000 -119.86,38.03,4000 -119.90,38.11,4000 -119.94,38.19,4000 -119.98,38.28,4000 -120.02,38.38,4000 -120.06,38.46,4000 -120.09,38.54,4000 -120.13,38.64,4000 -120.15,38.73,4000 -120.17,38.80,4000 -120.19,38.88,4000 -120.18,38.90,4000 
          </coordinates>
        </LinearRing>
      </outerBoundaryIs>
      <innerBoundaryIs>
        <LinearRing>
          <coordinates>
-119.91,38.73,5000 -119.83,38.68,5000 -119.75,38.63,5000 -119.67,38.59,5000 -119.58,38.56,5000 -119.48,38.53,5000 -119.40,38.50,5000 -119.32,38.45,5000 -119.26,38.38,5000 -119.23,38.31,5000 -119.20,38.22,5000 -119.16,38.13,5000 -119.13,38.07,5000 -119.09,38.00,5000 -119.05,37.93,5000 -119.00,37.87,5000 -118.95,37.80,5000 -118.88,37.74,5000 -118.81,37.68,5000 -118.73,37.61,5000 -118.65,37.55,5000 -118.58,37.49,5000 -118.52,37.43,5000 -118.46,37.37,5000 -118.41,37.31,5000 -118.36,37.24,5000 -118.32,37.16,5000 -118.28,37.08,5000 -118.25,36.99,5000 -118.22,36.90,5000 -118.19,36.80,5000 -118.17,36.71,5000 -118.15,36.64,5000 -118.14,36.53,5000 -118.15,36.45,5000 -118.19,36.39,5000 -118.26,36.34,5000 -118.35,36.30,5000 -118.44,36.29,5000 -118.53,36.30,5000 -118.62,36.34,5000 -118.69,36.38,5000 -118.74,36.42,5000 -118.77,36.47,5000 -118.81,36.55,5000 -118.84,36.61,5000 -118.88,36.67,5000 -118.92,36.74,5000 -118.97,36.82,5000 -119.01,36.90,5000 -119.05,36.97,5000 -119.09,37.04,5000 -119.12,37.11,5000 -119.16,37.19,5000 -119.20,37.26,5000 -119.24,37.33,5000 -119.28,37.39,5000 -119.34,37.46,5000 -119.40,37.52,5000 -119.47,37.59,5000 -119.53,37.65,5000 -119.59,37.71,5000 -119.65,37.79,5000 -119.70,37.86,5000 -119.74,37.94,5000 -119.79,38.04,5000 -119.82,38.11,5000 -119.85,38.20,5000 -119.88,38.28,5000 -119.91,38.37,5000 -119.94,38.47,5000 -119.97,38.56,5000 -119.91,38.73,5000 
          </coordinates>
        </LinearRing>
      </innerBoundaryIs>
  </Polygon>
 </MultiGeometry>
</Placemark>
<Placemark>
  <name>40%</name>
  <visibility>1</visibility>
  <styleUrl>#poly_40</styleUrl>
  <MultiGeometry>
    <Polygon>
      <outerBoundaryIs>
        <LinearRing>
          <coordinates>
-119.91,38.73,5000 -119.83,38.68,5000 -119.75,38.63,5000 -119.67,38.59,5000 -119.58,38.56,5000 -119.48,38.53,5000 -119.40,38.50,5000 -119.32,38.45,5000 -119.26,38.38,5000 -119.23,38.31,5000 -119.20,38.22,5000 -119.16,38.13,5000 -119.13,38.07,5000 -119.09,38.00,5000 -119.05,37.93,5000 -119.00,37.87,5000 -118.95,37.80,5000 -118.88,37.74,5000 -118.81,37.68,5000 -118.73,37.61,5000 -118.65,37.55,5000 -118.58,37.49,5000 -118.52,37.43,5000 -118.46,37.37,5000 -118.41,37.31,5000 -118.36,37.24,5000 -118.32,37.16,5000 -118.28,37.08,5000 -118.25,36.99,5000 -118.22,36.90,5000 -118.19,36.80,5000 -118.17,36.71,5000 -118.15,36.64,5000 -118.14,36.53,5000 -118.15,36.45,5000 -118.19,36.39,5000 -118.26,36.34,5000 -118.35,36.30,5000 -118.44,36.29,5000 -118.53,36.30,5000 -118.62,36.34,5000 -118.69,36.38,5000 -118.74,36.42,5000 -118.77,36.47,5000 -118.81,36.55,5000 -118.84,36.61,5000 -118.88,36.67,5000 -118.92,36.74,5000 -118.97,36.82,5000 -119.01,36.90,5000 -119.05,36.97,5000 -119.09,37.04,5000 -119.12,37.11,5000 -119.16,37.19,5000 -119.20,37.26,5000 -119.24,37.33,5000 -119.28,37.39,5000 -119.34,37.46,5000 -119.40,37.52,5000 -119.47,37.59,5000 -119.53,37.65,5000 -119.59,37.71,5000 -119.65,37.79,5000 -119.70,37.86,5000 -119.74,37.94,5000 -119.79,38.04,5000 -119.82,38.11,5000 -119.85,38.20,5000 -119.88,38.28,5000 -119.91,38.37,5000 -119.94,38.47,5000 -119.97,38.56,5000 -119.91,38.73,5000 
          </coordinates>
        </LinearRing>
      </outerBoundaryIs>
      <innerBoundaryIs>
        <LinearRing>
          <coordinates>
-119.86,38.51,6000 -119.76,38.51,6000 -119.67,38.50,6000 -119.59,38.50,6000 -119.52,38.49,6000 -119.44,38.48,6000 -119.38,38.42,6000 -119.35,38.37,6000 -119.32,38.31,6000 -119.29,38.24,6000 -119.26,38.16,6000 -119.22,38.09,6000 -119.19,38.01,6000 -119.15,37.95,6000 -119.10,37.88,6000 -119.04,37.81,6000 -118.99,37.75,6000 -118.93,37.69,6000 -118.87,37.63,6000 -118.81,37.58,6000 -118.75,37.53,6000 -118.69,37.48,6000 -118.63,37.42,6000 -118.57,37.37,6000 -118.52,37.32,6000 -118.46,37.26,6000 -118.40,37.20,6000 -118.35,37.14,6000 -118.31,37.07,6000 -118.27,36.99,6000 -118.25,36.92,6000 -118.23,36.84,6000 -118.22,36.75,6000 -118.21,36.66,6000 -118.20,36.58,6000 -118.20,36.51,6000 -118.20,36.45,6000 -118.25,36.37,6000 -118.35,36.36,6000 -118.43,36.35,6000 -118.52,36.36,6000 -118.61,36.40,6000 -118.65,36.45,6000 -118.70,36.51,6000 -118.74,36.58,6000 -118.78,36.66,6000 -118.82,36.73,6000 -118.87,36.80,6000 -118.92,36.87,6000 -118.98,36.93,6000 -119.03,37.00,6000 -119.07,37.06,6000 -119.11,37.13,6000 -119.13,37.20,6000 -119.16,37.26,6000 -119.19,37.32,6000 -119.24,37.37,6000 -119.29,37.42,6000 -119.35,37.47,6000 -119.40,37.53,6000 -119.44,37.59,6000 -119.48,37.66,6000 -119.53,37.73,6000 -119.57,37.81,6000 -119.61,37.88,6000 -119.65,37.95,6000 -119.69,38.02,6000 -119.74,38.08,6000 -119.78,38.15,6000 -119.82,38.22,6000 -119.86,38.51,6000 
          </coordinates>
        </LinearRing>
      </innerBoundaryIs>
  </Polygon>
 </MultiGeometry>
</Placemark>
<Placemark>
  <name>50%</name>
  <visibility>1</visibility>
  <styleUrl>#poly_50</styleUrl>
  <MultiGeometry>
    <Polygon>
      <outerBoundaryIs>
        <LinearRing>
          <coordinates>
-119.86,38.51,6000 -119.76,38.51,6000 -119.67,38.50,6000 -119.59,38.50,6000 -119.52,38.49,6000 -119.44,38.48,6000 -119.38,38.42,6000 -119.35,38.37,6000 -119.32,38.31,6000 -119.29,38.24,6000 -119.26,38.16,6000 -119.22,38.09,6000 -119.19,38.01,6000 -119.15,37.95,6000 -119.10,37.88,6000 -119.04,37.81,6000 -118.99,37.75,6000 -118.93,37.69,6000 -118.87,37.63,6000 -118.81,37.58,6000 -118.75,37.53,6000 -118.69,37.48,6000 -118.63,37.42,6000 -118.57,37.37,6000 -118.52,37.32,6000 -118.46,37.26,6000 -118.40,37.20,6000 -118.35,37.14,6000 -118.31,37.07,6000 -118.27,36.99,6000 -118.25,36.92,6000 -118.23,36.84,6000 -118.22,36.75,6000 -118.21,36.66,6000 -118.20,36.58,6000 -118.20,36.51,6000 -118.20,36.45,6000 -118.25,36.37,6000 -118.35,36.36,6000 -118.43,36.35,6000 -118.52,36.36,6000 -118.61,36.40,6000 -118.65,36.45,6000 -118.70,36.51,6000 -118.74,36.58,6000 -118.78,36.66,6000 -118.82,36.73,6000 -118.87,36.80,6000 -118.92,36.87,6000 -118.98,36.93,6000 -119.03,37.00,6000 -119.07,37.06,6000 -119.11,37.13,6000 -119.13,37.20,6000 -119.16,37.26,6000 -119.19,37.32,6000 -119.24,37.37,6000 -119.29,37.42,6000 -119.35,37.47,6000 -119.40,37.53,6000 -119.44,37.59,6000 -119.48,37.66,6000 -119.53,37.73,6000 -119.57,37.81,6000 -119.61,37.88,6000 -119.65,37.95,6000 -119.69,38.02,6000 -119.74,38.08,6000 -119.78,38.15,6000 -119.82,38.22,6000 -119.86,38.51,6000 
          </coordinates>
        </LinearRing>
      </outerBoundaryIs>
      <innerBoundaryIs>
        <LinearRing>
          <coordinates>
-119.62,38.46,7000 -119.54,38.42,7000 -119.47,38.38,7000 -119.40,38.34,7000 -119.35,38.30,7000 -119.32,38.24,7000 -119.30,38.18,7000 -119.28,38.11,7000 -119.25,38.05,7000 -119.21,37.98,7000 -119.18,37.91,7000 -119.14,37.84,7000 -119.10,37.78,7000 -119.05,37.72,7000 -119.01,37.67,7000 -118.95,37.62,7000 -118.89,37.57,7000 -118.83,37.53,7000 -118.76,37.48,7000 -118.69,37.42,7000 -118.64,37.37,7000 -118.58,37.31,7000 -118.53,37.25,7000 -118.48,37.20,7000 -118.44,37.15,7000 -118.39,37.09,7000 -118.35,37.05,7000 -118.32,36.98,7000 -118.30,36.92,7000 -118.28,36.85,7000 -118.26,36.77,7000 -118.25,36.69,7000 -118.24,36.63,7000 -118.24,36.55,7000 -118.25,36.49,7000 -118.28,36.44,7000 -118.35,36.40,7000 -118.44,36.39,7000 -118.53,36.41,7000 -118.58,36.46,7000 -118.63,36.52,7000 -118.68,36.60,7000 -118.72,36.68,7000 -118.76,36.74,7000 -118.80,36.80,7000 -118.82,36.85,7000 -118.86,36.91,7000 -118.90,36.97,7000 -118.95,37.03,7000 -119.01,37.10,7000 -119.06,37.17,7000 -119.10,37.23,7000 -119.12,37.30,7000 -119.12,37.35,7000 -119.15,37.41,7000 -119.20,37.46,7000 -119.28,37.52,7000 -119.36,37.57,7000 -119.42,37.63,7000 -119.46,37.69,7000 -119.50,37.75,7000 -119.52,37.82,7000 -119.56,37.89,7000 -119.60,37.96,7000 -119.64,38.03,7000 -119.69,38.10,7000 -119.73,38.17,7000 -119.75,38.23,7000 -119.76,38.30,7000 -119.75,38.36,7000 -119.72,38.41,7000 -119.62,38.46,7000 
          </coordinates>
        </LinearRing>
      </innerBoundaryIs>
  </Polygon>
 </MultiGeometry>
</Placemark>
<Placemark>
  <name>60%</name>
  <visibility>1</visibility>
  <styleUrl>#poly_60</styleUrl>
  <MultiGeometry>
    <Polygon>
      <outerBoundaryIs>
        <LinearRing>
          <coordinates>
-119.62,38.46,7000 -119.54,38.42,7000 -119.47,38.38,7000 -119.40,38.34,7000 -119.35,38.30,7000 -119.32,38.24,7000 -119.30,38.18,7000 -119.28,38.11,7000 -119.25,38.05,7000 -119.21,37.98,7000 -119.18,37.91,7000 -119.14,37.84,7000 -119.10,37.78,7000 -119.05,37.72,7000 -119.01,37.67,7000 -118.95,37.62,7000 -118.89,37.57,7000 -118.83,37.53,7000 -118.76,37.48,7000 -118.69,37.42,7000 -118.64,37.37,7000 -118.58,37.31,7000 -118.53,37.25,7000 -118.48,37.20,7000 -118.44,37.15,7000 -118.39,37.09,7000 -118.35,37.05,7000 -118.32,36.98,7000 -118.30,36.92,7000 -118.28,36.85,7000 -118.26,36.77,7000 -118.25,36.69,7000 -118.24,36.63,7000 -118.24,36.55,7000 -118.25,36.49,7000 -118.28,36.44,7000 -118.35,36.40,7000 -118.44,36.39,7000 -118.53,36.41,7000 -118.58,36.46,7000 -118.63,36.52,7000 -118.68,36.60,7000 -118.72,36.68,7000 -118.76,36.74,7000 -118.80,36.80,7000 -118.82,36.85,7000 -118.86,36.91,7000 -118.90,36.97,7000 -118.95,37.03,7000 -119.01,37.10,7000 -119.06,37.17,7000 -119.10,37.23,7000 -119.12,37.30,7000 -119.12,37.35,7000 -119.15,37.41,7000 -119.20,37.46,7000 -119.28,37.52,7000 -119.36,37.57,7000 -119.42,37.63,7000 -119.46,37.69,7000 -119.50,37.75,7000 -119.52,37.82,7000 -119.56,37.89,7000 -119.60,37.96,7000 -119.64,38.03,7000 -119.69,38.10,7000 -119.73,38.17,7000 -119.75,38.23,7000 -119.76,38.30,7000 -119.75,38.36,7000 -119.72,38.41,7000 -119.62,38.46,7000 
          </coordinates>
        </LinearRing>
      </outerBoundaryIs>
      <innerBoundaryIs>
        <LinearRing>
          <coordinates>
-119.60,38.37,8000 -119.54,38.34,8000 -119.49,38.30,8000 -119.45,38.26,8000 -119.43,38.21,8000 -119.42,38.16,8000 -119.40,38.10,8000 -119.36,38.05,8000 -119.31,38.01,8000 -119.26,37.94,8000 -119.24,37.89,8000 -119.22,37.83,8000 -119.20,37.76,8000 -119.18,37.70,8000 -119.16,37.64,8000 -119.13,37.59,8000 -119.07,37.54,8000 -119.00,37.51,8000 -118.92,37.48,8000 -118.85,37.45,8000 -118.79,37.42,8000 -118.74,37.39,8000 -118.69,37.35,8000 -118.64,37.30,8000 -118.60,37.25,8000 -118.55,37.20,8000 -118.50,37.14,8000 -118.45,37.07,8000 -118.41,37.02,8000 -118.38,36.97,8000 -118.34,36.90,8000 -118.33,36.85,8000 -118.32,36.80,8000 -118.30,36.74,8000 -118.28,36.67,8000 -118.29,36.61,8000 -118.32,36.56,8000 -118.37,36.50,8000 -118.43,36.46,8000 -118.48,36.44,8000 -118.53,36.46,8000 -118.57,36.51,8000 -118.62,36.58,8000 -118.65,36.64,8000 -118.69,36.71,8000 -118.73,36.78,8000 -118.77,36.85,8000 -118.80,36.91,8000 -118.85,36.98,8000 -118.90,37.03,8000 -118.94,37.08,8000 -118.98,37.14,8000 -119.01,37.19,8000 -119.03,37.25,8000 -119.03,37.31,8000 -119.01,37.37,8000 -119.02,37.43,8000 -119.05,37.47,8000 -119.10,37.51,8000 -119.16,37.54,8000 -119.22,37.58,8000 -119.28,37.62,8000 -119.34,37.66,8000 -119.40,37.71,8000 -119.45,37.76,8000 -119.48,37.82,8000 -119.51,37.88,8000 -119.54,37.95,8000 -119.56,38.01,8000 -119.58,38.07,8000 -119.61,38.14,8000 -119.63,38.19,8000 -119.65,38.24,8000 -119.60,38.37,8000 
          </coordinates>
        </LinearRing>
      </innerBoundaryIs>
  </Polygon>
 </MultiGeometry>
</Placemark>
<Placemark>
  <name>70%</name>
  <visibility>1</visibility>
  <styleUrl>#poly_70</styleUrl>
  <MultiGeometry>
    <Polygon>
      <outerBoundaryIs>
        <LinearRing>
          <coordinates>
-119.60,38.37,8000 -119.54,38.34,8000 -119.49,38.30,8000 -119.45,38.26,8000 -119.43,38.21,8000 -119.42,38.16,8000 -119.40,38.10,8000 -119.36,38.05,8000 -119.31,38.01,8000 -119.26,37.94,8000 -119.24,37.89,8000 -119.22,37.83,8000 -119.20,37.76,8000 -119.18,37.70,8000 -119.16,37.64,8000 -119.13,37.59,8000 -119.07,37.54,8000 -119.00,37.51,8000 -118.92,37.48,8000 -118.85,37.45,8000 -118.79,37.42,8000 -118.74,37.39,8000 -118.69,37.35,8000 -118.64,37.30,8000 -118.60,37.25,8000 -118.55,37.20,8000 -118.50,37.14,8000 -118.45,37.07,8000 -118.41,37.02,8000 -118.38,36.97,8000 -118.34,36.90,8000 -118.33,36.85,8000 -118.32,36.80,8000 -118.30,36.74,8000 -118.28,36.67,8000 -118.29,36.61,8000 -118.32,36.56,8000 -118.37,36.50,8000 -118.43,36.46,8000 -118.48,36.44,8000 -118.53,36.46,8000 -118.57,36.51,8000 -118.62,36.58,8000 -118.65,36.64,8000 -118.69,36.71,8000 -118.73,36.78,8000 -118.77,36.85,8000 -118.80,36.91,8000 -118.85,36.98,8000 -118.90,37.03,8000 -118.94,37.08,8000 -118.98,37.14,8000 -119.01,37.19,8000 -119.03,37.25,8000 -119.03,37.31,8000 -119.01,37.37,8000 -119.02,37.43,8000 -119.05,37.47,8000 -119.10,37.51,8000 -119.16,37.54,8000 -119.22,37.58,8000 -119.28,37.62,8000 -119.34,37.66,8000 -119.40,37.71,8000 -119.45,37.76,8000 -119.48,37.82,8000 -119.51,37.88,8000 -119.54,37.95,8000 -119.56,38.01,8000 -119.58,38.07,8000 -119.61,38.14,8000 -119.63,38.19,8000 -119.65,38.24,8000 -119.60,38.37,8000 
          </coordinates>
        </LinearRing>
      </outerBoundaryIs>
      <innerBoundaryIs>
        <LinearRing>
          <coordinates>
-118.91,37.40,9000 -118.88,37.38,9000 -118.86,37.36,9000 -118.83,37.34,9000 -118.81,37.32,9000 -118.78,37.30,9000 -118.76,37.28,9000 -118.73,37.26,9000 -118.69,37.24,9000 -118.67,37.23,9000 -118.64,37.21,9000 -118.62,37.19,9000 -118.60,37.16,9000 -118.58,37.13,9000 -118.56,37.11,9000 -118.55,37.08,9000 -118.53,37.05,9000 -118.51,37.02,9000 -118.49,36.99,9000 -118.48,36.96,9000 -118.47,36.93,9000 -118.46,36.90,9000 -118.46,36.87,9000 -118.45,36.84,9000 -118.44,36.81,9000 -118.44,36.78,9000 -118.43,36.75,9000 -118.43,36.72,9000 -118.42,36.68,9000 -118.42,36.65,9000 -118.42,36.62,9000 -118.42,36.60,9000 -118.44,36.56,9000 -118.47,36.54,9000 -118.50,36.53,9000 -118.52,36.54,9000 -118.53,36.56,9000 -118.55,36.59,9000 -118.56,36.61,9000 -118.57,36.64,9000 -118.58,36.67,9000 -118.59,36.70,9000 -118.60,36.73,9000 -118.61,36.76,9000 -118.62,36.79,9000 -118.64,36.82,9000 -118.65,36.85,9000 -118.67,36.88,9000 -118.68,36.91,9000 -118.70,36.93,9000 -118.72,36.96,9000 -118.75,36.98,9000 -118.78,37.00,9000 -118.81,37.02,9000 -118.83,37.04,9000 -118.85,37.06,9000 -118.87,37.08,9000 -118.88,37.10,9000 -118.89,37.12,9000 -118.91,37.15,9000 -118.92,37.18,9000 -118.94,37.22,9000 -118.95,37.25,9000 -118.91,37.40,9000 
          </coordinates>
        </LinearRing>
      </innerBoundaryIs>
  </Polygon>
 </MultiGeometry>
</Placemark>
<Placemark>
  <name>80%</name>
  <visibility>1</visibility>
  <styleUrl>#poly_80</styleUrl>
  <MultiGeometry>
    <Polygon>
      <outerBoundaryIs>
        <LinearRing>
          <coordinates>
-118.91,37.40,9000 -118.88,37.38,9000 -118.86,37.36,9000 -118.83,37.34,9000 -118.81,37.32,9000 -118.78,37.30,9000 -118.76,37.28,9000 -118.73,37.26,9000 -118.69,37.24,9000 -118.67,37.23,9000 -118.64,37.21,9000 -118.62,37.19,9000 -118.60,37.16,9000 -118.58,37.13,9000 -118.56,37.11,9000 -118.55,37.08,9000 -118.53,37.05,9000 -118.51,37.02,9000 -118.49,36.99,9000 -118.48,36.96,9000 -118.47,36.93,9000 -118.46,36.90,9000 -118.46,36.87,9000 -118.45,36.84,9000 -118.44,36.81,9000 -118.44,36.78,9000 -118.43,36.75,9000 -118.43,36.72,9000 -118.42,36.68,9000 -118.42,36.65,9000 -118.42,36.62,9000 -118.42,36.60,9000 -118.44,36.56,9000 -118.47,36.54,9000 -118.50,36.53,9000 -118.52,36.54,9000 -118.53,36.56,9000 -118.55,36.59,9000 -118.56,36.61,9000 -118.57,36.64,9000 -118.58,36.67,9000 -118.59,36.70,9000 -118.60,36.73,9000 -118.61,36.76,9000 -118.62,36.79,9000 -118.64,36.82,9000 -118.65,36.85,9000 -118.67,36.88,9000 -118.68,36.91,9000 -118.70,36.93,9000 -118.72,36.96,9000 -118.75,36.98,9000 -118.78,37.00,9000 -118.81,37.02,9000 -118.83,37.04,9000 -118.85,37.06,9000 -118.87,37.08,9000 -118.88,37.10,9000 -118.89,37.12,9000 -118.91,37.15,9000 -118.92,37.18,9000 -118.94,37.22,9000 -118.95,37.25,9000 -118.91,37.40,9000 
          </coordinates>
        </LinearRing>
      </outerBoundaryIs>
  </Polygon>
 </MultiGeometry>
</Placemark>
    </Folder>
  </Document>
</kml>
