<?xml version="1.0" encoding="UTF-8"?>
<kml xmlns="http://www.opengis.net/kml/2.2">
<Document id="prb_72hsnow_ge02_f072">
<name>WPC 72-Hr Prob of Snow > 2"</name>
  <open>1</open>
  <snippet>Valid 12Z 05/29/2026 - 12Z 06/01/2026</snippet>
  <description></description>
    <Style id="poly_1">
        <IconStyle>
           <color>00000000</color>
           <scale>1</scale>
        </IconStyle>
        <LabelStyle>
            <color>ff26478b</color>
            <scale>0.8</scale>
        </LabelStyle>
        <LineStyle>
            <color>6626478b</color>
            <width>0</width>
        </LineStyle>
	<PolyStyle>
            <color>6626478b</color>
	</PolyStyle>
        <BalloonStyle>
            <text>
                <![CDATA[ <table border=0 width="300"><tr><td style="font-size:10pt;">
                During this forecast period, there is a <b>1-5%</b> probability of snowfall exceeding the depicted amount in the enclosed area.
                <br/><br/>
                *<span style="font-size:8pt;">Note that in cases where this contour is embedded within a 5% contour, 
                the probability of snowfall exceeding the depicted amount is &lt;1%.</span>
                </td></tr></table>]]>
            </text>
        </BalloonStyle>
    </Style>

    <Style id="poly_5">
        <IconStyle>
           <color>00000000</color>
           <scale>1</scale>
        </IconStyle>
        <LabelStyle>
            <color>ff00eeee</color>
            <scale>0.8</scale>
        </LabelStyle>
        <LineStyle>
            <color>6600eeee</color>
            <width>0.4</width>
        </LineStyle>
	<PolyStyle>
	    <color>6600eeee</color>
	</PolyStyle>
        <BalloonStyle>
            <text>
                <![CDATA[ <table border=0 width="300"><tr><td style="font-size:10pt;">
                During this forecast period, there is a <b>5-10%</b> probability of snowfall exceeding the depicted amount in the enclosed area.
                <br/><br/>
                *<span style="font-size:8pt;">Note that in cases where this contour is embedded within a 10% contour, 
                the probability of snowfall exceeding the depicted amount is &lt;5%.</span>
                </td></tr></table>]]>
            </text>
        </BalloonStyle>
    </Style>

    <Style id="poly_10">
        <IconStyle>
           <color>00000000</color>
           <scale>1</scale>
        </IconStyle>
        <LabelStyle>
            <color>ff00ff7f</color>
            <scale>0.8</scale>
        </LabelStyle>
        <LineStyle>
            <color>6600ff7f</color>
            <width>0.4</width>
        </LineStyle>
	<PolyStyle>
	    <color>6600ff7f</color>
	</PolyStyle>
        <BalloonStyle>
            <text>
                <![CDATA[ <table border=0 width="300"><tr><td style="font-size:10pt;">
                During this forecast period, there is a <b>10-20%</b> probability of snowfall exceeding the depicted amount in the enclosed area.
                <br/><br/>
                *<span style="font-size:8pt;">Note that in cases where this contour is embedded within a 20% contour, 
                the probability of snowfall exceeding the depicted amount is &lt;10%.</span>
                </td></tr></table>]]>
            </text>
        </BalloonStyle>
    </Style>
    
    <Style id="poly_20">
        <IconStyle>
            <color>00000000</color>
            <scale>1</scale>
        </IconStyle>
        <LabelStyle>
            <color>ff00cd00</color>
            <scale>0.8</scale>
        </LabelStyle>
        <LineStyle>
            <color>6600cd00</color>
	    <width>0.4</width>
	</LineStyle>
	<PolyStyle>
	    <color>6600cd00</color>
	</PolyStyle>
        <BalloonStyle>
            <text>
                <![CDATA[ <table border=0 width="300"><tr><td style="font-size:10pt;">
                During this forecast period, there is a <b>20-30%</b> probability of snowfall exceeding the depicted amount in the enclosed area.
                <br/><br/>
                *<span style="font-size:8pt;">Note that in cases where this contour is embedded within a 30% contour, 
                the probability of snowfall exceeding the depicted amount is &lt;20%.</span>
                </td></tr></table>]]>
            </text>
        </BalloonStyle>
    </Style>

    <Style id="poly_30">
        <IconStyle>
            <color>00000000</color>
            <scale>1</scale>
        </IconStyle>
        <LabelStyle>
            <color>ff008b00</color>
            <scale>0.8</scale>
        </LabelStyle>
        <LineStyle>
            <color>66008b00</color>
	    <width>0.4</width>
	</LineStyle>
	<PolyStyle>
	    <color>66008b00</color>
	</PolyStyle>
        <BalloonStyle>
            <text>
                <![CDATA[ <table border=0 width="300"><tr><td style="font-size:10pt;">
                During this forecast period, there is a <b>30-40%</b> probability of snowfall exceeding the depicted amount in the enclosed area.
                <br/><br/>
                *<span style="font-size:8pt;">Note that in cases where this contour is embedded within a 40% contour, 
                the probability of snowfall exceeding the depicted amount is &lt;30%.</span>
                </td></tr></table>]]>
            </text>
        </BalloonStyle>
    </Style>

    <Style id="poly_40">
        <IconStyle>
            <color>00000000</color>
            <scale>1</scale>
        </IconStyle>
        <LabelStyle>
            <color>ff8b4e10</color>
            <scale>0.8</scale>
        </LabelStyle>
        <LineStyle>
            <color>668b4e10</color>
	    <width>0.4</width>
	</LineStyle>
	<PolyStyle>
	    <color>668b4e10</color>
	</PolyStyle>
        <BalloonStyle>
            <text>
                <![CDATA[ <table border=0 width="300"><tr><td style="font-size:10pt;">
                During this forecast period, there is a <b>40-50%</b> probability of snowfall exceeding the depicted amount in the enclosed area.
                <br/><br/>
                *<span style="font-size:8pt;">Note that in cases where this contour is embedded within a 50% contour, 
                the probability of snowfall exceeding the depicted amount is &lt;40%.</span>
                </td></tr></table>]]>
            </text>
        </BalloonStyle>
    </Style>

    <Style id="poly_50">
        <IconStyle>
            <color>00000000</color>
            <scale>1</scale>
        </IconStyle>
        <LabelStyle>
            <color>ffff901e</color>
            <scale>0.8</scale>
        </LabelStyle>
        <LineStyle>
            <color>66ff901e</color>
	    <width>0.4</width>
	</LineStyle>
	<PolyStyle>
	    <color>66ff901e</color>
	</PolyStyle>
        <BalloonStyle>
            <text>
                <![CDATA[ <table border=0 width="300"><tr><td style="font-size:10pt;">
                During this forecast period, there is a <b>50-60%</b> probability of snowfall exceeding the depicted amount in the enclosed area.
                <br/><br/>
                *<span style="font-size:8pt;">Note that in cases where this contour is embedded within a 60% contour, 
                the probability of snowfall exceeding the depicted amount is &lt;50%.</span>
                </td></tr></table>]]>
            </text>
        </BalloonStyle>
    </Style>

    <Style id="poly_60">
        <IconStyle>
            <color>00000000</color>
            <scale>1</scale>
        </IconStyle>
        <LabelStyle>
            <color>ffeeb200</color>
            <scale>0.8</scale>
        </LabelStyle>
        <LineStyle>
            <color>66eeb200</color>
	    <width>0.4</width>
	</LineStyle>
	<PolyStyle>
	    <color>66eeb200</color>
	</PolyStyle>
        <BalloonStyle>
            <text>
                <![CDATA[ <table border=0 width="300"><tr><td style="font-size:10pt;">
                During this forecast period, there is a <b>60-70%</b> probability of snowfall exceeding the depicted amount in the enclosed area.
                <br/><br/>
                *<span style="font-size:8pt;">Note that in cases where this contour is embedded within a 70% contour, 
                the probability of snowfall exceeding the depicted amount is &lt;60%.</span>
                </td></tr></table>]]>
            </text>
        </BalloonStyle>
    </Style>
    
    <Style id="poly_70">
        <IconStyle>
            <color>00000000</color>
            <scale>1</scale>
        </IconStyle>
        <LabelStyle>
            <color>ffeeee00</color>
            <scale>0.8</scale>
        </LabelStyle>
        <LineStyle>
            <color>66eeee00</color>
	    <width>0.4</width>
	</LineStyle>
	<PolyStyle>
	    <color>66eeee00</color>
	</PolyStyle>
        <BalloonStyle>
            <text>
                <![CDATA[ <table border=0 width="300"><tr><td style="font-size:10pt;">
                During this forecast period, there is a <b>70-80%</b> probability of snowfall exceeding the depicted amount in the enclosed area.
                <br/><br/>
                *<span style="font-size:8pt;">Note that in cases where this contour is embedded within a 80% contour, 
                the probability of snowfall exceeding the depicted amount is &lt;70%.</span>
                </td></tr></table>]]>
            </text>
        </BalloonStyle>
    </Style>

    <Style id="poly_80">
        <IconStyle>
            <color>00000000</color>
            <scale>1</scale>
        </IconStyle>
        <LabelStyle>
            <color>ff4782ff</color>
            <scale>0.8</scale>
        </LabelStyle>
        <LineStyle>
            <color>664782ff</color>
	    <width>0.4</width>
	</LineStyle>
	<PolyStyle>
	    <color>664782ff</color>
	</PolyStyle>
        <BalloonStyle>
            <text>
                <![CDATA[ <table border=0 width="300"><tr><td style="font-size:10pt;">
                During this forecast period, there is a <b>80-90%</b> probability of snowfall exceeding the depicted amount in the enclosed area.
                <br/><br/>
                *<span style="font-size:8pt;">Note that in cases where this contour is embedded within a 90% contour, 
                the probability of snowfall exceeding the depicted amount is &lt;80%.</span>
                </td></tr></table>]]>
            </text>
        </BalloonStyle>
    </Style>

    <Style id="poly_90">
        <IconStyle>
            <color>00000000</color>
            <scale>1</scale>
        </IconStyle>
        <LabelStyle>
            <color>ff2c2cee</color>
            <scale>0.8</scale>
        </LabelStyle>
        <LineStyle>
            <color>662c2cee</color>
            <width>0.4</width>
        </LineStyle>
        <PolyStyle>
            <color>662c2cee</color>
        </PolyStyle>
        <BalloonStyle>
            <text>
                <![CDATA[ <table border=0 width="300"><tr><td style="font-size:10pt;">
                During this forecast period, there is a <b>90-95%</b> probability of snowfall exceeding the depicted amount in the enclosed area.
                <br/><br/>
                *<span style="font-size:8pt;">Note that in cases where this contour is embedded within a 95% contour, 
                the probability of snowfall exceeding the depicted amount is &lt;90%.</span>
                </td></tr></table>]]>
            </text>
        </BalloonStyle>
    </Style>

    <Style id="poly_95">
        <IconStyle>
            <color>00000000</color>
            <scale>1</scale>
        </IconStyle>
        <LabelStyle>
            <color>ff00008b</color>
            <scale>0.8</scale>
        </LabelStyle>
        <LineStyle>
            <color>6600008b</color>
	    <width>0.4</width>
	</LineStyle>
	<PolyStyle>
	    <color>6600008b</color>
	</PolyStyle>
        <BalloonStyle>
            <text>
                <![CDATA[ <table border=0 width="300"><tr><td style="font-size:10pt;">
                The probability of snowfall exceeding the depicted amount is <b>&ge;95%</b> in the enclosed area during this forecast period.
                </td></tr></table>]]>
            </text>
        </BalloonStyle>
    </Style>

  <ScreenOverlay>
    <name>Logos</name>
    <description></description>
    <Icon>
      <href>https://www.wpc.ncep.noaa.gov/images/noaa_and_nws_logo.png</href>
    </Icon>
   <overlayXY x=".01" y=".01" xunits="fraction" yunits="fraction" />
   <screenXY x=".01" y=".01" xunits="fraction" yunits="fraction" />
   <rotationXY x="0" y="0" xunits="fraction" yunits="fraction" />
   <size x="-1" y="-1" xunits="fraction" yunits="fraction" />
  </ScreenOverlay>
    <Folder>
      <name>Snow Probabilities</name>
      <open>0</open>
<Placemark>
  <name>1%</name>
  <visibility>1</visibility>
  <styleUrl>#poly_1</styleUrl>
  <MultiGeometry>
    <Polygon>
      <outerBoundaryIs>
        <LinearRing>
          <coordinates>
-111.07,41.05,0 -111.03,41.09,0 -110.99,41.12,0 -110.95,41.15,0 -110.90,41.18,0 -110.86,41.20,0 -110.80,41.22,0 -110.75,41.22,0 -110.69,41.23,0 -110.63,41.23,0 -110.57,41.24,0 -110.52,41.24,0 -110.46,41.25,0 -110.40,41.25,0 -110.35,41.25,0 -110.30,41.25,0 -110.25,41.25,0 -110.20,41.24,0 -110.16,41.23,0 -110.11,41.21,0 -110.05,41.17,0 -110.01,41.14,0 -109.97,41.12,0 -109.94,41.11,0 -109.91,41.11,0 -109.87,41.11,0 -109.82,41.11,0 -109.77,41.10,0 -109.72,41.10,0 -109.67,41.09,0 -109.62,41.07,0 -109.57,41.04,0 -109.53,41.01,0 -109.50,40.98,0 -109.48,40.94,0 -109.46,40.90,0 -109.45,40.85,0 -109.44,40.81,0 -109.43,40.77,0 -109.43,40.72,0 -109.44,40.68,0 -109.45,40.64,0 -109.47,40.60,0 -109.51,40.56,0 -109.55,40.53,0 -109.59,40.50,0 -109.64,40.48,0 -109.69,40.46,0 -109.75,40.45,0 -109.81,40.44,0 -109.87,40.43,0 -109.92,40.43,0 -109.98,40.42,0 -110.04,40.42,0 -110.10,40.41,0 -110.16,40.41,0 -110.22,40.41,0 -110.27,40.40,0 -110.33,40.40,0 -110.37,40.39,0 -110.41,40.38,0 -110.44,40.36,0 -110.46,40.33,0 -110.49,40.30,0 -110.52,40.28,0 -110.57,40.27,0 -110.61,40.25,0 -110.66,40.24,0 -110.71,40.23,0 -110.76,40.23,0 -110.81,40.23,0 -110.86,40.24,0 -110.91,40.25,0 -110.95,40.26,0 -110.99,40.28,0 -111.02,40.30,0 -111.05,40.32,0 -111.10,40.34,0 -111.15,40.35,0 -111.20,40.37,0 -111.24,40.39,0 -111.29,40.41,0 -111.33,40.44,0 -111.37,40.47,0 -111.39,40.51,0 -111.41,40.55,0 -111.42,40.60,0 -111.43,40.64,0 -111.44,40.69,0 -111.44,40.73,0 -111.43,40.78,0 -111.42,40.82,0 -111.40,40.86,0 -111.37,40.89,0 -111.33,40.92,0 -111.29,40.95,0 -111.25,40.97,0 -111.20,40.99,0 -111.15,41.01,0 -111.10,41.02,0 -111.07,41.05,0 
          </coordinates>
        </LinearRing>
      </outerBoundaryIs>
      <innerBoundaryIs>
        <LinearRing>
          <coordinates>
-110.84,41.09,1000 -110.80,41.11,1000 -110.75,41.13,1000 -110.71,41.15,1000 -110.66,41.17,1000 -110.62,41.18,1000 -110.57,41.19,1000 -110.53,41.19,1000 -110.48,41.20,1000 -110.43,41.20,1000 -110.39,41.19,1000 -110.34,41.18,1000 -110.30,41.16,1000 -110.25,41.13,1000 -110.21,41.11,1000 -110.18,41.10,1000 -110.14,41.10,1000 -110.10,41.09,1000 -110.06,41.09,1000 -110.00,41.07,1000 -109.95,41.06,1000 -109.90,41.05,1000 -109.86,41.04,1000 -109.81,41.02,1000 -109.77,41.00,1000 -109.74,40.99,1000 -109.71,40.97,1000 -109.68,40.94,1000 -109.66,40.90,1000 -109.64,40.87,1000 -109.62,40.84,1000 -109.59,40.82,1000 -109.58,40.80,1000 -109.59,40.77,1000 -109.60,40.75,1000 -109.62,40.72,1000 -109.63,40.69,1000 -109.64,40.65,1000 -109.66,40.62,1000 -109.68,40.60,1000 -109.71,40.57,1000 -109.75,40.55,1000 -109.78,40.53,1000 -109.82,40.51,1000 -109.86,40.50,1000 -109.91,40.48,1000 -109.95,40.48,1000 -110.00,40.47,1000 -110.05,40.46,1000 -110.10,40.45,1000 -110.14,40.45,1000 -110.19,40.44,1000 -110.23,40.44,1000 -110.28,40.43,1000 -110.32,40.42,1000 -110.37,40.42,1000 -110.41,40.41,1000 -110.46,40.41,1000 -110.50,40.40,1000 -110.55,40.39,1000 -110.59,40.38,1000 -110.64,40.37,1000 -110.68,40.36,1000 -110.73,40.36,1000 -110.78,40.36,1000 -110.83,40.36,1000 -110.88,40.36,1000 -110.92,40.37,1000 -110.97,40.38,1000 -111.01,40.40,1000 -111.06,40.42,1000 -111.10,40.44,1000 -111.14,40.47,1000 -111.17,40.49,1000 -111.20,40.52,1000 -111.22,40.55,1000 -111.23,40.59,1000 -111.24,40.61,1000 -111.26,40.63,1000 -111.27,40.65,1000 -111.26,40.67,1000 -111.25,40.71,1000 -111.25,40.74,1000 -111.25,40.77,1000 -111.25,40.81,1000 -111.23,40.84,1000 -111.21,40.87,1000 -111.17,40.89,1000 -111.13,40.92,1000 -111.10,40.95,1000 -111.06,40.97,1000 -111.02,40.99,1000 -110.98,41.01,1000 -110.95,41.03,1000 -110.91,41.04,1000 -110.84,41.09,1000 
          </coordinates>
        </LinearRing>
      </innerBoundaryIs>
  </Polygon>
 </MultiGeometry>
</Placemark>
<Placemark>
  <name>1%</name>
  <visibility>1</visibility>
  <styleUrl>#poly_1</styleUrl>
  <MultiGeometry>
    <Polygon>
      <outerBoundaryIs>
        <LinearRing>
          <coordinates>
-115.45,50.85,0 -115.43,50.86,0 -115.40,50.86,0 -115.38,50.87,0 -115.36,50.88,0 -115.33,50.88,0 -115.31,50.89,0 -115.29,50.89,0 -115.27,50.89,0 -115.24,50.89,0 -115.22,50.89,0 -115.20,50.89,0 -115.18,50.89,0 -115.16,50.88,0 -115.14,50.87,0 -115.12,50.86,0 -115.10,50.85,0 -115.08,50.84,0 -115.06,50.83,0 -115.04,50.82,0 -115.03,50.81,0 -115.01,50.80,0 -114.99,50.78,0 -114.98,50.77,0 -114.97,50.76,0 -114.96,50.75,0 -114.95,50.73,0 -114.94,50.72,0 -114.93,50.70,0 -114.93,50.69,0 -114.92,50.67,0 -114.92,50.66,0 -114.92,50.64,0 -114.92,50.63,0 -114.93,50.61,0 -114.93,50.60,0 -114.94,50.59,0 -114.95,50.57,0 -114.96,50.56,0 -114.97,50.54,0 -114.99,50.53,0 -115.00,50.51,0 -115.02,50.50,0 -115.04,50.49,0 -115.06,50.48,0 -115.08,50.47,0 -115.10,50.47,0 -115.12,50.47,0 -115.14,50.47,0 -115.16,50.48,0 -115.19,50.48,0 -115.21,50.49,0 -115.24,50.50,0 -115.26,50.51,0 -115.29,50.52,0 -115.31,50.52,0 -115.33,50.53,0 -115.35,50.54,0 -115.37,50.55,0 -115.38,50.55,0 -115.39,50.55,0 -115.40,50.56,0 -115.40,50.57,0 -115.41,50.58,0 -115.42,50.59,0 -115.44,50.60,0 -115.45,50.62,0 -115.46,50.63,0 -115.47,50.64,0 -115.49,50.66,0 -115.50,50.68,0 -115.52,50.69,0 -115.53,50.71,0 -115.45,50.85,0 
          </coordinates>
        </LinearRing>
      </outerBoundaryIs>
  </Polygon>
 </MultiGeometry>
</Placemark>
<Placemark>
  <name>1%</name>
  <visibility>1</visibility>
  <styleUrl>#poly_1</styleUrl>
  <MultiGeometry>
    <Polygon>
      <outerBoundaryIs>
        <LinearRing>
          <coordinates>
-113.68,46.25,0 -113.63,46.27,0 -113.59,46.29,0 -113.54,46.31,0 -113.50,46.33,0 -113.45,46.34,0 -113.40,46.35,0 -113.36,46.36,0 -113.31,46.36,0 -113.26,46.36,0 -113.21,46.36,0 -113.16,46.35,0 -113.10,46.35,0 -113.04,46.33,0 -112.99,46.32,0 -112.95,46.31,0 -112.90,46.29,0 -112.88,46.28,0 -112.85,46.25,0 -112.83,46.22,0 -112.80,46.19,0 -112.78,46.16,0 -112.76,46.12,0 -112.75,46.09,0 -112.75,46.06,0 -112.76,46.02,0 -112.77,45.98,0 -112.79,45.95,0 -112.80,45.92,0 -112.82,45.88,0 -112.84,45.85,0 -112.86,45.82,0 -112.90,45.79,0 -112.94,45.76,0 -112.96,45.73,0 -112.94,45.70,0 -112.91,45.67,0 -112.87,45.64,0 -112.83,45.61,0 -112.81,45.59,0 -112.80,45.57,0 -112.81,45.56,0 -112.82,45.53,0 -112.84,45.50,0 -112.87,45.46,0 -112.89,45.42,0 -112.91,45.39,0 -112.94,45.36,0 -112.97,45.34,0 -113.01,45.33,0 -113.06,45.34,0 -113.11,45.35,0 -113.16,45.37,0 -113.20,45.38,0 -113.23,45.39,0 -113.27,45.41,0 -113.30,45.43,0 -113.34,45.46,0 -113.36,45.49,0 -113.38,45.52,0 -113.38,45.55,0 -113.37,45.59,0 -113.35,45.62,0 -113.33,45.66,0 -113.32,45.68,0 -113.31,45.70,0 -113.33,45.70,0 -113.37,45.71,0 -113.42,45.72,0 -113.48,45.73,0 -113.53,45.74,0 -113.58,45.75,0 -113.63,45.77,0 -113.67,45.78,0 -113.70,45.80,0 -113.73,45.83,0 -113.75,45.86,0 -113.78,45.89,0 -113.80,45.92,0 -113.81,45.96,0 -113.82,45.99,0 -113.82,46.02,0 -113.82,46.06,0 -113.81,46.10,0 -113.79,46.13,0 -113.78,46.17,0 -113.68,46.25,0 
          </coordinates>
        </LinearRing>
      </outerBoundaryIs>
      <innerBoundaryIs>
        <LinearRing>
          <coordinates>
-113.43,46.21,1000 -113.41,46.21,1000 -113.39,46.21,1000 -113.37,46.21,1000 -113.35,46.21,1000 -113.33,46.21,1000 -113.31,46.21,1000 -113.29,46.21,1000 -113.27,46.21,1000 -113.25,46.22,1000 -113.24,46.22,1000 -113.22,46.23,1000 -113.20,46.23,1000 -113.18,46.22,1000 -113.17,46.21,1000 -113.16,46.21,1000 -113.14,46.20,1000 -113.13,46.19,1000 -113.11,46.18,1000 -113.09,46.17,1000 -113.08,46.16,1000 -113.06,46.15,1000 -113.05,46.14,1000 -113.03,46.13,1000 -113.02,46.12,1000 -113.01,46.10,1000 -113.00,46.09,1000 -112.99,46.08,1000 -112.99,46.07,1000 -112.99,46.06,1000 -112.99,46.05,1000 -113.00,46.03,1000 -113.00,46.02,1000 -113.01,46.01,1000 -113.02,45.99,1000 -113.03,45.98,1000 -113.04,45.96,1000 -113.05,45.95,1000 -113.07,45.94,1000 -113.08,45.93,1000 -113.09,45.92,1000 -113.10,45.91,1000 -113.11,45.90,1000 -113.12,45.89,1000 -113.14,45.88,1000 -113.16,45.87,1000 -113.17,45.88,1000 -113.19,45.88,1000 -113.21,45.88,1000 -113.23,45.88,1000 -113.25,45.88,1000 -113.27,45.87,1000 -113.29,45.87,1000 -113.31,45.86,1000 -113.33,45.86,1000 -113.35,45.85,1000 -113.36,45.85,1000 -113.37,45.84,1000 -113.38,45.86,1000 -113.39,45.87,1000 -113.40,45.87,1000 -113.41,45.88,1000 -113.43,45.89,1000 -113.44,45.90,1000 -113.46,45.90,1000 -113.48,45.91,1000 -113.50,45.92,1000 -113.51,45.93,1000 -113.53,45.94,1000 -113.54,45.96,1000 -113.56,45.97,1000 -113.57,45.98,1000 -113.58,45.99,1000 -113.59,46.00,1000 -113.59,46.01,1000 -113.59,46.02,1000 -113.59,46.03,1000 -113.59,46.04,1000 -113.58,46.05,1000 -113.58,46.07,1000 -113.57,46.08,1000 -113.56,46.09,1000 -113.55,46.10,1000 -113.54,46.11,1000 -113.53,46.13,1000 -113.51,46.14,1000 -113.50,46.15,1000 -113.48,46.16,1000 -113.47,46.18,1000 -113.46,46.19,1000 -113.44,46.20,1000 -113.43,46.21,1000 
          </coordinates>
        </LinearRing>
      </innerBoundaryIs>
  </Polygon>
 </MultiGeometry>
</Placemark>
<Placemark>
  <name>1%</name>
  <visibility>1</visibility>
  <styleUrl>#poly_1</styleUrl>
  <MultiGeometry>
    <Polygon>
      <outerBoundaryIs>
        <LinearRing>
          <coordinates>
-71.54,44.51,0 -71.51,44.51,0 -71.48,44.52,0 -71.45,44.52,0 -71.43,44.53,0 -71.40,44.53,0 -71.37,44.53,0 -71.34,44.53,0 -71.32,44.53,0 -71.29,44.53,0 -71.26,44.53,0 -71.23,44.52,0 -71.20,44.51,0 -71.17,44.50,0 -71.14,44.49,0 -71.12,44.48,0 -71.09,44.47,0 -71.07,44.46,0 -71.05,44.45,0 -71.02,44.43,0 -71.01,44.42,0 -70.99,44.41,0 -70.98,44.39,0 -70.97,44.37,0 -70.96,44.35,0 -70.96,44.34,0 -70.95,44.32,0 -70.95,44.30,0 -70.95,44.27,0 -70.94,44.25,0 -70.94,44.23,0 -70.95,44.21,0 -70.95,44.19,0 -70.96,44.17,0 -70.97,44.15,0 -70.98,44.13,0 -70.99,44.11,0 -71.00,44.09,0 -71.02,44.08,0 -71.03,44.06,0 -71.05,44.04,0 -71.06,44.03,0 -71.08,44.01,0 -71.10,44.00,0 -71.12,43.99,0 -71.14,43.98,0 -71.16,43.98,0 -71.19,43.97,0 -71.21,43.97,0 -71.24,43.96,0 -71.27,43.96,0 -71.29,43.95,0 -71.32,43.95,0 -71.35,43.95,0 -71.38,43.95,0 -71.41,43.95,0 -71.44,43.95,0 -71.47,43.95,0 -71.49,43.96,0 -71.52,43.97,0 -71.55,43.98,0 -71.57,43.99,0 -71.60,44.00,0 -71.62,44.01,0 -71.64,44.02,0 -71.66,44.03,0 -71.69,44.05,0 -71.70,44.06,0 -71.72,44.08,0 -71.73,44.10,0 -71.74,44.12,0 -71.75,44.14,0 -71.75,44.16,0 -71.76,44.18,0 -71.77,44.20,0 -71.77,44.22,0 -71.77,44.25,0 -71.77,44.27,0 -71.77,44.29,0 -71.76,44.31,0 -71.76,44.33,0 -71.75,44.35,0 -71.73,44.37,0 -71.72,44.38,0 -71.71,44.40,0 -71.69,44.42,0 -71.68,44.44,0 -71.66,44.46,0 -71.54,44.51,0 
          </coordinates>
        </LinearRing>
      </outerBoundaryIs>
  </Polygon>
 </MultiGeometry>
</Placemark>
<Placemark>
  <name>1%</name>
  <visibility>1</visibility>
  <styleUrl>#poly_1</styleUrl>
  <MultiGeometry>
    <Polygon>
      <outerBoundaryIs>
        <LinearRing>
          <coordinates>
-112.13,45.89,0 -112.00,45.87,0 -111.88,45.83,0 -111.77,45.74,0 -111.67,45.64,0 -111.54,45.56,0 -111.45,45.61,0 -111.31,45.66,0 -111.17,45.65,0 -111.01,45.63,0 -110.86,45.62,0 -110.72,45.64,0 -110.60,45.68,0 -110.47,45.71,0 -110.35,45.71,0 -110.24,45.70,0 -110.10,45.68,0 -109.95,45.65,0 -109.78,45.60,0 -109.61,45.55,0 -109.48,45.51,0 -109.34,45.45,0 -109.25,45.39,0 -109.19,45.32,0 -109.14,45.24,0 -109.11,45.15,0 -109.10,45.04,0 -109.12,44.93,0 -109.15,44.83,0 -109.27,44.74,0 -109.37,44.66,0 -109.36,44.57,0 -109.33,44.46,0 -109.28,44.38,0 -109.22,44.32,0 -109.14,44.27,0 -109.05,44.21,0 -108.97,44.14,0 -108.94,44.06,0 -108.93,43.97,0 -108.92,43.89,0 -108.94,43.81,0 -109.02,43.73,0 -109.10,43.65,0 -109.14,43.59,0 -109.15,43.52,0 -109.12,43.40,0 -109.06,43.28,0 -108.96,43.20,0 -108.86,43.11,0 -108.81,43.02,0 -108.77,42.91,0 -108.76,42.80,0 -108.77,42.70,0 -108.81,42.60,0 -108.87,42.52,0 -108.97,42.47,0 -109.10,42.44,0 -109.23,42.44,0 -109.35,42.46,0 -109.48,42.51,0 -109.59,42.56,0 -109.73,42.63,0 -109.85,42.71,0 -109.95,42.77,0 -110.04,42.83,0 -110.11,42.94,0 -110.19,43.05,0 -110.32,43.11,0 -110.47,43.16,0 -110.59,43.24,0 -110.72,43.34,0 -110.83,43.41,0 -110.94,43.48,0 -111.04,43.54,0 -111.13,43.61,0 -111.19,43.67,0 -111.22,43.75,0 -111.21,43.84,0 -111.19,43.95,0 -111.08,44.06,0 -110.97,44.08,0 -110.81,44.09,0 -110.64,44.10,0 -110.48,44.12,0 -110.37,44.17,0 -110.30,44.26,0 -110.26,44.39,0 -110.25,44.54,0 -110.25,44.66,0 -110.27,44.76,0 -110.36,44.83,0 -110.50,44.85,0 -110.62,44.87,0 -110.72,44.92,0 -110.80,44.97,0 -110.91,45.03,0 -111.01,45.06,0 -111.02,44.98,0 -111.05,44.87,0 -111.13,44.81,0 -111.24,44.75,0 -111.35,44.71,0 -111.48,44.70,0 -111.61,44.71,0 -111.72,44.73,0 -111.81,44.77,0 -111.87,44.83,0 -111.90,44.90,0 -111.93,44.99,0 -111.95,45.09,0 -111.98,45.20,0 -112.02,45.29,0 -112.10,45.31,0 -112.20,45.32,0 -112.32,45.39,0 -112.43,45.48,0 -112.46,45.56,0 -112.45,45.64,0 -112.42,45.71,0 -112.36,45.78,0 -112.13,45.89,0 
          </coordinates>
        </LinearRing>
      </outerBoundaryIs>
      <innerBoundaryIs>
        <LinearRing>
          <coordinates>
-111.32,45.48,1000 -111.28,45.49,1000 -111.25,45.49,1000 -111.21,45.49,1000 -111.17,45.50,1000 -111.14,45.50,1000 -111.11,45.49,1000 -111.08,45.49,1000 -111.05,45.48,1000 -111.01,45.47,1000 -110.98,45.45,1000 -110.96,45.43,1000 -110.94,45.41,1000 -110.93,45.39,1000 -110.93,45.37,1000 -110.94,45.35,1000 -110.96,45.32,1000 -110.98,45.30,1000 -111.01,45.28,1000 -111.03,45.26,1000 -111.04,45.24,1000 -111.05,45.23,1000 -111.07,45.21,1000 -111.08,45.19,1000 -111.09,45.17,1000 -111.11,45.15,1000 -111.12,45.12,1000 -111.14,45.10,1000 -111.15,45.07,1000 -111.17,45.05,1000 -111.18,45.03,1000 -111.19,45.00,1000 -111.20,44.99,1000 -111.21,44.97,1000 -111.23,44.95,1000 -111.25,44.94,1000 -111.27,44.92,1000 -111.30,44.90,1000 -111.33,44.88,1000 -111.36,44.87,1000 -111.38,44.85,1000 -111.40,44.84,1000 -111.43,44.82,1000 -111.45,44.81,1000 -111.47,44.81,1000 -111.49,44.82,1000 -111.52,44.83,1000 -111.54,44.84,1000 -111.57,44.85,1000 -111.60,44.87,1000 -111.63,44.88,1000 -111.66,44.89,1000 -111.69,44.91,1000 -111.71,44.92,1000 -111.74,44.94,1000 -111.76,44.95,1000 -111.77,44.96,1000 -111.78,44.98,1000 -111.78,45.00,1000 -111.77,45.02,1000 -111.76,45.05,1000 -111.75,45.07,1000 -111.74,45.09,1000 -111.74,45.11,1000 -111.74,45.13,1000 -111.72,45.15,1000 -111.70,45.17,1000 -111.68,45.18,1000 -111.66,45.20,1000 -111.63,45.23,1000 -111.61,45.25,1000 -111.58,45.27,1000 -111.56,45.29,1000 -111.54,45.30,1000 -111.51,45.33,1000 -111.49,45.34,1000 -111.47,45.35,1000 -111.32,45.48,1000 
          </coordinates>
        </LinearRing>
      </innerBoundaryIs>
      <innerBoundaryIs>
        <LinearRing>
          <coordinates>
-110.58,45.45,1000 -110.55,45.47,1000 -110.52,45.50,1000 -110.49,45.52,1000 -110.46,45.54,1000 -110.42,45.55,1000 -110.39,45.57,1000 -110.36,45.58,1000 -110.32,45.59,1000 -110.28,45.59,1000 -110.24,45.59,1000 -110.20,45.59,1000 -110.16,45.58,1000 -110.12,45.58,1000 -110.08,45.58,1000 -110.03,45.57,1000 -109.98,45.56,1000 -109.94,45.56,1000 -109.90,45.55,1000 -109.86,45.54,1000 -109.82,45.53,1000 -109.79,45.51,1000 -109.77,45.50,1000 -109.74,45.49,1000 -109.71,45.48,1000 -109.68,45.48,1000 -109.65,45.47,1000 -109.61,45.46,1000 -109.58,45.44,1000 -109.54,45.42,1000 -109.50,45.40,1000 -109.46,45.38,1000 -109.43,45.36,1000 -109.40,45.34,1000 -109.37,45.31,1000 -109.35,45.29,1000 -109.33,45.27,1000 -109.31,45.25,1000 -109.28,45.23,1000 -109.26,45.21,1000 -109.24,45.18,1000 -109.23,45.16,1000 -109.23,45.13,1000 -109.22,45.09,1000 -109.22,45.06,1000 -109.22,45.03,1000 -109.22,45.01,1000 -109.23,44.98,1000 -109.25,44.96,1000 -109.28,44.93,1000 -109.30,44.91,1000 -109.34,44.89,1000 -109.37,44.87,1000 -109.41,44.85,1000 -109.44,44.83,1000 -109.46,44.82,1000 -109.48,44.80,1000 -109.51,44.79,1000 -109.54,44.78,1000 -109.58,44.77,1000 -109.63,44.75,1000 -109.67,44.74,1000 -109.71,44.73,1000 -109.74,44.73,1000 -109.76,44.74,1000 -109.76,44.77,1000 -109.78,44.80,1000 -109.81,44.81,1000 -109.84,44.81,1000 -109.88,44.82,1000 -109.92,44.82,1000 -109.96,44.83,1000 -110.00,44.84,1000 -110.04,44.85,1000 -110.08,44.87,1000 -110.12,44.89,1000 -110.16,44.91,1000 -110.19,44.93,1000 -110.22,44.94,1000 -110.26,44.95,1000 -110.29,44.96,1000 -110.32,44.97,1000 -110.37,44.99,1000 -110.41,45.00,1000 -110.45,45.02,1000 -110.49,45.03,1000 -110.52,45.04,1000 -110.56,45.06,1000 -110.58,45.08,1000 -110.59,45.10,1000 -110.61,45.12,1000 -110.63,45.15,1000 -110.65,45.18,1000 -110.66,45.21,1000 -110.67,45.24,1000 -110.67,45.27,1000 -110.67,45.30,1000 -110.66,45.33,1000 -110.65,45.36,1000 -110.64,45.39,1000 -110.63,45.42,1000 -110.58,45.45,1000 
          </coordinates>
        </LinearRing>
      </innerBoundaryIs>
      <innerBoundaryIs>
        <LinearRing>
          <coordinates>
-109.96,44.56,1000 -109.87,44.57,1000 -109.79,44.57,1000 -109.73,44.56,1000 -109.70,44.53,1000 -109.67,44.48,1000 -109.62,44.44,1000 -109.56,44.38,1000 -109.50,44.33,1000 -109.43,44.28,1000 -109.36,44.24,1000 -109.29,44.21,1000 -109.23,44.18,1000 -109.17,44.15,1000 -109.11,44.10,1000 -109.07,44.05,1000 -109.05,44.00,1000 -109.05,43.94,1000 -109.07,43.87,1000 -109.10,43.81,1000 -109.16,43.76,1000 -109.24,43.72,1000 -109.31,43.68,1000 -109.39,43.66,1000 -109.46,43.64,1000 -109.50,43.61,1000 -109.48,43.56,1000 -109.41,43.51,1000 -109.35,43.45,1000 -109.29,43.40,1000 -109.24,43.36,1000 -109.18,43.30,1000 -109.14,43.24,1000 -109.09,43.18,1000 -109.05,43.11,1000 -109.01,43.05,1000 -108.97,42.99,1000 -108.92,42.93,1000 -108.88,42.87,1000 -108.87,42.81,1000 -108.89,42.75,1000 -108.94,42.69,1000 -109.00,42.64,1000 -109.06,42.60,1000 -109.12,42.57,1000 -109.19,42.57,1000 -109.27,42.58,1000 -109.33,42.60,1000 -109.41,42.62,1000 -109.48,42.65,1000 -109.57,42.69,1000 -109.65,42.73,1000 -109.71,42.77,1000 -109.78,42.81,1000 -109.85,42.85,1000 -109.92,42.90,1000 -109.99,42.95,1000 -110.05,43.00,1000 -110.10,43.04,1000 -110.15,43.10,1000 -110.17,43.16,1000 -110.19,43.22,1000 -110.21,43.27,1000 -110.24,43.32,1000 -110.30,43.36,1000 -110.36,43.39,1000 -110.43,43.41,1000 -110.50,43.44,1000 -110.58,43.48,1000 -110.67,43.53,1000 -110.74,43.57,1000 -110.82,43.61,1000 -110.89,43.66,1000 -110.93,43.72,1000 -110.97,43.78,1000 -110.98,43.84,1000 -110.95,43.89,1000 -110.89,43.93,1000 -110.83,43.95,1000 -110.74,43.93,1000 -110.66,43.88,1000 -110.62,43.82,1000 -110.59,43.75,1000 -110.54,43.69,1000 -110.46,43.63,1000 -110.36,43.58,1000 -110.29,43.56,1000 -110.25,43.60,1000 -110.24,43.70,1000 -110.24,43.76,1000 -110.26,43.84,1000 -110.27,43.92,1000 -110.28,44.00,1000 -110.28,44.07,1000 -110.26,44.15,1000 -110.24,44.21,1000 -110.21,44.28,1000 -110.17,44.34,1000 -109.96,44.56,1000 
          </coordinates>
        </LinearRing>
      </innerBoundaryIs>
  </Polygon>
 </MultiGeometry>
</Placemark>
<Placemark>
  <name>1%</name>
  <visibility>1</visibility>
  <styleUrl>#poly_1</styleUrl>
  <MultiGeometry>
    <Polygon>
      <outerBoundaryIs>
        <LinearRing>
          <coordinates>
-116.20,51.73,0 -116.17,51.74,0 -116.13,51.75,0 -116.09,51.76,0 -116.06,51.77,0 -116.02,51.78,0 -115.99,51.78,0 -115.95,51.79,0 -115.91,51.79,0 -115.87,51.80,0 -115.83,51.80,0 -115.79,51.80,0 -115.75,51.80,0 -115.72,51.80,0 -115.68,51.79,0 -115.64,51.78,0 -115.60,51.77,0 -115.57,51.75,0 -115.54,51.73,0 -115.51,51.71,0 -115.48,51.70,0 -115.45,51.68,0 -115.43,51.67,0 -115.39,51.65,0 -115.36,51.64,0 -115.32,51.63,0 -115.28,51.61,0 -115.24,51.60,0 -115.20,51.58,0 -115.17,51.57,0 -115.14,51.56,0 -115.11,51.54,0 -115.10,51.53,0 -115.09,51.51,0 -115.07,51.50,0 -115.04,51.48,0 -115.01,51.46,0 -114.99,51.44,0 -114.98,51.42,0 -114.98,51.40,0 -114.99,51.38,0 -115.00,51.35,0 -115.02,51.33,0 -115.03,51.31,0 -115.04,51.29,0 -115.04,51.27,0 -115.05,51.25,0 -115.07,51.24,0 -115.09,51.22,0 -115.11,51.20,0 -115.14,51.18,0 -115.17,51.16,0 -115.20,51.14,0 -115.23,51.12,0 -115.26,51.11,0 -115.30,51.10,0 -115.34,51.09,0 -115.38,51.08,0 -115.42,51.08,0 -115.47,51.07,0 -115.51,51.07,0 -115.55,51.07,0 -115.58,51.07,0 -115.62,51.06,0 -115.66,51.06,0 -115.69,51.06,0 -115.73,51.07,0 -115.77,51.07,0 -115.81,51.08,0 -115.86,51.08,0 -115.90,51.09,0 -115.95,51.10,0 -115.99,51.11,0 -116.02,51.12,0 -116.05,51.13,0 -116.07,51.13,0 -116.09,51.15,0 -116.11,51.16,0 -116.14,51.18,0 -116.17,51.19,0 -116.21,51.21,0 -116.25,51.23,0 -116.28,51.25,0 -116.31,51.27,0 -116.33,51.29,0 -116.35,51.32,0 -116.36,51.34,0 -116.36,51.37,0 -116.36,51.40,0 -116.36,51.42,0 -116.36,51.45,0 -116.36,51.48,0 -116.36,51.50,0 -116.35,51.53,0 -116.34,51.56,0 -116.34,51.58,0 -116.33,51.61,0 -116.20,51.73,0 
          </coordinates>
        </LinearRing>
      </outerBoundaryIs>
      <innerBoundaryIs>
        <LinearRing>
          <coordinates>
-115.92,51.67,1000 -115.91,51.67,1000 -115.89,51.67,1000 -115.86,51.66,1000 -115.84,51.66,1000 -115.82,51.66,1000 -115.79,51.65,1000 -115.76,51.65,1000 -115.74,51.65,1000 -115.71,51.64,1000 -115.68,51.64,1000 -115.65,51.63,1000 -115.63,51.62,1000 -115.61,51.62,1000 -115.58,51.61,1000 -115.56,51.60,1000 -115.54,51.59,1000 -115.52,51.58,1000 -115.50,51.57,1000 -115.48,51.56,1000 -115.46,51.55,1000 -115.44,51.54,1000 -115.42,51.53,1000 -115.41,51.51,1000 -115.40,51.50,1000 -115.38,51.48,1000 -115.37,51.47,1000 -115.36,51.45,1000 -115.35,51.43,1000 -115.34,51.42,1000 -115.34,51.41,1000 -115.33,51.40,1000 -115.31,51.38,1000 -115.31,51.38,1000 -115.32,51.37,1000 -115.33,51.36,1000 -115.35,51.35,1000 -115.36,51.34,1000 -115.38,51.33,1000 -115.40,51.31,1000 -115.42,51.30,1000 -115.44,51.29,1000 -115.46,51.27,1000 -115.49,51.26,1000 -115.51,51.25,1000 -115.53,51.24,1000 -115.55,51.23,1000 -115.57,51.22,1000 -115.60,51.22,1000 -115.63,51.21,1000 -115.65,51.21,1000 -115.68,51.21,1000 -115.70,51.21,1000 -115.73,51.21,1000 -115.76,51.21,1000 -115.78,51.22,1000 -115.81,51.22,1000 -115.83,51.22,1000 -115.86,51.23,1000 -115.89,51.24,1000 -115.91,51.25,1000 -115.94,51.25,1000 -115.97,51.26,1000 -115.99,51.27,1000 -116.02,51.28,1000 -116.04,51.29,1000 -116.06,51.30,1000 -116.08,51.30,1000 -116.09,51.31,1000 -116.09,51.32,1000 -116.10,51.33,1000 -116.11,51.34,1000 -116.12,51.35,1000 -116.13,51.37,1000 -116.14,51.39,1000 -116.16,51.40,1000 -116.17,51.42,1000 -116.18,51.43,1000 -116.19,51.45,1000 -116.19,51.46,1000 -116.19,51.48,1000 -116.19,51.49,1000 -116.18,51.50,1000 -116.17,51.51,1000 -116.15,51.53,1000 -116.14,51.54,1000 -116.12,51.55,1000 -116.11,51.56,1000 -116.09,51.57,1000 -116.07,51.59,1000 -116.05,51.60,1000 -116.03,51.61,1000 -116.01,51.62,1000 -115.98,51.64,1000 -115.96,51.65,1000 -115.92,51.67,1000 
          </coordinates>
        </LinearRing>
      </innerBoundaryIs>
  </Polygon>
 </MultiGeometry>
</Placemark>
<Placemark>
  <name>5%</name>
  <visibility>1</visibility>
  <styleUrl>#poly_5</styleUrl>
  <MultiGeometry>
    <Polygon>
      <outerBoundaryIs>
        <LinearRing>
          <coordinates>
-111.32,45.48,1000 -111.28,45.49,1000 -111.25,45.49,1000 -111.21,45.49,1000 -111.17,45.50,1000 -111.14,45.50,1000 -111.11,45.49,1000 -111.08,45.49,1000 -111.05,45.48,1000 -111.01,45.47,1000 -110.98,45.45,1000 -110.96,45.43,1000 -110.94,45.41,1000 -110.93,45.39,1000 -110.93,45.37,1000 -110.94,45.35,1000 -110.96,45.32,1000 -110.98,45.30,1000 -111.01,45.28,1000 -111.03,45.26,1000 -111.04,45.24,1000 -111.05,45.23,1000 -111.07,45.21,1000 -111.08,45.19,1000 -111.09,45.17,1000 -111.11,45.15,1000 -111.12,45.12,1000 -111.14,45.10,1000 -111.15,45.07,1000 -111.17,45.05,1000 -111.18,45.03,1000 -111.19,45.00,1000 -111.20,44.99,1000 -111.21,44.97,1000 -111.23,44.95,1000 -111.25,44.94,1000 -111.27,44.92,1000 -111.30,44.90,1000 -111.33,44.88,1000 -111.36,44.87,1000 -111.38,44.85,1000 -111.40,44.84,1000 -111.43,44.82,1000 -111.45,44.81,1000 -111.47,44.81,1000 -111.49,44.82,1000 -111.52,44.83,1000 -111.54,44.84,1000 -111.57,44.85,1000 -111.60,44.87,1000 -111.63,44.88,1000 -111.66,44.89,1000 -111.69,44.91,1000 -111.71,44.92,1000 -111.74,44.94,1000 -111.76,44.95,1000 -111.77,44.96,1000 -111.78,44.98,1000 -111.78,45.00,1000 -111.77,45.02,1000 -111.76,45.05,1000 -111.75,45.07,1000 -111.74,45.09,1000 -111.74,45.11,1000 -111.74,45.13,1000 -111.72,45.15,1000 -111.70,45.17,1000 -111.68,45.18,1000 -111.66,45.20,1000 -111.63,45.23,1000 -111.61,45.25,1000 -111.58,45.27,1000 -111.56,45.29,1000 -111.54,45.30,1000 -111.51,45.33,1000 -111.49,45.34,1000 -111.47,45.35,1000 -111.32,45.48,1000 
          </coordinates>
        </LinearRing>
      </outerBoundaryIs>
  </Polygon>
 </MultiGeometry>
</Placemark>
<Placemark>
  <name>5%</name>
  <visibility>1</visibility>
  <styleUrl>#poly_5</styleUrl>
  <MultiGeometry>
    <Polygon>
      <outerBoundaryIs>
        <LinearRing>
          <coordinates>
-110.58,45.45,1000 -110.55,45.47,1000 -110.52,45.50,1000 -110.49,45.52,1000 -110.46,45.54,1000 -110.42,45.55,1000 -110.39,45.57,1000 -110.36,45.58,1000 -110.32,45.59,1000 -110.28,45.59,1000 -110.24,45.59,1000 -110.20,45.59,1000 -110.16,45.58,1000 -110.12,45.58,1000 -110.08,45.58,1000 -110.03,45.57,1000 -109.98,45.56,1000 -109.94,45.56,1000 -109.90,45.55,1000 -109.86,45.54,1000 -109.82,45.53,1000 -109.79,45.51,1000 -109.77,45.50,1000 -109.74,45.49,1000 -109.71,45.48,1000 -109.68,45.48,1000 -109.65,45.47,1000 -109.61,45.46,1000 -109.58,45.44,1000 -109.54,45.42,1000 -109.50,45.40,1000 -109.46,45.38,1000 -109.43,45.36,1000 -109.40,45.34,1000 -109.37,45.31,1000 -109.35,45.29,1000 -109.33,45.27,1000 -109.31,45.25,1000 -109.28,45.23,1000 -109.26,45.21,1000 -109.24,45.18,1000 -109.23,45.16,1000 -109.23,45.13,1000 -109.22,45.09,1000 -109.22,45.06,1000 -109.22,45.03,1000 -109.22,45.01,1000 -109.23,44.98,1000 -109.25,44.96,1000 -109.28,44.93,1000 -109.30,44.91,1000 -109.34,44.89,1000 -109.37,44.87,1000 -109.41,44.85,1000 -109.44,44.83,1000 -109.46,44.82,1000 -109.48,44.80,1000 -109.51,44.79,1000 -109.54,44.78,1000 -109.58,44.77,1000 -109.63,44.75,1000 -109.67,44.74,1000 -109.71,44.73,1000 -109.74,44.73,1000 -109.76,44.74,1000 -109.76,44.77,1000 -109.78,44.80,1000 -109.81,44.81,1000 -109.84,44.81,1000 -109.88,44.82,1000 -109.92,44.82,1000 -109.96,44.83,1000 -110.00,44.84,1000 -110.04,44.85,1000 -110.08,44.87,1000 -110.12,44.89,1000 -110.16,44.91,1000 -110.19,44.93,1000 -110.22,44.94,1000 -110.26,44.95,1000 -110.29,44.96,1000 -110.32,44.97,1000 -110.37,44.99,1000 -110.41,45.00,1000 -110.45,45.02,1000 -110.49,45.03,1000 -110.52,45.04,1000 -110.56,45.06,1000 -110.58,45.08,1000 -110.59,45.10,1000 -110.61,45.12,1000 -110.63,45.15,1000 -110.65,45.18,1000 -110.66,45.21,1000 -110.67,45.24,1000 -110.67,45.27,1000 -110.67,45.30,1000 -110.66,45.33,1000 -110.65,45.36,1000 -110.64,45.39,1000 -110.63,45.42,1000 -110.58,45.45,1000 
          </coordinates>
        </LinearRing>
      </outerBoundaryIs>
      <innerBoundaryIs>
        <LinearRing>
          <coordinates>
-110.35,45.49,2000 -110.32,45.49,2000 -110.28,45.49,2000 -110.25,45.50,2000 -110.21,45.50,2000 -110.18,45.50,2000 -110.15,45.50,2000 -110.13,45.50,2000 -110.10,45.50,2000 -110.06,45.49,2000 -110.03,45.49,2000 -110.00,45.48,2000 -109.97,45.47,2000 -109.94,45.47,2000 -109.92,45.47,2000 -109.89,45.47,2000 -109.85,45.46,2000 -109.82,45.45,2000 -109.79,45.45,2000 -109.76,45.44,2000 -109.72,45.43,2000 -109.69,45.42,2000 -109.65,45.41,2000 -109.62,45.40,2000 -109.60,45.39,2000 -109.57,45.38,2000 -109.54,45.37,2000 -109.53,45.36,2000 -109.50,45.34,2000 -109.48,45.33,2000 -109.47,45.31,2000 -109.45,45.29,2000 -109.43,45.27,2000 -109.41,45.25,2000 -109.39,45.23,2000 -109.37,45.21,2000 -109.36,45.19,2000 -109.35,45.17,2000 -109.34,45.15,2000 -109.34,45.13,2000 -109.33,45.10,2000 -109.33,45.08,2000 -109.33,45.06,2000 -109.33,45.04,2000 -109.34,45.02,2000 -109.35,45.00,2000 -109.36,44.98,2000 -109.38,44.96,2000 -109.40,44.94,2000 -109.42,44.93,2000 -109.44,44.91,2000 -109.47,44.89,2000 -109.49,44.88,2000 -109.52,44.87,2000 -109.55,44.86,2000 -109.58,44.86,2000 -109.61,44.85,2000 -109.64,44.85,2000 -109.67,44.85,2000 -109.70,44.85,2000 -109.73,44.86,2000 -109.76,44.86,2000 -109.79,44.87,2000 -109.82,44.88,2000 -109.86,44.89,2000 -109.89,44.90,2000 -109.92,44.92,2000 -109.95,44.93,2000 -109.97,44.94,2000 -109.99,44.95,2000 -110.02,44.96,2000 -110.04,44.97,2000 -110.07,44.97,2000 -110.10,44.98,2000 -110.13,44.99,2000 -110.16,45.00,2000 -110.20,45.01,2000 -110.23,45.02,2000 -110.26,45.03,2000 -110.28,45.04,2000 -110.32,45.05,2000 -110.35,45.06,2000 -110.37,45.07,2000 -110.39,45.09,2000 -110.40,45.11,2000 -110.42,45.12,2000 -110.44,45.14,2000 -110.45,45.17,2000 -110.46,45.19,2000 -110.48,45.21,2000 -110.49,45.24,2000 -110.49,45.26,2000 -110.49,45.28,2000 -110.49,45.30,2000 -110.48,45.32,2000 -110.48,45.34,2000 -110.47,45.37,2000 -110.45,45.39,2000 -110.44,45.41,2000 -110.43,45.43,2000 -110.35,45.49,2000 
          </coordinates>
        </LinearRing>
      </innerBoundaryIs>
  </Polygon>
 </MultiGeometry>
</Placemark>
<Placemark>
  <name>5%</name>
  <visibility>1</visibility>
  <styleUrl>#poly_5</styleUrl>
  <MultiGeometry>
    <Polygon>
      <outerBoundaryIs>
        <LinearRing>
          <coordinates>
-113.43,46.21,1000 -113.41,46.21,1000 -113.39,46.21,1000 -113.37,46.21,1000 -113.35,46.21,1000 -113.33,46.21,1000 -113.31,46.21,1000 -113.29,46.21,1000 -113.27,46.21,1000 -113.25,46.22,1000 -113.24,46.22,1000 -113.22,46.23,1000 -113.20,46.23,1000 -113.18,46.22,1000 -113.17,46.21,1000 -113.16,46.21,1000 -113.14,46.20,1000 -113.13,46.19,1000 -113.11,46.18,1000 -113.09,46.17,1000 -113.08,46.16,1000 -113.06,46.15,1000 -113.05,46.14,1000 -113.03,46.13,1000 -113.02,46.12,1000 -113.01,46.10,1000 -113.00,46.09,1000 -112.99,46.08,1000 -112.99,46.07,1000 -112.99,46.06,1000 -112.99,46.05,1000 -113.00,46.03,1000 -113.00,46.02,1000 -113.01,46.01,1000 -113.02,45.99,1000 -113.03,45.98,1000 -113.04,45.96,1000 -113.05,45.95,1000 -113.07,45.94,1000 -113.08,45.93,1000 -113.09,45.92,1000 -113.10,45.91,1000 -113.11,45.90,1000 -113.12,45.89,1000 -113.14,45.88,1000 -113.16,45.87,1000 -113.17,45.88,1000 -113.19,45.88,1000 -113.21,45.88,1000 -113.23,45.88,1000 -113.25,45.88,1000 -113.27,45.87,1000 -113.29,45.87,1000 -113.31,45.86,1000 -113.33,45.86,1000 -113.35,45.85,1000 -113.36,45.85,1000 -113.37,45.84,1000 -113.38,45.86,1000 -113.39,45.87,1000 -113.40,45.87,1000 -113.41,45.88,1000 -113.43,45.89,1000 -113.44,45.90,1000 -113.46,45.90,1000 -113.48,45.91,1000 -113.50,45.92,1000 -113.51,45.93,1000 -113.53,45.94,1000 -113.54,45.96,1000 -113.56,45.97,1000 -113.57,45.98,1000 -113.58,45.99,1000 -113.59,46.00,1000 -113.59,46.01,1000 -113.59,46.02,1000 -113.59,46.03,1000 -113.59,46.04,1000 -113.58,46.05,1000 -113.58,46.07,1000 -113.57,46.08,1000 -113.56,46.09,1000 -113.55,46.10,1000 -113.54,46.11,1000 -113.53,46.13,1000 -113.51,46.14,1000 -113.50,46.15,1000 -113.48,46.16,1000 -113.47,46.18,1000 -113.46,46.19,1000 -113.44,46.20,1000 -113.43,46.21,1000 
          </coordinates>
        </LinearRing>
      </outerBoundaryIs>
  </Polygon>
 </MultiGeometry>
</Placemark>
<Placemark>
  <name>5%</name>
  <visibility>1</visibility>
  <styleUrl>#poly_5</styleUrl>
  <MultiGeometry>
    <Polygon>
      <outerBoundaryIs>
        <LinearRing>
          <coordinates>
-110.84,41.09,1000 -110.80,41.11,1000 -110.75,41.13,1000 -110.71,41.15,1000 -110.66,41.17,1000 -110.62,41.18,1000 -110.57,41.19,1000 -110.53,41.19,1000 -110.48,41.20,1000 -110.43,41.20,1000 -110.39,41.19,1000 -110.34,41.18,1000 -110.30,41.16,1000 -110.25,41.13,1000 -110.21,41.11,1000 -110.18,41.10,1000 -110.14,41.10,1000 -110.10,41.09,1000 -110.06,41.09,1000 -110.00,41.07,1000 -109.95,41.06,1000 -109.90,41.05,1000 -109.86,41.04,1000 -109.81,41.02,1000 -109.77,41.00,1000 -109.74,40.99,1000 -109.71,40.97,1000 -109.68,40.94,1000 -109.66,40.90,1000 -109.64,40.87,1000 -109.62,40.84,1000 -109.59,40.82,1000 -109.58,40.80,1000 -109.59,40.77,1000 -109.60,40.75,1000 -109.62,40.72,1000 -109.63,40.69,1000 -109.64,40.65,1000 -109.66,40.62,1000 -109.68,40.60,1000 -109.71,40.57,1000 -109.75,40.55,1000 -109.78,40.53,1000 -109.82,40.51,1000 -109.86,40.50,1000 -109.91,40.48,1000 -109.95,40.48,1000 -110.00,40.47,1000 -110.05,40.46,1000 -110.10,40.45,1000 -110.14,40.45,1000 -110.19,40.44,1000 -110.23,40.44,1000 -110.28,40.43,1000 -110.32,40.42,1000 -110.37,40.42,1000 -110.41,40.41,1000 -110.46,40.41,1000 -110.50,40.40,1000 -110.55,40.39,1000 -110.59,40.38,1000 -110.64,40.37,1000 -110.68,40.36,1000 -110.73,40.36,1000 -110.78,40.36,1000 -110.83,40.36,1000 -110.88,40.36,1000 -110.92,40.37,1000 -110.97,40.38,1000 -111.01,40.40,1000 -111.06,40.42,1000 -111.10,40.44,1000 -111.14,40.47,1000 -111.17,40.49,1000 -111.20,40.52,1000 -111.22,40.55,1000 -111.23,40.59,1000 -111.24,40.61,1000 -111.26,40.63,1000 -111.27,40.65,1000 -111.26,40.67,1000 -111.25,40.71,1000 -111.25,40.74,1000 -111.25,40.77,1000 -111.25,40.81,1000 -111.23,40.84,1000 -111.21,40.87,1000 -111.17,40.89,1000 -111.13,40.92,1000 -111.10,40.95,1000 -111.06,40.97,1000 -111.02,40.99,1000 -110.98,41.01,1000 -110.95,41.03,1000 -110.91,41.04,1000 -110.84,41.09,1000 
          </coordinates>
        </LinearRing>
      </outerBoundaryIs>
      <innerBoundaryIs>
        <LinearRing>
          <coordinates>
-110.61,41.11,2000 -110.56,41.11,2000 -110.52,41.11,2000 -110.48,41.11,2000 -110.44,41.11,2000 -110.41,41.11,2000 -110.38,41.11,2000 -110.35,41.10,2000 -110.33,41.09,2000 -110.30,41.09,2000 -110.27,41.08,2000 -110.23,41.08,2000 -110.18,41.07,2000 -110.14,41.06,2000 -110.11,41.05,2000 -110.07,41.04,2000 -110.03,41.02,2000 -109.99,41.01,2000 -109.95,40.99,2000 -109.92,40.98,2000 -109.89,40.97,2000 -109.85,40.96,2000 -109.83,40.94,2000 -109.80,40.92,2000 -109.77,40.90,2000 -109.74,40.87,2000 -109.71,40.84,2000 -109.69,40.82,2000 -109.68,40.79,2000 -109.68,40.76,2000 -109.70,40.72,2000 -109.73,40.69,2000 -109.76,40.66,2000 -109.78,40.63,2000 -109.80,40.61,2000 -109.83,40.59,2000 -109.86,40.58,2000 -109.89,40.57,2000 -109.93,40.55,2000 -109.98,40.54,2000 -110.02,40.52,2000 -110.06,40.51,2000 -110.10,40.50,2000 -110.13,40.49,2000 -110.17,40.49,2000 -110.21,40.48,2000 -110.24,40.48,2000 -110.28,40.47,2000 -110.32,40.46,2000 -110.36,40.46,2000 -110.39,40.45,2000 -110.43,40.44,2000 -110.47,40.44,2000 -110.51,40.43,2000 -110.55,40.42,2000 -110.59,40.42,2000 -110.62,40.41,2000 -110.66,40.40,2000 -110.70,40.40,2000 -110.74,40.40,2000 -110.78,40.40,2000 -110.82,40.41,2000 -110.87,40.41,2000 -110.91,40.42,2000 -110.95,40.43,2000 -110.98,40.44,2000 -111.02,40.45,2000 -111.04,40.47,2000 -111.07,40.50,2000 -111.09,40.52,2000 -111.11,40.54,2000 -111.14,40.57,2000 -111.16,40.60,2000 -111.18,40.63,2000 -111.19,40.66,2000 -111.19,40.69,2000 -111.18,40.73,2000 -111.17,40.76,2000 -111.15,40.80,2000 -111.13,40.83,2000 -111.12,40.85,2000 -111.10,40.87,2000 -111.08,40.88,2000 -111.05,40.90,2000 -111.03,40.92,2000 -110.99,40.93,2000 -110.96,40.96,2000 -110.92,40.98,2000 -110.89,41.00,2000 -110.86,41.02,2000 -110.83,41.03,2000 -110.79,41.05,2000 -110.75,41.06,2000 -110.73,41.06,2000 -110.61,41.11,2000 
          </coordinates>
        </LinearRing>
      </innerBoundaryIs>
  </Polygon>
 </MultiGeometry>
</Placemark>
<Placemark>
  <name>5%</name>
  <visibility>1</visibility>
  <styleUrl>#poly_5</styleUrl>
  <MultiGeometry>
    <Polygon>
      <outerBoundaryIs>
        <LinearRing>
          <coordinates>
-109.96,44.56,1000 -109.87,44.57,1000 -109.79,44.57,1000 -109.73,44.56,1000 -109.70,44.53,1000 -109.67,44.48,1000 -109.62,44.44,1000 -109.56,44.38,1000 -109.50,44.33,1000 -109.43,44.28,1000 -109.36,44.24,1000 -109.29,44.21,1000 -109.23,44.18,1000 -109.17,44.15,1000 -109.11,44.10,1000 -109.07,44.05,1000 -109.05,44.00,1000 -109.05,43.94,1000 -109.07,43.87,1000 -109.10,43.81,1000 -109.16,43.76,1000 -109.24,43.72,1000 -109.31,43.68,1000 -109.39,43.66,1000 -109.46,43.64,1000 -109.50,43.61,1000 -109.48,43.56,1000 -109.41,43.51,1000 -109.35,43.45,1000 -109.29,43.40,1000 -109.24,43.36,1000 -109.18,43.30,1000 -109.14,43.24,1000 -109.09,43.18,1000 -109.05,43.11,1000 -109.01,43.05,1000 -108.97,42.99,1000 -108.92,42.93,1000 -108.88,42.87,1000 -108.87,42.81,1000 -108.89,42.75,1000 -108.94,42.69,1000 -109.00,42.64,1000 -109.06,42.60,1000 -109.12,42.57,1000 -109.19,42.57,1000 -109.27,42.58,1000 -109.33,42.60,1000 -109.41,42.62,1000 -109.48,42.65,1000 -109.57,42.69,1000 -109.65,42.73,1000 -109.71,42.77,1000 -109.78,42.81,1000 -109.85,42.85,1000 -109.92,42.90,1000 -109.99,42.95,1000 -110.05,43.00,1000 -110.10,43.04,1000 -110.15,43.10,1000 -110.17,43.16,1000 -110.19,43.22,1000 -110.21,43.27,1000 -110.24,43.32,1000 -110.30,43.36,1000 -110.36,43.39,1000 -110.43,43.41,1000 -110.50,43.44,1000 -110.58,43.48,1000 -110.67,43.53,1000 -110.74,43.57,1000 -110.82,43.61,1000 -110.89,43.66,1000 -110.93,43.72,1000 -110.97,43.78,1000 -110.98,43.84,1000 -110.95,43.89,1000 -110.89,43.93,1000 -110.83,43.95,1000 -110.74,43.93,1000 -110.66,43.88,1000 -110.62,43.82,1000 -110.59,43.75,1000 -110.54,43.69,1000 -110.46,43.63,1000 -110.36,43.58,1000 -110.29,43.56,1000 -110.25,43.60,1000 -110.24,43.70,1000 -110.24,43.76,1000 -110.26,43.84,1000 -110.27,43.92,1000 -110.28,44.00,1000 -110.28,44.07,1000 -110.26,44.15,1000 -110.24,44.21,1000 -110.21,44.28,1000 -110.17,44.34,1000 -109.96,44.56,1000 
          </coordinates>
        </LinearRing>
      </outerBoundaryIs>
      <innerBoundaryIs>
        <LinearRing>
          <coordinates>
-109.93,44.38,2000 -109.86,44.36,2000 -109.79,44.34,2000 -109.72,44.32,2000 -109.64,44.29,2000 -109.57,44.27,2000 -109.49,44.24,2000 -109.42,44.21,2000 -109.35,44.18,2000 -109.29,44.15,2000 -109.23,44.10,2000 -109.19,44.05,2000 -109.17,43.99,2000 -109.17,43.94,2000 -109.18,43.89,2000 -109.20,43.84,2000 -109.24,43.80,2000 -109.29,43.77,2000 -109.36,43.74,2000 -109.44,43.71,2000 -109.52,43.68,2000 -109.58,43.66,2000 -109.68,43.63,2000 -109.76,43.61,2000 -109.79,43.59,2000 -109.75,43.58,2000 -109.66,43.57,2000 -109.56,43.54,2000 -109.51,43.51,2000 -109.47,43.47,2000 -109.42,43.42,2000 -109.37,43.37,2000 -109.32,43.32,2000 -109.28,43.28,2000 -109.23,43.24,2000 -109.19,43.20,2000 -109.15,43.17,2000 -109.11,43.12,2000 -109.08,43.07,2000 -109.05,43.01,2000 -109.03,42.95,2000 -109.01,42.89,2000 -108.99,42.83,2000 -108.99,42.78,2000 -109.01,42.73,2000 -109.06,42.69,2000 -109.12,42.66,2000 -109.18,42.64,2000 -109.26,42.63,2000 -109.34,42.64,2000 -109.43,42.66,2000 -109.49,42.68,2000 -109.56,42.72,2000 -109.62,42.76,2000 -109.69,42.80,2000 -109.75,42.84,2000 -109.80,42.88,2000 -109.86,42.93,2000 -109.91,42.98,2000 -109.96,43.02,2000 -110.01,43.07,2000 -110.05,43.12,2000 -110.08,43.17,2000 -110.11,43.21,2000 -110.13,43.27,2000 -110.14,43.32,2000 -110.13,43.37,2000 -110.11,43.42,2000 -110.08,43.46,2000 -110.03,43.50,2000 -109.95,43.53,2000 -109.86,43.55,2000 -109.82,43.58,2000 -109.85,43.61,2000 -109.91,43.66,2000 -109.99,43.70,2000 -110.05,43.74,2000 -110.11,43.79,2000 -110.15,43.84,2000 -110.18,43.90,2000 -110.18,43.94,2000 -110.18,43.99,2000 -110.17,44.05,2000 -110.16,44.10,2000 -110.14,44.16,2000 -109.93,44.38,2000 
          </coordinates>
        </LinearRing>
      </innerBoundaryIs>
  </Polygon>
 </MultiGeometry>
</Placemark>
<Placemark>
  <name>5%</name>
  <visibility>1</visibility>
  <styleUrl>#poly_5</styleUrl>
  <MultiGeometry>
    <Polygon>
      <outerBoundaryIs>
        <LinearRing>
          <coordinates>
-115.92,51.67,1000 -115.91,51.67,1000 -115.89,51.67,1000 -115.86,51.66,1000 -115.84,51.66,1000 -115.82,51.66,1000 -115.79,51.65,1000 -115.76,51.65,1000 -115.74,51.65,1000 -115.71,51.64,1000 -115.68,51.64,1000 -115.65,51.63,1000 -115.63,51.62,1000 -115.61,51.62,1000 -115.58,51.61,1000 -115.56,51.60,1000 -115.54,51.59,1000 -115.52,51.58,1000 -115.50,51.57,1000 -115.48,51.56,1000 -115.46,51.55,1000 -115.44,51.54,1000 -115.42,51.53,1000 -115.41,51.51,1000 -115.40,51.50,1000 -115.38,51.48,1000 -115.37,51.47,1000 -115.36,51.45,1000 -115.35,51.43,1000 -115.34,51.42,1000 -115.34,51.41,1000 -115.33,51.40,1000 -115.31,51.38,1000 -115.31,51.38,1000 -115.32,51.37,1000 -115.33,51.36,1000 -115.35,51.35,1000 -115.36,51.34,1000 -115.38,51.33,1000 -115.40,51.31,1000 -115.42,51.30,1000 -115.44,51.29,1000 -115.46,51.27,1000 -115.49,51.26,1000 -115.51,51.25,1000 -115.53,51.24,1000 -115.55,51.23,1000 -115.57,51.22,1000 -115.60,51.22,1000 -115.63,51.21,1000 -115.65,51.21,1000 -115.68,51.21,1000 -115.70,51.21,1000 -115.73,51.21,1000 -115.76,51.21,1000 -115.78,51.22,1000 -115.81,51.22,1000 -115.83,51.22,1000 -115.86,51.23,1000 -115.89,51.24,1000 -115.91,51.25,1000 -115.94,51.25,1000 -115.97,51.26,1000 -115.99,51.27,1000 -116.02,51.28,1000 -116.04,51.29,1000 -116.06,51.30,1000 -116.08,51.30,1000 -116.09,51.31,1000 -116.09,51.32,1000 -116.10,51.33,1000 -116.11,51.34,1000 -116.12,51.35,1000 -116.13,51.37,1000 -116.14,51.39,1000 -116.16,51.40,1000 -116.17,51.42,1000 -116.18,51.43,1000 -116.19,51.45,1000 -116.19,51.46,1000 -116.19,51.48,1000 -116.19,51.49,1000 -116.18,51.50,1000 -116.17,51.51,1000 -116.15,51.53,1000 -116.14,51.54,1000 -116.12,51.55,1000 -116.11,51.56,1000 -116.09,51.57,1000 -116.07,51.59,1000 -116.05,51.60,1000 -116.03,51.61,1000 -116.01,51.62,1000 -115.98,51.64,1000 -115.96,51.65,1000 -115.92,51.67,1000 
          </coordinates>
        </LinearRing>
      </outerBoundaryIs>
      <innerBoundaryIs>
        <LinearRing>
          <coordinates>
-115.89,51.57,2000 -115.87,51.57,2000 -115.86,51.57,2000 -115.84,51.56,2000 -115.82,51.56,2000 -115.81,51.56,2000 -115.79,51.56,2000 -115.78,51.55,2000 -115.76,51.55,2000 -115.75,51.55,2000 -115.73,51.55,2000 -115.72,51.54,2000 -115.70,51.54,2000 -115.69,51.54,2000 -115.68,51.53,2000 -115.67,51.53,2000 -115.66,51.53,2000 -115.65,51.52,2000 -115.64,51.52,2000 -115.63,51.51,2000 -115.62,51.51,2000 -115.61,51.50,2000 -115.61,51.49,2000 -115.60,51.48,2000 -115.60,51.47,2000 -115.60,51.46,2000 -115.60,51.45,2000 -115.60,51.44,2000 -115.59,51.43,2000 -115.59,51.43,2000 -115.59,51.42,2000 -115.59,51.41,2000 -115.58,51.40,2000 -115.58,51.39,2000 -115.57,51.38,2000 -115.57,51.37,2000 -115.57,51.37,2000 -115.57,51.36,2000 -115.56,51.35,2000 -115.58,51.35,2000 -115.59,51.35,2000 -115.60,51.35,2000 -115.61,51.35,2000 -115.63,51.34,2000 -115.64,51.34,2000 -115.66,51.34,2000 -115.68,51.34,2000 -115.69,51.33,2000 -115.71,51.33,2000 -115.73,51.33,2000 -115.75,51.33,2000 -115.76,51.33,2000 -115.78,51.32,2000 -115.79,51.32,2000 -115.81,51.32,2000 -115.82,51.32,2000 -115.83,51.32,2000 -115.85,51.32,2000 -115.86,51.31,2000 -115.87,51.32,2000 -115.88,51.33,2000 -115.88,51.33,2000 -115.89,51.34,2000 -115.90,51.35,2000 -115.90,51.35,2000 -115.91,51.36,2000 -115.91,51.36,2000 -115.92,51.37,2000 -115.93,51.38,2000 -115.93,51.39,2000 -115.94,51.40,2000 -115.95,51.40,2000 -115.96,51.41,2000 -115.96,51.42,2000 -115.97,51.43,2000 -115.98,51.44,2000 -115.99,51.45,2000 -115.99,51.46,2000 -116.00,51.47,2000 -116.01,51.48,2000 -115.89,51.57,2000 
          </coordinates>
        </LinearRing>
      </innerBoundaryIs>
  </Polygon>
 </MultiGeometry>
</Placemark>
<Placemark>
  <name>10%</name>
  <visibility>1</visibility>
  <styleUrl>#poly_10</styleUrl>
  <MultiGeometry>
    <Polygon>
      <outerBoundaryIs>
        <LinearRing>
          <coordinates>
-110.61,41.11,2000 -110.56,41.11,2000 -110.52,41.11,2000 -110.48,41.11,2000 -110.44,41.11,2000 -110.41,41.11,2000 -110.38,41.11,2000 -110.35,41.10,2000 -110.33,41.09,2000 -110.30,41.09,2000 -110.27,41.08,2000 -110.23,41.08,2000 -110.18,41.07,2000 -110.14,41.06,2000 -110.11,41.05,2000 -110.07,41.04,2000 -110.03,41.02,2000 -109.99,41.01,2000 -109.95,40.99,2000 -109.92,40.98,2000 -109.89,40.97,2000 -109.85,40.96,2000 -109.83,40.94,2000 -109.80,40.92,2000 -109.77,40.90,2000 -109.74,40.87,2000 -109.71,40.84,2000 -109.69,40.82,2000 -109.68,40.79,2000 -109.68,40.76,2000 -109.70,40.72,2000 -109.73,40.69,2000 -109.76,40.66,2000 -109.78,40.63,2000 -109.80,40.61,2000 -109.83,40.59,2000 -109.86,40.58,2000 -109.89,40.57,2000 -109.93,40.55,2000 -109.98,40.54,2000 -110.02,40.52,2000 -110.06,40.51,2000 -110.10,40.50,2000 -110.13,40.49,2000 -110.17,40.49,2000 -110.21,40.48,2000 -110.24,40.48,2000 -110.28,40.47,2000 -110.32,40.46,2000 -110.36,40.46,2000 -110.39,40.45,2000 -110.43,40.44,2000 -110.47,40.44,2000 -110.51,40.43,2000 -110.55,40.42,2000 -110.59,40.42,2000 -110.62,40.41,2000 -110.66,40.40,2000 -110.70,40.40,2000 -110.74,40.40,2000 -110.78,40.40,2000 -110.82,40.41,2000 -110.87,40.41,2000 -110.91,40.42,2000 -110.95,40.43,2000 -110.98,40.44,2000 -111.02,40.45,2000 -111.04,40.47,2000 -111.07,40.50,2000 -111.09,40.52,2000 -111.11,40.54,2000 -111.14,40.57,2000 -111.16,40.60,2000 -111.18,40.63,2000 -111.19,40.66,2000 -111.19,40.69,2000 -111.18,40.73,2000 -111.17,40.76,2000 -111.15,40.80,2000 -111.13,40.83,2000 -111.12,40.85,2000 -111.10,40.87,2000 -111.08,40.88,2000 -111.05,40.90,2000 -111.03,40.92,2000 -110.99,40.93,2000 -110.96,40.96,2000 -110.92,40.98,2000 -110.89,41.00,2000 -110.86,41.02,2000 -110.83,41.03,2000 -110.79,41.05,2000 -110.75,41.06,2000 -110.73,41.06,2000 -110.61,41.11,2000 
          </coordinates>
        </LinearRing>
      </outerBoundaryIs>
      <innerBoundaryIs>
        <LinearRing>
          <coordinates>
-110.82,40.96,3000 -110.79,40.97,3000 -110.76,40.99,3000 -110.73,41.00,3000 -110.70,41.01,3000 -110.66,41.02,3000 -110.63,41.03,3000 -110.60,41.04,3000 -110.57,41.04,3000 -110.54,41.05,3000 -110.50,41.05,3000 -110.47,41.05,3000 -110.44,41.05,3000 -110.40,41.04,3000 -110.37,41.04,3000 -110.33,41.03,3000 -110.30,41.03,3000 -110.26,41.02,3000 -110.22,41.01,3000 -110.19,41.00,3000 -110.16,40.99,3000 -110.13,40.98,3000 -110.10,40.97,3000 -110.08,40.96,3000 -110.06,40.96,3000 -110.03,40.94,3000 -110.01,40.93,3000 -109.99,40.91,3000 -109.96,40.89,3000 -109.93,40.87,3000 -109.91,40.85,3000 -109.89,40.83,3000 -109.87,40.82,3000 -109.84,40.79,3000 -109.83,40.78,3000 -109.83,40.77,3000 -109.86,40.74,3000 -109.88,40.73,3000 -109.90,40.71,3000 -109.93,40.69,3000 -109.96,40.67,3000 -109.99,40.65,3000 -110.02,40.63,3000 -110.05,40.61,3000 -110.07,40.60,3000 -110.10,40.59,3000 -110.14,40.58,3000 -110.17,40.58,3000 -110.20,40.57,3000 -110.22,40.57,3000 -110.25,40.57,3000 -110.27,40.57,3000 -110.30,40.56,3000 -110.32,40.55,3000 -110.35,40.55,3000 -110.38,40.54,3000 -110.42,40.53,3000 -110.45,40.52,3000 -110.49,40.52,3000 -110.52,40.51,3000 -110.55,40.50,3000 -110.59,40.50,3000 -110.62,40.49,3000 -110.66,40.49,3000 -110.69,40.48,3000 -110.72,40.48,3000 -110.75,40.48,3000 -110.79,40.48,3000 -110.82,40.49,3000 -110.84,40.50,3000 -110.87,40.51,3000 -110.90,40.52,3000 -110.92,40.54,3000 -110.95,40.56,3000 -110.98,40.58,3000 -111.00,40.60,3000 -111.02,40.62,3000 -111.05,40.63,3000 -111.06,40.65,3000 -111.07,40.67,3000 -111.07,40.69,3000 -111.06,40.71,3000 -111.04,40.74,3000 -111.03,40.76,3000 -111.02,40.78,3000 -111.00,40.80,3000 -110.99,40.82,3000 -110.98,40.84,3000 -110.96,40.86,3000 -110.82,40.96,3000 
          </coordinates>
        </LinearRing>
      </innerBoundaryIs>
  </Polygon>
 </MultiGeometry>
</Placemark>
<Placemark>
  <name>10%</name>
  <visibility>1</visibility>
  <styleUrl>#poly_10</styleUrl>
  <MultiGeometry>
    <Polygon>
      <outerBoundaryIs>
        <LinearRing>
          <coordinates>
-109.93,44.38,2000 -109.86,44.36,2000 -109.79,44.34,2000 -109.72,44.32,2000 -109.64,44.29,2000 -109.57,44.27,2000 -109.49,44.24,2000 -109.42,44.21,2000 -109.35,44.18,2000 -109.29,44.15,2000 -109.23,44.10,2000 -109.19,44.05,2000 -109.17,43.99,2000 -109.17,43.94,2000 -109.18,43.89,2000 -109.20,43.84,2000 -109.24,43.80,2000 -109.29,43.77,2000 -109.36,43.74,2000 -109.44,43.71,2000 -109.52,43.68,2000 -109.58,43.66,2000 -109.68,43.63,2000 -109.76,43.61,2000 -109.79,43.59,2000 -109.75,43.58,2000 -109.66,43.57,2000 -109.56,43.54,2000 -109.51,43.51,2000 -109.47,43.47,2000 -109.42,43.42,2000 -109.37,43.37,2000 -109.32,43.32,2000 -109.28,43.28,2000 -109.23,43.24,2000 -109.19,43.20,2000 -109.15,43.17,2000 -109.11,43.12,2000 -109.08,43.07,2000 -109.05,43.01,2000 -109.03,42.95,2000 -109.01,42.89,2000 -108.99,42.83,2000 -108.99,42.78,2000 -109.01,42.73,2000 -109.06,42.69,2000 -109.12,42.66,2000 -109.18,42.64,2000 -109.26,42.63,2000 -109.34,42.64,2000 -109.43,42.66,2000 -109.49,42.68,2000 -109.56,42.72,2000 -109.62,42.76,2000 -109.69,42.80,2000 -109.75,42.84,2000 -109.80,42.88,2000 -109.86,42.93,2000 -109.91,42.98,2000 -109.96,43.02,2000 -110.01,43.07,2000 -110.05,43.12,2000 -110.08,43.17,2000 -110.11,43.21,2000 -110.13,43.27,2000 -110.14,43.32,2000 -110.13,43.37,2000 -110.11,43.42,2000 -110.08,43.46,2000 -110.03,43.50,2000 -109.95,43.53,2000 -109.86,43.55,2000 -109.82,43.58,2000 -109.85,43.61,2000 -109.91,43.66,2000 -109.99,43.70,2000 -110.05,43.74,2000 -110.11,43.79,2000 -110.15,43.84,2000 -110.18,43.90,2000 -110.18,43.94,2000 -110.18,43.99,2000 -110.17,44.05,2000 -110.16,44.10,2000 -110.14,44.16,2000 -109.93,44.38,2000 
          </coordinates>
        </LinearRing>
      </outerBoundaryIs>
      <innerBoundaryIs>
        <LinearRing>
          <coordinates>
-109.79,43.48,3000 -109.75,43.47,3000 -109.71,43.46,3000 -109.68,43.45,3000 -109.65,43.44,3000 -109.62,43.43,3000 -109.59,43.43,3000 -109.57,43.42,3000 -109.54,43.41,3000 -109.52,43.40,3000 -109.50,43.38,3000 -109.47,43.36,3000 -109.44,43.34,3000 -109.42,43.31,3000 -109.39,43.29,3000 -109.37,43.27,3000 -109.35,43.25,3000 -109.33,43.22,3000 -109.31,43.19,3000 -109.29,43.17,3000 -109.27,43.15,3000 -109.26,43.13,3000 -109.24,43.11,3000 -109.23,43.09,3000 -109.21,43.07,3000 -109.19,43.05,3000 -109.17,43.02,3000 -109.15,42.99,3000 -109.14,42.97,3000 -109.13,42.94,3000 -109.13,42.91,3000 -109.13,42.88,3000 -109.14,42.85,3000 -109.15,42.83,3000 -109.16,42.80,3000 -109.17,42.78,3000 -109.18,42.76,3000 -109.21,42.75,3000 -109.22,42.75,3000 -109.26,42.76,3000 -109.28,42.76,3000 -109.31,42.76,3000 -109.34,42.76,3000 -109.38,42.77,3000 -109.41,42.77,3000 -109.45,42.78,3000 -109.48,42.79,3000 -109.51,42.81,3000 -109.54,42.82,3000 -109.58,42.84,3000 -109.61,42.86,3000 -109.64,42.88,3000 -109.66,42.89,3000 -109.68,42.90,3000 -109.70,42.91,3000 -109.72,42.92,3000 -109.74,42.94,3000 -109.76,42.96,3000 -109.79,42.98,3000 -109.82,43.00,3000 -109.85,43.02,3000 -109.87,43.04,3000 -109.89,43.06,3000 -109.91,43.08,3000 -109.93,43.10,3000 -109.94,43.13,3000 -109.95,43.15,3000 -109.96,43.17,3000 -109.97,43.20,3000 -109.97,43.22,3000 -109.97,43.24,3000 -109.96,43.27,3000 -109.95,43.30,3000 -109.94,43.32,3000 -109.93,43.35,3000 -109.92,43.37,3000 -109.90,43.40,3000 -109.79,43.48,3000 
          </coordinates>
        </LinearRing>
      </innerBoundaryIs>
      <innerBoundaryIs>
        <LinearRing>
          <coordinates>
-109.90,44.19,3000 -109.88,44.19,3000 -109.86,44.19,3000 -109.83,44.19,3000 -109.81,44.19,3000 -109.79,44.19,3000 -109.77,44.19,3000 -109.75,44.19,3000 -109.73,44.19,3000 -109.71,44.19,3000 -109.69,44.18,3000 -109.68,44.18,3000 -109.66,44.18,3000 -109.64,44.18,3000 -109.62,44.17,3000 -109.60,44.17,3000 -109.58,44.16,3000 -109.57,44.15,3000 -109.55,44.15,3000 -109.54,44.14,3000 -109.52,44.13,3000 -109.50,44.12,3000 -109.49,44.11,3000 -109.47,44.10,3000 -109.46,44.09,3000 -109.44,44.08,3000 -109.43,44.07,3000 -109.41,44.06,3000 -109.40,44.05,3000 -109.38,44.04,3000 -109.37,44.03,3000 -109.35,44.02,3000 -109.34,44.00,3000 -109.32,43.99,3000 -109.31,43.98,3000 -109.31,43.97,3000 -109.31,43.96,3000 -109.31,43.94,3000 -109.32,43.93,3000 -109.32,43.92,3000 -109.34,43.91,3000 -109.35,43.89,3000 -109.37,43.88,3000 -109.38,43.87,3000 -109.40,43.87,3000 -109.41,43.86,3000 -109.43,43.85,3000 -109.45,43.84,3000 -109.46,43.83,3000 -109.48,43.82,3000 -109.50,43.82,3000 -109.52,43.81,3000 -109.54,43.80,3000 -109.56,43.80,3000 -109.58,43.79,3000 -109.60,43.79,3000 -109.62,43.79,3000 -109.64,43.78,3000 -109.66,43.78,3000 -109.68,43.78,3000 -109.70,43.78,3000 -109.72,43.78,3000 -109.75,43.78,3000 -109.77,43.78,3000 -109.79,43.79,3000 -109.80,43.79,3000 -109.82,43.79,3000 -109.84,43.80,3000 -109.86,43.81,3000 -109.87,43.81,3000 -109.89,43.82,3000 -109.91,43.83,3000 -109.92,43.84,3000 -109.94,43.85,3000 -109.95,43.86,3000 -109.96,43.87,3000 -109.97,43.88,3000 -109.98,43.90,3000 -109.99,43.91,3000 -110.00,43.92,3000 -110.01,43.93,3000 -110.01,43.95,3000 -110.01,43.96,3000 -110.01,43.97,3000 -110.01,43.99,3000 -110.01,44.00,3000 -110.01,44.01,3000 -110.01,44.03,3000 -110.00,44.04,3000 -110.00,44.06,3000 -109.99,44.07,3000 -109.99,44.09,3000 -109.90,44.19,3000 
          </coordinates>
        </LinearRing>
      </innerBoundaryIs>
  </Polygon>
 </MultiGeometry>
</Placemark>
<Placemark>
  <name>10%</name>
  <visibility>1</visibility>
  <styleUrl>#poly_10</styleUrl>
  <MultiGeometry>
    <Polygon>
      <outerBoundaryIs>
        <LinearRing>
          <coordinates>
-110.35,45.49,2000 -110.32,45.49,2000 -110.28,45.49,2000 -110.25,45.50,2000 -110.21,45.50,2000 -110.18,45.50,2000 -110.15,45.50,2000 -110.13,45.50,2000 -110.10,45.50,2000 -110.06,45.49,2000 -110.03,45.49,2000 -110.00,45.48,2000 -109.97,45.47,2000 -109.94,45.47,2000 -109.92,45.47,2000 -109.89,45.47,2000 -109.85,45.46,2000 -109.82,45.45,2000 -109.79,45.45,2000 -109.76,45.44,2000 -109.72,45.43,2000 -109.69,45.42,2000 -109.65,45.41,2000 -109.62,45.40,2000 -109.60,45.39,2000 -109.57,45.38,2000 -109.54,45.37,2000 -109.53,45.36,2000 -109.50,45.34,2000 -109.48,45.33,2000 -109.47,45.31,2000 -109.45,45.29,2000 -109.43,45.27,2000 -109.41,45.25,2000 -109.39,45.23,2000 -109.37,45.21,2000 -109.36,45.19,2000 -109.35,45.17,2000 -109.34,45.15,2000 -109.34,45.13,2000 -109.33,45.10,2000 -109.33,45.08,2000 -109.33,45.06,2000 -109.33,45.04,2000 -109.34,45.02,2000 -109.35,45.00,2000 -109.36,44.98,2000 -109.38,44.96,2000 -109.40,44.94,2000 -109.42,44.93,2000 -109.44,44.91,2000 -109.47,44.89,2000 -109.49,44.88,2000 -109.52,44.87,2000 -109.55,44.86,2000 -109.58,44.86,2000 -109.61,44.85,2000 -109.64,44.85,2000 -109.67,44.85,2000 -109.70,44.85,2000 -109.73,44.86,2000 -109.76,44.86,2000 -109.79,44.87,2000 -109.82,44.88,2000 -109.86,44.89,2000 -109.89,44.90,2000 -109.92,44.92,2000 -109.95,44.93,2000 -109.97,44.94,2000 -109.99,44.95,2000 -110.02,44.96,2000 -110.04,44.97,2000 -110.07,44.97,2000 -110.10,44.98,2000 -110.13,44.99,2000 -110.16,45.00,2000 -110.20,45.01,2000 -110.23,45.02,2000 -110.26,45.03,2000 -110.28,45.04,2000 -110.32,45.05,2000 -110.35,45.06,2000 -110.37,45.07,2000 -110.39,45.09,2000 -110.40,45.11,2000 -110.42,45.12,2000 -110.44,45.14,2000 -110.45,45.17,2000 -110.46,45.19,2000 -110.48,45.21,2000 -110.49,45.24,2000 -110.49,45.26,2000 -110.49,45.28,2000 -110.49,45.30,2000 -110.48,45.32,2000 -110.48,45.34,2000 -110.47,45.37,2000 -110.45,45.39,2000 -110.44,45.41,2000 -110.43,45.43,2000 -110.35,45.49,2000 
          </coordinates>
        </LinearRing>
      </outerBoundaryIs>
      <innerBoundaryIs>
        <LinearRing>
          <coordinates>
-110.08,45.38,3000 -110.06,45.38,3000 -110.03,45.38,3000 -110.01,45.38,3000 -109.99,45.38,3000 -109.96,45.38,3000 -109.94,45.38,3000 -109.92,45.38,3000 -109.90,45.38,3000 -109.88,45.37,3000 -109.86,45.37,3000 -109.84,45.37,3000 -109.82,45.37,3000 -109.80,45.36,3000 -109.78,45.36,3000 -109.76,45.35,3000 -109.74,45.34,3000 -109.72,45.33,3000 -109.71,45.33,3000 -109.69,45.32,3000 -109.67,45.31,3000 -109.66,45.30,3000 -109.64,45.29,3000 -109.62,45.28,3000 -109.61,45.27,3000 -109.59,45.26,3000 -109.58,45.25,3000 -109.56,45.24,3000 -109.55,45.23,3000 -109.53,45.22,3000 -109.51,45.21,3000 -109.50,45.20,3000 -109.49,45.19,3000 -109.48,45.17,3000 -109.48,45.16,3000 -109.48,45.14,3000 -109.48,45.13,3000 -109.48,45.11,3000 -109.49,45.09,3000 -109.49,45.07,3000 -109.50,45.05,3000 -109.51,45.04,3000 -109.52,45.02,3000 -109.53,45.01,3000 -109.54,45.00,3000 -109.55,44.99,3000 -109.57,44.99,3000 -109.59,44.98,3000 -109.61,44.98,3000 -109.64,44.98,3000 -109.66,44.98,3000 -109.68,44.98,3000 -109.71,44.98,3000 -109.73,44.98,3000 -109.76,44.99,3000 -109.78,44.99,3000 -109.80,44.99,3000 -109.82,45.00,3000 -109.84,45.00,3000 -109.86,45.01,3000 -109.89,45.02,3000 -109.91,45.02,3000 -109.93,45.03,3000 -109.95,45.04,3000 -109.97,45.05,3000 -109.99,45.05,3000 -110.01,45.06,3000 -110.03,45.06,3000 -110.04,45.07,3000 -110.07,45.08,3000 -110.09,45.08,3000 -110.11,45.09,3000 -110.12,45.09,3000 -110.14,45.11,3000 -110.15,45.12,3000 -110.16,45.13,3000 -110.17,45.14,3000 -110.18,45.15,3000 -110.19,45.17,3000 -110.20,45.18,3000 -110.21,45.20,3000 -110.22,45.21,3000 -110.23,45.23,3000 -110.24,45.25,3000 -110.25,45.26,3000 -110.26,45.28,3000 -110.08,45.38,3000 
          </coordinates>
        </LinearRing>
      </innerBoundaryIs>
  </Polygon>
 </MultiGeometry>
</Placemark>
<Placemark>
  <name>10%</name>
  <visibility>1</visibility>
  <styleUrl>#poly_10</styleUrl>
  <MultiGeometry>
    <Polygon>
      <outerBoundaryIs>
        <LinearRing>
          <coordinates>
-115.89,51.57,2000 -115.87,51.57,2000 -115.86,51.57,2000 -115.84,51.56,2000 -115.82,51.56,2000 -115.81,51.56,2000 -115.79,51.56,2000 -115.78,51.55,2000 -115.76,51.55,2000 -115.75,51.55,2000 -115.73,51.55,2000 -115.72,51.54,2000 -115.70,51.54,2000 -115.69,51.54,2000 -115.68,51.53,2000 -115.67,51.53,2000 -115.66,51.53,2000 -115.65,51.52,2000 -115.64,51.52,2000 -115.63,51.51,2000 -115.62,51.51,2000 -115.61,51.50,2000 -115.61,51.49,2000 -115.60,51.48,2000 -115.60,51.47,2000 -115.60,51.46,2000 -115.60,51.45,2000 -115.60,51.44,2000 -115.59,51.43,2000 -115.59,51.43,2000 -115.59,51.42,2000 -115.59,51.41,2000 -115.58,51.40,2000 -115.58,51.39,2000 -115.57,51.38,2000 -115.57,51.37,2000 -115.57,51.37,2000 -115.57,51.36,2000 -115.56,51.35,2000 -115.58,51.35,2000 -115.59,51.35,2000 -115.60,51.35,2000 -115.61,51.35,2000 -115.63,51.34,2000 -115.64,51.34,2000 -115.66,51.34,2000 -115.68,51.34,2000 -115.69,51.33,2000 -115.71,51.33,2000 -115.73,51.33,2000 -115.75,51.33,2000 -115.76,51.33,2000 -115.78,51.32,2000 -115.79,51.32,2000 -115.81,51.32,2000 -115.82,51.32,2000 -115.83,51.32,2000 -115.85,51.32,2000 -115.86,51.31,2000 -115.87,51.32,2000 -115.88,51.33,2000 -115.88,51.33,2000 -115.89,51.34,2000 -115.90,51.35,2000 -115.90,51.35,2000 -115.91,51.36,2000 -115.91,51.36,2000 -115.92,51.37,2000 -115.93,51.38,2000 -115.93,51.39,2000 -115.94,51.40,2000 -115.95,51.40,2000 -115.96,51.41,2000 -115.96,51.42,2000 -115.97,51.43,2000 -115.98,51.44,2000 -115.99,51.45,2000 -115.99,51.46,2000 -116.00,51.47,2000 -116.01,51.48,2000 -115.89,51.57,2000 
          </coordinates>
        </LinearRing>
      </outerBoundaryIs>
  </Polygon>
 </MultiGeometry>
</Placemark>
<Placemark>
  <name>20%</name>
  <visibility>1</visibility>
  <styleUrl>#poly_20</styleUrl>
  <MultiGeometry>
    <Polygon>
      <outerBoundaryIs>
        <LinearRing>
          <coordinates>
-110.08,45.38,3000 -110.06,45.38,3000 -110.03,45.38,3000 -110.01,45.38,3000 -109.99,45.38,3000 -109.96,45.38,3000 -109.94,45.38,3000 -109.92,45.38,3000 -109.90,45.38,3000 -109.88,45.37,3000 -109.86,45.37,3000 -109.84,45.37,3000 -109.82,45.37,3000 -109.80,45.36,3000 -109.78,45.36,3000 -109.76,45.35,3000 -109.74,45.34,3000 -109.72,45.33,3000 -109.71,45.33,3000 -109.69,45.32,3000 -109.67,45.31,3000 -109.66,45.30,3000 -109.64,45.29,3000 -109.62,45.28,3000 -109.61,45.27,3000 -109.59,45.26,3000 -109.58,45.25,3000 -109.56,45.24,3000 -109.55,45.23,3000 -109.53,45.22,3000 -109.51,45.21,3000 -109.50,45.20,3000 -109.49,45.19,3000 -109.48,45.17,3000 -109.48,45.16,3000 -109.48,45.14,3000 -109.48,45.13,3000 -109.48,45.11,3000 -109.49,45.09,3000 -109.49,45.07,3000 -109.50,45.05,3000 -109.51,45.04,3000 -109.52,45.02,3000 -109.53,45.01,3000 -109.54,45.00,3000 -109.55,44.99,3000 -109.57,44.99,3000 -109.59,44.98,3000 -109.61,44.98,3000 -109.64,44.98,3000 -109.66,44.98,3000 -109.68,44.98,3000 -109.71,44.98,3000 -109.73,44.98,3000 -109.76,44.99,3000 -109.78,44.99,3000 -109.80,44.99,3000 -109.82,45.00,3000 -109.84,45.00,3000 -109.86,45.01,3000 -109.89,45.02,3000 -109.91,45.02,3000 -109.93,45.03,3000 -109.95,45.04,3000 -109.97,45.05,3000 -109.99,45.05,3000 -110.01,45.06,3000 -110.03,45.06,3000 -110.04,45.07,3000 -110.07,45.08,3000 -110.09,45.08,3000 -110.11,45.09,3000 -110.12,45.09,3000 -110.14,45.11,3000 -110.15,45.12,3000 -110.16,45.13,3000 -110.17,45.14,3000 -110.18,45.15,3000 -110.19,45.17,3000 -110.20,45.18,3000 -110.21,45.20,3000 -110.22,45.21,3000 -110.23,45.23,3000 -110.24,45.25,3000 -110.25,45.26,3000 -110.26,45.28,3000 -110.08,45.38,3000 
          </coordinates>
        </LinearRing>
      </outerBoundaryIs>
  </Polygon>
 </MultiGeometry>
</Placemark>
<Placemark>
  <name>20%</name>
  <visibility>1</visibility>
  <styleUrl>#poly_20</styleUrl>
  <MultiGeometry>
    <Polygon>
      <outerBoundaryIs>
        <LinearRing>
          <coordinates>
-109.79,43.48,3000 -109.75,43.47,3000 -109.71,43.46,3000 -109.68,43.45,3000 -109.65,43.44,3000 -109.62,43.43,3000 -109.59,43.43,3000 -109.57,43.42,3000 -109.54,43.41,3000 -109.52,43.40,3000 -109.50,43.38,3000 -109.47,43.36,3000 -109.44,43.34,3000 -109.42,43.31,3000 -109.39,43.29,3000 -109.37,43.27,3000 -109.35,43.25,3000 -109.33,43.22,3000 -109.31,43.19,3000 -109.29,43.17,3000 -109.27,43.15,3000 -109.26,43.13,3000 -109.24,43.11,3000 -109.23,43.09,3000 -109.21,43.07,3000 -109.19,43.05,3000 -109.17,43.02,3000 -109.15,42.99,3000 -109.14,42.97,3000 -109.13,42.94,3000 -109.13,42.91,3000 -109.13,42.88,3000 -109.14,42.85,3000 -109.15,42.83,3000 -109.16,42.80,3000 -109.17,42.78,3000 -109.18,42.76,3000 -109.21,42.75,3000 -109.22,42.75,3000 -109.26,42.76,3000 -109.28,42.76,3000 -109.31,42.76,3000 -109.34,42.76,3000 -109.38,42.77,3000 -109.41,42.77,3000 -109.45,42.78,3000 -109.48,42.79,3000 -109.51,42.81,3000 -109.54,42.82,3000 -109.58,42.84,3000 -109.61,42.86,3000 -109.64,42.88,3000 -109.66,42.89,3000 -109.68,42.90,3000 -109.70,42.91,3000 -109.72,42.92,3000 -109.74,42.94,3000 -109.76,42.96,3000 -109.79,42.98,3000 -109.82,43.00,3000 -109.85,43.02,3000 -109.87,43.04,3000 -109.89,43.06,3000 -109.91,43.08,3000 -109.93,43.10,3000 -109.94,43.13,3000 -109.95,43.15,3000 -109.96,43.17,3000 -109.97,43.20,3000 -109.97,43.22,3000 -109.97,43.24,3000 -109.96,43.27,3000 -109.95,43.30,3000 -109.94,43.32,3000 -109.93,43.35,3000 -109.92,43.37,3000 -109.90,43.40,3000 -109.79,43.48,3000 
          </coordinates>
        </LinearRing>
      </outerBoundaryIs>
      <innerBoundaryIs>
        <LinearRing>
          <coordinates>
-109.77,43.38,4000 -109.74,43.37,4000 -109.71,43.37,4000 -109.69,43.36,4000 -109.66,43.36,4000 -109.63,43.35,4000 -109.61,43.34,4000 -109.59,43.34,4000 -109.57,43.33,4000 -109.55,43.33,4000 -109.53,43.32,4000 -109.50,43.31,4000 -109.49,43.30,4000 -109.48,43.29,4000 -109.46,43.27,4000 -109.45,43.26,4000 -109.44,43.24,4000 -109.43,43.23,4000 -109.41,43.21,4000 -109.40,43.19,4000 -109.39,43.17,4000 -109.37,43.15,4000 -109.36,43.14,4000 -109.35,43.12,4000 -109.34,43.10,4000 -109.33,43.08,4000 -109.32,43.06,4000 -109.31,43.05,4000 -109.30,43.03,4000 -109.29,43.01,4000 -109.28,42.99,4000 -109.28,42.97,4000 -109.28,42.96,4000 -109.28,42.94,4000 -109.28,42.93,4000 -109.29,42.92,4000 -109.31,42.90,4000 -109.33,42.90,4000 -109.36,42.89,4000 -109.39,42.88,4000 -109.42,42.88,4000 -109.44,42.87,4000 -109.46,42.87,4000 -109.48,42.87,4000 -109.50,42.88,4000 -109.52,42.89,4000 -109.54,42.91,4000 -109.56,42.92,4000 -109.57,42.93,4000 -109.60,42.93,4000 -109.62,42.94,4000 -109.64,42.95,4000 -109.66,42.96,4000 -109.68,42.97,4000 -109.70,42.98,4000 -109.72,42.99,4000 -109.74,43.00,4000 -109.76,43.01,4000 -109.77,43.02,4000 -109.78,43.03,4000 -109.80,43.04,4000 -109.81,43.06,4000 -109.82,43.07,4000 -109.83,43.09,4000 -109.83,43.10,4000 -109.84,43.12,4000 -109.85,43.14,4000 -109.85,43.15,4000 -109.86,43.17,4000 -109.87,43.19,4000 -109.87,43.21,4000 -109.88,43.23,4000 -109.77,43.38,4000 
          </coordinates>
        </LinearRing>
      </innerBoundaryIs>
  </Polygon>
 </MultiGeometry>
</Placemark>
<Placemark>
  <name>20%</name>
  <visibility>1</visibility>
  <styleUrl>#poly_20</styleUrl>
  <MultiGeometry>
    <Polygon>
      <outerBoundaryIs>
        <LinearRing>
          <coordinates>
-109.90,44.19,3000 -109.88,44.19,3000 -109.86,44.19,3000 -109.83,44.19,3000 -109.81,44.19,3000 -109.79,44.19,3000 -109.77,44.19,3000 -109.75,44.19,3000 -109.73,44.19,3000 -109.71,44.19,3000 -109.69,44.18,3000 -109.68,44.18,3000 -109.66,44.18,3000 -109.64,44.18,3000 -109.62,44.17,3000 -109.60,44.17,3000 -109.58,44.16,3000 -109.57,44.15,3000 -109.55,44.15,3000 -109.54,44.14,3000 -109.52,44.13,3000 -109.50,44.12,3000 -109.49,44.11,3000 -109.47,44.10,3000 -109.46,44.09,3000 -109.44,44.08,3000 -109.43,44.07,3000 -109.41,44.06,3000 -109.40,44.05,3000 -109.38,44.04,3000 -109.37,44.03,3000 -109.35,44.02,3000 -109.34,44.00,3000 -109.32,43.99,3000 -109.31,43.98,3000 -109.31,43.97,3000 -109.31,43.96,3000 -109.31,43.94,3000 -109.32,43.93,3000 -109.32,43.92,3000 -109.34,43.91,3000 -109.35,43.89,3000 -109.37,43.88,3000 -109.38,43.87,3000 -109.40,43.87,3000 -109.41,43.86,3000 -109.43,43.85,3000 -109.45,43.84,3000 -109.46,43.83,3000 -109.48,43.82,3000 -109.50,43.82,3000 -109.52,43.81,3000 -109.54,43.80,3000 -109.56,43.80,3000 -109.58,43.79,3000 -109.60,43.79,3000 -109.62,43.79,3000 -109.64,43.78,3000 -109.66,43.78,3000 -109.68,43.78,3000 -109.70,43.78,3000 -109.72,43.78,3000 -109.75,43.78,3000 -109.77,43.78,3000 -109.79,43.79,3000 -109.80,43.79,3000 -109.82,43.79,3000 -109.84,43.80,3000 -109.86,43.81,3000 -109.87,43.81,3000 -109.89,43.82,3000 -109.91,43.83,3000 -109.92,43.84,3000 -109.94,43.85,3000 -109.95,43.86,3000 -109.96,43.87,3000 -109.97,43.88,3000 -109.98,43.90,3000 -109.99,43.91,3000 -110.00,43.92,3000 -110.01,43.93,3000 -110.01,43.95,3000 -110.01,43.96,3000 -110.01,43.97,3000 -110.01,43.99,3000 -110.01,44.00,3000 -110.01,44.01,3000 -110.01,44.03,3000 -110.00,44.04,3000 -110.00,44.06,3000 -109.99,44.07,3000 -109.99,44.09,3000 -109.90,44.19,3000 
          </coordinates>
        </LinearRing>
      </outerBoundaryIs>
  </Polygon>
 </MultiGeometry>
</Placemark>
<Placemark>
  <name>20%</name>
  <visibility>1</visibility>
  <styleUrl>#poly_20</styleUrl>
  <MultiGeometry>
    <Polygon>
      <outerBoundaryIs>
        <LinearRing>
          <coordinates>
-110.82,40.96,3000 -110.79,40.97,3000 -110.76,40.99,3000 -110.73,41.00,3000 -110.70,41.01,3000 -110.66,41.02,3000 -110.63,41.03,3000 -110.60,41.04,3000 -110.57,41.04,3000 -110.54,41.05,3000 -110.50,41.05,3000 -110.47,41.05,3000 -110.44,41.05,3000 -110.40,41.04,3000 -110.37,41.04,3000 -110.33,41.03,3000 -110.30,41.03,3000 -110.26,41.02,3000 -110.22,41.01,3000 -110.19,41.00,3000 -110.16,40.99,3000 -110.13,40.98,3000 -110.10,40.97,3000 -110.08,40.96,3000 -110.06,40.96,3000 -110.03,40.94,3000 -110.01,40.93,3000 -109.99,40.91,3000 -109.96,40.89,3000 -109.93,40.87,3000 -109.91,40.85,3000 -109.89,40.83,3000 -109.87,40.82,3000 -109.84,40.79,3000 -109.83,40.78,3000 -109.83,40.77,3000 -109.86,40.74,3000 -109.88,40.73,3000 -109.90,40.71,3000 -109.93,40.69,3000 -109.96,40.67,3000 -109.99,40.65,3000 -110.02,40.63,3000 -110.05,40.61,3000 -110.07,40.60,3000 -110.10,40.59,3000 -110.14,40.58,3000 -110.17,40.58,3000 -110.20,40.57,3000 -110.22,40.57,3000 -110.25,40.57,3000 -110.27,40.57,3000 -110.30,40.56,3000 -110.32,40.55,3000 -110.35,40.55,3000 -110.38,40.54,3000 -110.42,40.53,3000 -110.45,40.52,3000 -110.49,40.52,3000 -110.52,40.51,3000 -110.55,40.50,3000 -110.59,40.50,3000 -110.62,40.49,3000 -110.66,40.49,3000 -110.69,40.48,3000 -110.72,40.48,3000 -110.75,40.48,3000 -110.79,40.48,3000 -110.82,40.49,3000 -110.84,40.50,3000 -110.87,40.51,3000 -110.90,40.52,3000 -110.92,40.54,3000 -110.95,40.56,3000 -110.98,40.58,3000 -111.00,40.60,3000 -111.02,40.62,3000 -111.05,40.63,3000 -111.06,40.65,3000 -111.07,40.67,3000 -111.07,40.69,3000 -111.06,40.71,3000 -111.04,40.74,3000 -111.03,40.76,3000 -111.02,40.78,3000 -111.00,40.80,3000 -110.99,40.82,3000 -110.98,40.84,3000 -110.96,40.86,3000 -110.82,40.96,3000 
          </coordinates>
        </LinearRing>
      </outerBoundaryIs>
      <innerBoundaryIs>
        <LinearRing>
          <coordinates>
-110.81,40.89,4000 -110.79,40.90,4000 -110.76,40.92,4000 -110.74,40.93,4000 -110.71,40.94,4000 -110.69,40.96,4000 -110.66,40.97,4000 -110.64,40.98,4000 -110.61,40.98,4000 -110.59,40.99,4000 -110.56,41.00,4000 -110.53,41.00,4000 -110.50,41.00,4000 -110.47,41.00,4000 -110.44,41.00,4000 -110.41,41.00,4000 -110.39,40.99,4000 -110.36,40.99,4000 -110.33,40.98,4000 -110.30,40.98,4000 -110.27,40.97,4000 -110.24,40.96,4000 -110.21,40.95,4000 -110.19,40.94,4000 -110.17,40.93,4000 -110.14,40.91,4000 -110.13,40.90,4000 -110.11,40.88,4000 -110.09,40.87,4000 -110.07,40.85,4000 -110.04,40.84,4000 -110.01,40.82,4000 -109.99,40.80,4000 -109.97,40.79,4000 -109.96,40.77,4000 -109.96,40.75,4000 -109.98,40.74,4000 -110.00,40.72,4000 -110.02,40.71,4000 -110.05,40.69,4000 -110.08,40.68,4000 -110.10,40.67,4000 -110.13,40.66,4000 -110.15,40.65,4000 -110.18,40.64,4000 -110.21,40.63,4000 -110.24,40.62,4000 -110.27,40.62,4000 -110.30,40.61,4000 -110.33,40.60,4000 -110.36,40.60,4000 -110.39,40.59,4000 -110.41,40.59,4000 -110.44,40.58,4000 -110.47,40.58,4000 -110.50,40.57,4000 -110.53,40.57,4000 -110.56,40.57,4000 -110.59,40.56,4000 -110.62,40.56,4000 -110.65,40.56,4000 -110.68,40.55,4000 -110.70,40.55,4000 -110.73,40.55,4000 -110.76,40.56,4000 -110.79,40.57,4000 -110.81,40.58,4000 -110.84,40.59,4000 -110.87,40.60,4000 -110.89,40.61,4000 -110.92,40.63,4000 -110.94,40.65,4000 -110.95,40.66,4000 -110.96,40.68,4000 -110.96,40.70,4000 -110.96,40.71,4000 -110.95,40.73,4000 -110.94,40.75,4000 -110.93,40.77,4000 -110.92,40.79,4000 -110.90,40.81,4000 -110.88,40.83,4000 -110.86,40.85,4000 -110.84,40.87,4000 -110.81,40.89,4000 
          </coordinates>
        </LinearRing>
      </innerBoundaryIs>
  </Polygon>
 </MultiGeometry>
</Placemark>
<Placemark>
  <name>30%</name>
  <visibility>1</visibility>
  <styleUrl>#poly_30</styleUrl>
  <MultiGeometry>
    <Polygon>
      <outerBoundaryIs>
        <LinearRing>
          <coordinates>
-109.77,43.38,4000 -109.74,43.37,4000 -109.71,43.37,4000 -109.69,43.36,4000 -109.66,43.36,4000 -109.63,43.35,4000 -109.61,43.34,4000 -109.59,43.34,4000 -109.57,43.33,4000 -109.55,43.33,4000 -109.53,43.32,4000 -109.50,43.31,4000 -109.49,43.30,4000 -109.48,43.29,4000 -109.46,43.27,4000 -109.45,43.26,4000 -109.44,43.24,4000 -109.43,43.23,4000 -109.41,43.21,4000 -109.40,43.19,4000 -109.39,43.17,4000 -109.37,43.15,4000 -109.36,43.14,4000 -109.35,43.12,4000 -109.34,43.10,4000 -109.33,43.08,4000 -109.32,43.06,4000 -109.31,43.05,4000 -109.30,43.03,4000 -109.29,43.01,4000 -109.28,42.99,4000 -109.28,42.97,4000 -109.28,42.96,4000 -109.28,42.94,4000 -109.28,42.93,4000 -109.29,42.92,4000 -109.31,42.90,4000 -109.33,42.90,4000 -109.36,42.89,4000 -109.39,42.88,4000 -109.42,42.88,4000 -109.44,42.87,4000 -109.46,42.87,4000 -109.48,42.87,4000 -109.50,42.88,4000 -109.52,42.89,4000 -109.54,42.91,4000 -109.56,42.92,4000 -109.57,42.93,4000 -109.60,42.93,4000 -109.62,42.94,4000 -109.64,42.95,4000 -109.66,42.96,4000 -109.68,42.97,4000 -109.70,42.98,4000 -109.72,42.99,4000 -109.74,43.00,4000 -109.76,43.01,4000 -109.77,43.02,4000 -109.78,43.03,4000 -109.80,43.04,4000 -109.81,43.06,4000 -109.82,43.07,4000 -109.83,43.09,4000 -109.83,43.10,4000 -109.84,43.12,4000 -109.85,43.14,4000 -109.85,43.15,4000 -109.86,43.17,4000 -109.87,43.19,4000 -109.87,43.21,4000 -109.88,43.23,4000 -109.77,43.38,4000 
          </coordinates>
        </LinearRing>
      </outerBoundaryIs>
      <innerBoundaryIs>
        <LinearRing>
          <coordinates>
-109.76,43.28,5000 -109.75,43.28,5000 -109.73,43.27,5000 -109.72,43.27,5000 -109.70,43.27,5000 -109.69,43.27,5000 -109.67,43.26,5000 -109.66,43.26,5000 -109.65,43.26,5000 -109.63,43.25,5000 -109.62,43.25,5000 -109.61,43.25,5000 -109.59,43.24,5000 -109.58,43.24,5000 -109.57,43.24,5000 -109.56,43.23,5000 -109.54,43.23,5000 -109.53,43.22,5000 -109.52,43.22,5000 -109.51,43.21,5000 -109.50,43.20,5000 -109.49,43.20,5000 -109.49,43.19,5000 -109.48,43.18,5000 -109.47,43.17,5000 -109.46,43.16,5000 -109.46,43.15,5000 -109.45,43.14,5000 -109.44,43.13,5000 -109.44,43.12,5000 -109.43,43.11,5000 -109.43,43.10,5000 -109.43,43.09,5000 -109.43,43.08,5000 -109.43,43.07,5000 -109.43,43.05,5000 -109.43,43.04,5000 -109.44,43.03,5000 -109.44,43.02,5000 -109.45,43.01,5000 -109.46,43.00,5000 -109.47,42.99,5000 -109.48,42.99,5000 -109.49,42.99,5000 -109.50,42.99,5000 -109.51,42.99,5000 -109.52,43.00,5000 -109.54,43.00,5000 -109.55,43.01,5000 -109.57,43.01,5000 -109.58,43.02,5000 -109.60,43.02,5000 -109.61,43.03,5000 -109.63,43.04,5000 -109.64,43.04,5000 -109.66,43.05,5000 -109.67,43.06,5000 -109.68,43.06,5000 -109.69,43.07,5000 -109.70,43.07,5000 -109.72,43.08,5000 -109.72,43.08,5000 -109.72,43.09,5000 -109.73,43.10,5000 -109.73,43.11,5000 -109.73,43.12,5000 -109.74,43.12,5000 -109.74,43.13,5000 -109.75,43.14,5000 -109.75,43.15,5000 -109.75,43.16,5000 -109.76,43.17,5000 -109.76,43.18,5000 -109.77,43.19,5000 -109.77,43.21,5000 -109.78,43.22,5000 -109.78,43.23,5000 -109.79,43.24,5000 -109.76,43.28,5000 
          </coordinates>
        </LinearRing>
      </innerBoundaryIs>
  </Polygon>
 </MultiGeometry>
</Placemark>
<Placemark>
  <name>30%</name>
  <visibility>1</visibility>
  <styleUrl>#poly_30</styleUrl>
  <MultiGeometry>
    <Polygon>
      <outerBoundaryIs>
        <LinearRing>
          <coordinates>
-110.81,40.89,4000 -110.79,40.90,4000 -110.76,40.92,4000 -110.74,40.93,4000 -110.71,40.94,4000 -110.69,40.96,4000 -110.66,40.97,4000 -110.64,40.98,4000 -110.61,40.98,4000 -110.59,40.99,4000 -110.56,41.00,4000 -110.53,41.00,4000 -110.50,41.00,4000 -110.47,41.00,4000 -110.44,41.00,4000 -110.41,41.00,4000 -110.39,40.99,4000 -110.36,40.99,4000 -110.33,40.98,4000 -110.30,40.98,4000 -110.27,40.97,4000 -110.24,40.96,4000 -110.21,40.95,4000 -110.19,40.94,4000 -110.17,40.93,4000 -110.14,40.91,4000 -110.13,40.90,4000 -110.11,40.88,4000 -110.09,40.87,4000 -110.07,40.85,4000 -110.04,40.84,4000 -110.01,40.82,4000 -109.99,40.80,4000 -109.97,40.79,4000 -109.96,40.77,4000 -109.96,40.75,4000 -109.98,40.74,4000 -110.00,40.72,4000 -110.02,40.71,4000 -110.05,40.69,4000 -110.08,40.68,4000 -110.10,40.67,4000 -110.13,40.66,4000 -110.15,40.65,4000 -110.18,40.64,4000 -110.21,40.63,4000 -110.24,40.62,4000 -110.27,40.62,4000 -110.30,40.61,4000 -110.33,40.60,4000 -110.36,40.60,4000 -110.39,40.59,4000 -110.41,40.59,4000 -110.44,40.58,4000 -110.47,40.58,4000 -110.50,40.57,4000 -110.53,40.57,4000 -110.56,40.57,4000 -110.59,40.56,4000 -110.62,40.56,4000 -110.65,40.56,4000 -110.68,40.55,4000 -110.70,40.55,4000 -110.73,40.55,4000 -110.76,40.56,4000 -110.79,40.57,4000 -110.81,40.58,4000 -110.84,40.59,4000 -110.87,40.60,4000 -110.89,40.61,4000 -110.92,40.63,4000 -110.94,40.65,4000 -110.95,40.66,4000 -110.96,40.68,4000 -110.96,40.70,4000 -110.96,40.71,4000 -110.95,40.73,4000 -110.94,40.75,4000 -110.93,40.77,4000 -110.92,40.79,4000 -110.90,40.81,4000 -110.88,40.83,4000 -110.86,40.85,4000 -110.84,40.87,4000 -110.81,40.89,4000 
          </coordinates>
        </LinearRing>
      </outerBoundaryIs>
      <innerBoundaryIs>
        <LinearRing>
          <coordinates>
-110.59,40.94,5000 -110.56,40.94,5000 -110.54,40.94,5000 -110.51,40.94,5000 -110.49,40.94,5000 -110.46,40.94,5000 -110.44,40.94,5000 -110.42,40.94,5000 -110.40,40.94,5000 -110.38,40.94,5000 -110.36,40.94,5000 -110.35,40.94,5000 -110.33,40.94,5000 -110.32,40.94,5000 -110.30,40.92,5000 -110.29,40.91,5000 -110.27,40.90,5000 -110.25,40.89,5000 -110.23,40.88,5000 -110.21,40.87,5000 -110.19,40.85,5000 -110.17,40.84,5000 -110.15,40.82,5000 -110.13,40.81,5000 -110.11,40.80,5000 -110.10,40.78,5000 -110.09,40.77,5000 -110.09,40.76,5000 -110.09,40.75,5000 -110.10,40.74,5000 -110.12,40.73,5000 -110.14,40.72,5000 -110.16,40.71,5000 -110.19,40.70,5000 -110.21,40.70,5000 -110.24,40.69,5000 -110.26,40.68,5000 -110.29,40.68,5000 -110.31,40.67,5000 -110.33,40.66,5000 -110.35,40.66,5000 -110.37,40.65,5000 -110.39,40.65,5000 -110.41,40.65,5000 -110.43,40.64,5000 -110.46,40.64,5000 -110.48,40.64,5000 -110.50,40.63,5000 -110.52,40.63,5000 -110.54,40.63,5000 -110.56,40.63,5000 -110.59,40.63,5000 -110.61,40.63,5000 -110.64,40.63,5000 -110.66,40.63,5000 -110.69,40.63,5000 -110.71,40.63,5000 -110.73,40.63,5000 -110.75,40.64,5000 -110.77,40.64,5000 -110.80,40.65,5000 -110.82,40.65,5000 -110.84,40.66,5000 -110.85,40.68,5000 -110.86,40.69,5000 -110.86,40.70,5000 -110.85,40.72,5000 -110.85,40.73,5000 -110.84,40.75,5000 -110.82,40.76,5000 -110.81,40.78,5000 -110.80,40.79,5000 -110.79,40.80,5000 -110.77,40.82,5000 -110.76,40.83,5000 -110.75,40.84,5000 -110.73,40.85,5000 -110.72,40.87,5000 -110.70,40.88,5000 -110.59,40.94,5000 
          </coordinates>
        </LinearRing>
      </innerBoundaryIs>
  </Polygon>
 </MultiGeometry>
</Placemark>
<Placemark>
  <name>40%</name>
  <visibility>1</visibility>
  <styleUrl>#poly_40</styleUrl>
  <MultiGeometry>
    <Polygon>
      <outerBoundaryIs>
        <LinearRing>
          <coordinates>
-109.76,43.28,5000 -109.75,43.28,5000 -109.73,43.27,5000 -109.72,43.27,5000 -109.70,43.27,5000 -109.69,43.27,5000 -109.67,43.26,5000 -109.66,43.26,5000 -109.65,43.26,5000 -109.63,43.25,5000 -109.62,43.25,5000 -109.61,43.25,5000 -109.59,43.24,5000 -109.58,43.24,5000 -109.57,43.24,5000 -109.56,43.23,5000 -109.54,43.23,5000 -109.53,43.22,5000 -109.52,43.22,5000 -109.51,43.21,5000 -109.50,43.20,5000 -109.49,43.20,5000 -109.49,43.19,5000 -109.48,43.18,5000 -109.47,43.17,5000 -109.46,43.16,5000 -109.46,43.15,5000 -109.45,43.14,5000 -109.44,43.13,5000 -109.44,43.12,5000 -109.43,43.11,5000 -109.43,43.10,5000 -109.43,43.09,5000 -109.43,43.08,5000 -109.43,43.07,5000 -109.43,43.05,5000 -109.43,43.04,5000 -109.44,43.03,5000 -109.44,43.02,5000 -109.45,43.01,5000 -109.46,43.00,5000 -109.47,42.99,5000 -109.48,42.99,5000 -109.49,42.99,5000 -109.50,42.99,5000 -109.51,42.99,5000 -109.52,43.00,5000 -109.54,43.00,5000 -109.55,43.01,5000 -109.57,43.01,5000 -109.58,43.02,5000 -109.60,43.02,5000 -109.61,43.03,5000 -109.63,43.04,5000 -109.64,43.04,5000 -109.66,43.05,5000 -109.67,43.06,5000 -109.68,43.06,5000 -109.69,43.07,5000 -109.70,43.07,5000 -109.72,43.08,5000 -109.72,43.08,5000 -109.72,43.09,5000 -109.73,43.10,5000 -109.73,43.11,5000 -109.73,43.12,5000 -109.74,43.12,5000 -109.74,43.13,5000 -109.75,43.14,5000 -109.75,43.15,5000 -109.75,43.16,5000 -109.76,43.17,5000 -109.76,43.18,5000 -109.77,43.19,5000 -109.77,43.21,5000 -109.78,43.22,5000 -109.78,43.23,5000 -109.79,43.24,5000 -109.76,43.28,5000 
          </coordinates>
        </LinearRing>
      </outerBoundaryIs>
  </Polygon>
 </MultiGeometry>
</Placemark>
<Placemark>
  <name>40%</name>
  <visibility>1</visibility>
  <styleUrl>#poly_40</styleUrl>
  <MultiGeometry>
    <Polygon>
      <outerBoundaryIs>
        <LinearRing>
          <coordinates>
-110.59,40.94,5000 -110.56,40.94,5000 -110.54,40.94,5000 -110.51,40.94,5000 -110.49,40.94,5000 -110.46,40.94,5000 -110.44,40.94,5000 -110.42,40.94,5000 -110.40,40.94,5000 -110.38,40.94,5000 -110.36,40.94,5000 -110.35,40.94,5000 -110.33,40.94,5000 -110.32,40.94,5000 -110.30,40.92,5000 -110.29,40.91,5000 -110.27,40.90,5000 -110.25,40.89,5000 -110.23,40.88,5000 -110.21,40.87,5000 -110.19,40.85,5000 -110.17,40.84,5000 -110.15,40.82,5000 -110.13,40.81,5000 -110.11,40.80,5000 -110.10,40.78,5000 -110.09,40.77,5000 -110.09,40.76,5000 -110.09,40.75,5000 -110.10,40.74,5000 -110.12,40.73,5000 -110.14,40.72,5000 -110.16,40.71,5000 -110.19,40.70,5000 -110.21,40.70,5000 -110.24,40.69,5000 -110.26,40.68,5000 -110.29,40.68,5000 -110.31,40.67,5000 -110.33,40.66,5000 -110.35,40.66,5000 -110.37,40.65,5000 -110.39,40.65,5000 -110.41,40.65,5000 -110.43,40.64,5000 -110.46,40.64,5000 -110.48,40.64,5000 -110.50,40.63,5000 -110.52,40.63,5000 -110.54,40.63,5000 -110.56,40.63,5000 -110.59,40.63,5000 -110.61,40.63,5000 -110.64,40.63,5000 -110.66,40.63,5000 -110.69,40.63,5000 -110.71,40.63,5000 -110.73,40.63,5000 -110.75,40.64,5000 -110.77,40.64,5000 -110.80,40.65,5000 -110.82,40.65,5000 -110.84,40.66,5000 -110.85,40.68,5000 -110.86,40.69,5000 -110.86,40.70,5000 -110.85,40.72,5000 -110.85,40.73,5000 -110.84,40.75,5000 -110.82,40.76,5000 -110.81,40.78,5000 -110.80,40.79,5000 -110.79,40.80,5000 -110.77,40.82,5000 -110.76,40.83,5000 -110.75,40.84,5000 -110.73,40.85,5000 -110.72,40.87,5000 -110.70,40.88,5000 -110.59,40.94,5000 
          </coordinates>
        </LinearRing>
      </outerBoundaryIs>
      <innerBoundaryIs>
        <LinearRing>
          <coordinates>
-110.58,40.87,6000 -110.56,40.87,6000 -110.55,40.86,6000 -110.53,40.86,6000 -110.52,40.85,6000 -110.50,40.85,6000 -110.49,40.85,6000 -110.47,40.84,6000 -110.46,40.84,6000 -110.44,40.84,6000 -110.43,40.83,6000 -110.42,40.83,6000 -110.40,40.82,6000 -110.39,40.82,6000 -110.38,40.82,6000 -110.37,40.81,6000 -110.36,40.81,6000 -110.35,40.81,6000 -110.34,40.80,6000 -110.33,40.80,6000 -110.31,40.79,6000 -110.30,40.78,6000 -110.28,40.77,6000 -110.28,40.77,6000 -110.27,40.76,6000 -110.26,40.75,6000 -110.26,40.75,6000 -110.26,40.74,6000 -110.26,40.73,6000 -110.27,40.73,6000 -110.28,40.73,6000 -110.30,40.72,6000 -110.32,40.72,6000 -110.33,40.72,6000 -110.34,40.72,6000 -110.35,40.71,6000 -110.36,40.71,6000 -110.38,40.71,6000 -110.39,40.70,6000 -110.40,40.70,6000 -110.42,40.70,6000 -110.43,40.70,6000 -110.45,40.69,6000 -110.46,40.69,6000 -110.48,40.69,6000 -110.50,40.69,6000 -110.51,40.68,6000 -110.52,40.68,6000 -110.54,40.68,6000 -110.55,40.68,6000 -110.56,40.68,6000 -110.58,40.68,6000 -110.59,40.68,6000 -110.61,40.68,6000 -110.62,40.68,6000 -110.64,40.68,6000 -110.65,40.68,6000 -110.66,40.69,6000 -110.68,40.69,6000 -110.69,40.69,6000 -110.70,40.69,6000 -110.71,40.70,6000 -110.73,40.70,6000 -110.74,40.70,6000 -110.58,40.87,6000 
          </coordinates>
        </LinearRing>
      </innerBoundaryIs>
  </Polygon>
 </MultiGeometry>
</Placemark>
<Placemark>
  <name>50%</name>
  <visibility>1</visibility>
  <styleUrl>#poly_50</styleUrl>
  <MultiGeometry>
    <Polygon>
      <outerBoundaryIs>
        <LinearRing>
          <coordinates>
-110.58,40.87,6000 -110.56,40.87,6000 -110.55,40.86,6000 -110.53,40.86,6000 -110.52,40.85,6000 -110.50,40.85,6000 -110.49,40.85,6000 -110.47,40.84,6000 -110.46,40.84,6000 -110.44,40.84,6000 -110.43,40.83,6000 -110.42,40.83,6000 -110.40,40.82,6000 -110.39,40.82,6000 -110.38,40.82,6000 -110.37,40.81,6000 -110.36,40.81,6000 -110.35,40.81,6000 -110.34,40.80,6000 -110.33,40.80,6000 -110.31,40.79,6000 -110.30,40.78,6000 -110.28,40.77,6000 -110.28,40.77,6000 -110.27,40.76,6000 -110.26,40.75,6000 -110.26,40.75,6000 -110.26,40.74,6000 -110.26,40.73,6000 -110.27,40.73,6000 -110.28,40.73,6000 -110.30,40.72,6000 -110.32,40.72,6000 -110.33,40.72,6000 -110.34,40.72,6000 -110.35,40.71,6000 -110.36,40.71,6000 -110.38,40.71,6000 -110.39,40.70,6000 -110.40,40.70,6000 -110.42,40.70,6000 -110.43,40.70,6000 -110.45,40.69,6000 -110.46,40.69,6000 -110.48,40.69,6000 -110.50,40.69,6000 -110.51,40.68,6000 -110.52,40.68,6000 -110.54,40.68,6000 -110.55,40.68,6000 -110.56,40.68,6000 -110.58,40.68,6000 -110.59,40.68,6000 -110.61,40.68,6000 -110.62,40.68,6000 -110.64,40.68,6000 -110.65,40.68,6000 -110.66,40.69,6000 -110.68,40.69,6000 -110.69,40.69,6000 -110.70,40.69,6000 -110.71,40.70,6000 -110.73,40.70,6000 -110.74,40.70,6000 -110.58,40.87,6000 
          </coordinates>
        </LinearRing>
      </outerBoundaryIs>
  </Polygon>
 </MultiGeometry>
</Placemark>
    </Folder>
  </Document>
</kml>
