<?xml version="1.0" encoding="UTF-8"?>
<kml xmlns="http://www.opengis.net/kml/2.2">
<Document id="prb_72hsnow_ge02_f072">
<name>WPC 72-Hr Prob of Snow > 2"</name>
  <open>1</open>
  <snippet>Valid 12Z 09/29/2026 - 12Z 10/02/2026</snippet>
  <description></description>
    <Style id="poly_1">
        <IconStyle>
           <color>00000000</color>
           <scale>1</scale>
        </IconStyle>
        <LabelStyle>
            <color>ff26478b</color>
            <scale>0.8</scale>
        </LabelStyle>
        <LineStyle>
            <color>6626478b</color>
            <width>0</width>
        </LineStyle>
	<PolyStyle>
            <color>6626478b</color>
	</PolyStyle>
        <BalloonStyle>
            <text>
                <![CDATA[ <table border=0 width="300"><tr><td style="font-size:10pt;">
                During this forecast period, there is a <b>1-5%</b> probability of snowfall exceeding the depicted amount in the enclosed area.
                <br/><br/>
                *<span style="font-size:8pt;">Note that in cases where this contour is embedded within a 5% contour, 
                the probability of snowfall exceeding the depicted amount is &lt;1%.</span>
                </td></tr></table>]]>
            </text>
        </BalloonStyle>
    </Style>

    <Style id="poly_5">
        <IconStyle>
           <color>00000000</color>
           <scale>1</scale>
        </IconStyle>
        <LabelStyle>
            <color>ff00eeee</color>
            <scale>0.8</scale>
        </LabelStyle>
        <LineStyle>
            <color>6600eeee</color>
            <width>0.4</width>
        </LineStyle>
	<PolyStyle>
	    <color>6600eeee</color>
	</PolyStyle>
        <BalloonStyle>
            <text>
                <![CDATA[ <table border=0 width="300"><tr><td style="font-size:10pt;">
                During this forecast period, there is a <b>5-10%</b> probability of snowfall exceeding the depicted amount in the enclosed area.
                <br/><br/>
                *<span style="font-size:8pt;">Note that in cases where this contour is embedded within a 10% contour, 
                the probability of snowfall exceeding the depicted amount is &lt;5%.</span>
                </td></tr></table>]]>
            </text>
        </BalloonStyle>
    </Style>

    <Style id="poly_10">
        <IconStyle>
           <color>00000000</color>
           <scale>1</scale>
        </IconStyle>
        <LabelStyle>
            <color>ff00ff7f</color>
            <scale>0.8</scale>
        </LabelStyle>
        <LineStyle>
            <color>6600ff7f</color>
            <width>0.4</width>
        </LineStyle>
	<PolyStyle>
	    <color>6600ff7f</color>
	</PolyStyle>
        <BalloonStyle>
            <text>
                <![CDATA[ <table border=0 width="300"><tr><td style="font-size:10pt;">
                During this forecast period, there is a <b>10-20%</b> probability of snowfall exceeding the depicted amount in the enclosed area.
                <br/><br/>
                *<span style="font-size:8pt;">Note that in cases where this contour is embedded within a 20% contour, 
                the probability of snowfall exceeding the depicted amount is &lt;10%.</span>
                </td></tr></table>]]>
            </text>
        </BalloonStyle>
    </Style>
    
    <Style id="poly_20">
        <IconStyle>
            <color>00000000</color>
            <scale>1</scale>
        </IconStyle>
        <LabelStyle>
            <color>ff00cd00</color>
            <scale>0.8</scale>
        </LabelStyle>
        <LineStyle>
            <color>6600cd00</color>
	    <width>0.4</width>
	</LineStyle>
	<PolyStyle>
	    <color>6600cd00</color>
	</PolyStyle>
        <BalloonStyle>
            <text>
                <![CDATA[ <table border=0 width="300"><tr><td style="font-size:10pt;">
                During this forecast period, there is a <b>20-30%</b> probability of snowfall exceeding the depicted amount in the enclosed area.
                <br/><br/>
                *<span style="font-size:8pt;">Note that in cases where this contour is embedded within a 30% contour, 
                the probability of snowfall exceeding the depicted amount is &lt;20%.</span>
                </td></tr></table>]]>
            </text>
        </BalloonStyle>
    </Style>

    <Style id="poly_30">
        <IconStyle>
            <color>00000000</color>
            <scale>1</scale>
        </IconStyle>
        <LabelStyle>
            <color>ff008b00</color>
            <scale>0.8</scale>
        </LabelStyle>
        <LineStyle>
            <color>66008b00</color>
	    <width>0.4</width>
	</LineStyle>
	<PolyStyle>
	    <color>66008b00</color>
	</PolyStyle>
        <BalloonStyle>
            <text>
                <![CDATA[ <table border=0 width="300"><tr><td style="font-size:10pt;">
                During this forecast period, there is a <b>30-40%</b> probability of snowfall exceeding the depicted amount in the enclosed area.
                <br/><br/>
                *<span style="font-size:8pt;">Note that in cases where this contour is embedded within a 40% contour, 
                the probability of snowfall exceeding the depicted amount is &lt;30%.</span>
                </td></tr></table>]]>
            </text>
        </BalloonStyle>
    </Style>

    <Style id="poly_40">
        <IconStyle>
            <color>00000000</color>
            <scale>1</scale>
        </IconStyle>
        <LabelStyle>
            <color>ff8b4e10</color>
            <scale>0.8</scale>
        </LabelStyle>
        <LineStyle>
            <color>668b4e10</color>
	    <width>0.4</width>
	</LineStyle>
	<PolyStyle>
	    <color>668b4e10</color>
	</PolyStyle>
        <BalloonStyle>
            <text>
                <![CDATA[ <table border=0 width="300"><tr><td style="font-size:10pt;">
                During this forecast period, there is a <b>40-50%</b> probability of snowfall exceeding the depicted amount in the enclosed area.
                <br/><br/>
                *<span style="font-size:8pt;">Note that in cases where this contour is embedded within a 50% contour, 
                the probability of snowfall exceeding the depicted amount is &lt;40%.</span>
                </td></tr></table>]]>
            </text>
        </BalloonStyle>
    </Style>

    <Style id="poly_50">
        <IconStyle>
            <color>00000000</color>
            <scale>1</scale>
        </IconStyle>
        <LabelStyle>
            <color>ffff901e</color>
            <scale>0.8</scale>
        </LabelStyle>
        <LineStyle>
            <color>66ff901e</color>
	    <width>0.4</width>
	</LineStyle>
	<PolyStyle>
	    <color>66ff901e</color>
	</PolyStyle>
        <BalloonStyle>
            <text>
                <![CDATA[ <table border=0 width="300"><tr><td style="font-size:10pt;">
                During this forecast period, there is a <b>50-60%</b> probability of snowfall exceeding the depicted amount in the enclosed area.
                <br/><br/>
                *<span style="font-size:8pt;">Note that in cases where this contour is embedded within a 60% contour, 
                the probability of snowfall exceeding the depicted amount is &lt;50%.</span>
                </td></tr></table>]]>
            </text>
        </BalloonStyle>
    </Style>

    <Style id="poly_60">
        <IconStyle>
            <color>00000000</color>
            <scale>1</scale>
        </IconStyle>
        <LabelStyle>
            <color>ffeeb200</color>
            <scale>0.8</scale>
        </LabelStyle>
        <LineStyle>
            <color>66eeb200</color>
	    <width>0.4</width>
	</LineStyle>
	<PolyStyle>
	    <color>66eeb200</color>
	</PolyStyle>
        <BalloonStyle>
            <text>
                <![CDATA[ <table border=0 width="300"><tr><td style="font-size:10pt;">
                During this forecast period, there is a <b>60-70%</b> probability of snowfall exceeding the depicted amount in the enclosed area.
                <br/><br/>
                *<span style="font-size:8pt;">Note that in cases where this contour is embedded within a 70% contour, 
                the probability of snowfall exceeding the depicted amount is &lt;60%.</span>
                </td></tr></table>]]>
            </text>
        </BalloonStyle>
    </Style>
    
    <Style id="poly_70">
        <IconStyle>
            <color>00000000</color>
            <scale>1</scale>
        </IconStyle>
        <LabelStyle>
            <color>ffeeee00</color>
            <scale>0.8</scale>
        </LabelStyle>
        <LineStyle>
            <color>66eeee00</color>
	    <width>0.4</width>
	</LineStyle>
	<PolyStyle>
	    <color>66eeee00</color>
	</PolyStyle>
        <BalloonStyle>
            <text>
                <![CDATA[ <table border=0 width="300"><tr><td style="font-size:10pt;">
                During this forecast period, there is a <b>70-80%</b> probability of snowfall exceeding the depicted amount in the enclosed area.
                <br/><br/>
                *<span style="font-size:8pt;">Note that in cases where this contour is embedded within a 80% contour, 
                the probability of snowfall exceeding the depicted amount is &lt;70%.</span>
                </td></tr></table>]]>
            </text>
        </BalloonStyle>
    </Style>

    <Style id="poly_80">
        <IconStyle>
            <color>00000000</color>
            <scale>1</scale>
        </IconStyle>
        <LabelStyle>
            <color>ff4782ff</color>
            <scale>0.8</scale>
        </LabelStyle>
        <LineStyle>
            <color>664782ff</color>
	    <width>0.4</width>
	</LineStyle>
	<PolyStyle>
	    <color>664782ff</color>
	</PolyStyle>
        <BalloonStyle>
            <text>
                <![CDATA[ <table border=0 width="300"><tr><td style="font-size:10pt;">
                During this forecast period, there is a <b>80-90%</b> probability of snowfall exceeding the depicted amount in the enclosed area.
                <br/><br/>
                *<span style="font-size:8pt;">Note that in cases where this contour is embedded within a 90% contour, 
                the probability of snowfall exceeding the depicted amount is &lt;80%.</span>
                </td></tr></table>]]>
            </text>
        </BalloonStyle>
    </Style>

    <Style id="poly_90">
        <IconStyle>
            <color>00000000</color>
            <scale>1</scale>
        </IconStyle>
        <LabelStyle>
            <color>ff2c2cee</color>
            <scale>0.8</scale>
        </LabelStyle>
        <LineStyle>
            <color>662c2cee</color>
            <width>0.4</width>
        </LineStyle>
        <PolyStyle>
            <color>662c2cee</color>
        </PolyStyle>
        <BalloonStyle>
            <text>
                <![CDATA[ <table border=0 width="300"><tr><td style="font-size:10pt;">
                During this forecast period, there is a <b>90-95%</b> probability of snowfall exceeding the depicted amount in the enclosed area.
                <br/><br/>
                *<span style="font-size:8pt;">Note that in cases where this contour is embedded within a 95% contour, 
                the probability of snowfall exceeding the depicted amount is &lt;90%.</span>
                </td></tr></table>]]>
            </text>
        </BalloonStyle>
    </Style>

    <Style id="poly_95">
        <IconStyle>
            <color>00000000</color>
            <scale>1</scale>
        </IconStyle>
        <LabelStyle>
            <color>ff00008b</color>
            <scale>0.8</scale>
        </LabelStyle>
        <LineStyle>
            <color>6600008b</color>
	    <width>0.4</width>
	</LineStyle>
	<PolyStyle>
	    <color>6600008b</color>
	</PolyStyle>
        <BalloonStyle>
            <text>
                <![CDATA[ <table border=0 width="300"><tr><td style="font-size:10pt;">
                The probability of snowfall exceeding the depicted amount is <b>&ge;95%</b> in the enclosed area during this forecast period.
                </td></tr></table>]]>
            </text>
        </BalloonStyle>
    </Style>

  <ScreenOverlay>
    <name>Logos</name>
    <description></description>
    <Icon>
      <href>https://www.wpc.ncep.noaa.gov/images/noaa_and_nws_logo.png</href>
    </Icon>
   <overlayXY x=".01" y=".01" xunits="fraction" yunits="fraction" />
   <screenXY x=".01" y=".01" xunits="fraction" yunits="fraction" />
   <rotationXY x="0" y="0" xunits="fraction" yunits="fraction" />
   <size x="-1" y="-1" xunits="fraction" yunits="fraction" />
  </ScreenOverlay>
    <Folder>
      <name>Snow Probabilities</name>
      <open>0</open>
<Placemark>
  <name>1%</name>
  <visibility>1</visibility>
  <styleUrl>#poly_1</styleUrl>
  <MultiGeometry>
    <Polygon>
      <outerBoundaryIs>
        <LinearRing>
          <coordinates>
-105.87,38.28,0 -105.85,38.29,0 -105.82,38.31,0 -105.80,38.32,0 -105.77,38.33,0 -105.75,38.34,0 -105.72,38.35,0 -105.70,38.35,0 -105.67,38.36,0 -105.65,38.36,0 -105.62,38.36,0 -105.60,38.36,0 -105.57,38.35,0 -105.54,38.34,0 -105.51,38.33,0 -105.48,38.32,0 -105.46,38.31,0 -105.44,38.31,0 -105.42,38.30,0 -105.39,38.29,0 -105.38,38.28,0 -105.36,38.26,0 -105.35,38.25,0 -105.34,38.23,0 -105.32,38.21,0 -105.31,38.19,0 -105.30,38.17,0 -105.28,38.15,0 -105.27,38.13,0 -105.26,38.11,0 -105.26,38.09,0 -105.26,38.07,0 -105.26,38.05,0 -105.27,38.03,0 -105.28,38.00,0 -105.28,37.98,0 -105.29,37.96,0 -105.30,37.94,0 -105.31,37.92,0 -105.32,37.91,0 -105.33,37.89,0 -105.34,37.87,0 -105.35,37.86,0 -105.38,37.85,0 -105.40,37.84,0 -105.42,37.83,0 -105.44,37.82,0 -105.47,37.81,0 -105.49,37.80,0 -105.52,37.79,0 -105.55,37.78,0 -105.57,37.77,0 -105.60,37.77,0 -105.63,37.77,0 -105.65,37.77,0 -105.68,37.78,0 -105.71,37.79,0 -105.74,37.80,0 -105.76,37.81,0 -105.79,37.82,0 -105.81,37.82,0 -105.83,37.83,0 -105.86,37.84,0 -105.87,37.84,0 -105.88,37.85,0 -105.90,37.87,0 -105.91,37.88,0 -105.92,37.90,0 -105.93,37.92,0 -105.95,37.94,0 -105.96,37.96,0 -105.97,37.98,0 -105.98,38.01,0 -105.99,38.03,0 -105.99,38.05,0 -105.99,38.07,0 -105.99,38.09,0 -105.98,38.11,0 -105.97,38.13,0 -105.97,38.15,0 -105.96,38.17,0 -105.94,38.19,0 -105.93,38.21,0 -105.92,38.23,0 -105.87,38.28,0 
          </coordinates>
        </LinearRing>
      </outerBoundaryIs>
  </Polygon>
 </MultiGeometry>
</Placemark>
<Placemark>
  <name>1%</name>
  <visibility>1</visibility>
  <styleUrl>#poly_1</styleUrl>
  <MultiGeometry>
    <Polygon>
      <outerBoundaryIs>
        <LinearRing>
          <coordinates>
-106.04,39.83,0 -106.02,39.85,0 -106.00,39.86,0 -105.98,39.88,0 -105.96,39.89,0 -105.94,39.91,0 -105.92,39.92,0 -105.90,39.93,0 -105.88,39.94,0 -105.86,39.95,0 -105.84,39.96,0 -105.82,39.96,0 -105.80,39.96,0 -105.77,39.96,0 -105.74,39.96,0 -105.71,39.95,0 -105.69,39.94,0 -105.66,39.93,0 -105.64,39.92,0 -105.61,39.91,0 -105.60,39.91,0 -105.58,39.90,0 -105.56,39.89,0 -105.57,39.88,0 -105.56,39.85,0 -105.55,39.84,0 -105.54,39.82,0 -105.52,39.81,0 -105.51,39.79,0 -105.49,39.77,0 -105.48,39.75,0 -105.46,39.74,0 -105.45,39.72,0 -105.44,39.70,0 -105.44,39.68,0 -105.44,39.66,0 -105.44,39.64,0 -105.45,39.62,0 -105.46,39.60,0 -105.47,39.59,0 -105.48,39.57,0 -105.49,39.55,0 -105.51,39.53,0 -105.52,39.51,0 -105.54,39.50,0 -105.56,39.49,0 -105.58,39.47,0 -105.60,39.46,0 -105.62,39.45,0 -105.64,39.44,0 -105.66,39.42,0 -105.69,39.42,0 -105.71,39.41,0 -105.74,39.40,0 -105.76,39.40,0 -105.78,39.40,0 -105.81,39.40,0 -105.84,39.41,0 -105.87,39.41,0 -105.89,39.42,0 -105.92,39.43,0 -105.94,39.44,0 -105.97,39.45,0 -105.99,39.46,0 -106.00,39.46,0 -106.00,39.47,0 -106.01,39.48,0 -106.02,39.49,0 -106.04,39.51,0 -106.05,39.53,0 -106.07,39.54,0 -106.09,39.56,0 -106.10,39.58,0 -106.12,39.60,0 -106.12,39.62,0 -106.13,39.64,0 -106.13,39.66,0 -106.13,39.68,0 -106.12,39.69,0 -106.12,39.71,0 -106.11,39.73,0 -106.10,39.75,0 -106.09,39.77,0 -106.08,39.78,0 -106.06,39.80,0 -106.05,39.82,0 -106.04,39.83,0 
          </coordinates>
        </LinearRing>
      </outerBoundaryIs>
  </Polygon>
 </MultiGeometry>
</Placemark>
<Placemark>
  <name>1%</name>
  <visibility>1</visibility>
  <styleUrl>#poly_1</styleUrl>
  <MultiGeometry>
    <Polygon>
      <outerBoundaryIs>
        <LinearRing>
          <coordinates>
-116.76,51.87,0 -116.65,51.89,0 -116.54,51.91,0 -116.43,51.92,0 -116.34,51.92,0 -116.25,51.92,0 -116.17,51.90,0 -116.12,51.87,0 -116.06,51.83,0 -115.95,51.79,0 -115.87,51.77,0 -115.77,51.76,0 -115.65,51.74,0 -115.53,51.73,0 -115.41,51.71,0 -115.30,51.69,0 -115.20,51.67,0 -115.12,51.65,0 -115.01,51.60,0 -114.94,51.55,0 -114.89,51.49,0 -114.85,51.43,0 -114.82,51.37,0 -114.81,51.30,0 -114.81,51.23,0 -114.80,51.16,0 -114.78,51.11,0 -114.73,51.05,0 -114.66,51.02,0 -114.61,50.96,0 -114.59,50.90,0 -114.56,50.84,0 -114.54,50.77,0 -114.53,50.70,0 -114.53,50.64,0 -114.55,50.57,0 -114.59,50.51,0 -114.64,50.46,0 -114.70,50.41,0 -114.76,50.36,0 -114.83,50.33,0 -114.90,50.31,0 -114.97,50.29,0 -115.06,50.29,0 -115.15,50.30,0 -115.26,50.32,0 -115.37,50.35,0 -115.47,50.38,0 -115.57,50.41,0 -115.66,50.45,0 -115.74,50.49,0 -115.81,50.51,0 -115.92,50.50,0 -115.92,50.45,0 -115.91,50.39,0 -115.92,50.33,0 -115.96,50.28,0 -116.01,50.24,0 -116.07,50.19,0 -116.11,50.14,0 -116.16,50.09,0 -116.21,50.05,0 -116.29,50.01,0 -116.38,49.99,0 -116.48,49.97,0 -116.60,49.96,0 -116.71,49.96,0 -116.79,49.96,0 -116.88,49.98,0 -116.93,50.01,0 -116.98,50.05,0 -117.03,50.10,0 -117.07,50.16,0 -117.10,50.22,0 -117.12,50.28,0 -117.12,50.34,0 -117.16,50.39,0 -117.22,50.43,0 -117.30,50.46,0 -117.38,50.50,0 -117.46,50.53,0 -117.55,50.57,0 -117.63,50.62,0 -117.70,50.66,0 -117.74,50.71,0 -117.76,50.76,0 -117.79,50.81,0 -117.86,50.86,0 -117.95,50.90,0 -118.01,50.95,0 -118.04,51.00,0 -118.05,51.06,0 -118.05,51.12,0 -118.04,51.17,0 -118.01,51.23,0 -117.97,51.28,0 -117.92,51.32,0 -117.87,51.37,0 -117.80,51.41,0 -117.71,51.45,0 -117.62,51.47,0 -117.51,51.48,0 -117.40,51.49,0 -117.29,51.50,0 -117.20,51.51,0 -117.08,51.52,0 -116.99,51.53,0 -116.93,51.55,0 -116.90,51.60,0 -116.91,51.66,0 -116.93,51.73,0 -116.76,51.87,0 
          </coordinates>
        </LinearRing>
      </outerBoundaryIs>
      <innerBoundaryIs>
        <LinearRing>
          <coordinates>
-116.74,51.77,1000 -116.67,51.80,1000 -116.60,51.83,1000 -116.52,51.85,1000 -116.43,51.85,1000 -116.32,51.84,1000 -116.22,51.82,1000 -116.15,51.79,1000 -116.07,51.76,1000 -116.00,51.73,1000 -115.93,51.70,1000 -115.84,51.69,1000 -115.75,51.68,1000 -115.65,51.67,1000 -115.57,51.65,1000 -115.48,51.63,1000 -115.38,51.61,1000 -115.29,51.59,1000 -115.22,51.56,1000 -115.13,51.52,1000 -115.06,51.47,1000 -115.02,51.41,1000 -115.00,51.36,1000 -115.01,51.30,1000 -115.01,51.23,1000 -115.01,51.18,1000 -115.01,51.12,1000 -115.00,51.08,1000 -114.97,51.02,1000 -114.93,50.98,1000 -114.88,50.93,1000 -114.82,50.88,1000 -114.78,50.83,1000 -114.75,50.78,1000 -114.75,50.72,1000 -114.76,50.67,1000 -114.79,50.61,1000 -114.82,50.55,1000 -114.86,50.51,1000 -114.94,50.47,1000 -115.03,50.44,1000 -115.12,50.43,1000 -115.19,50.42,1000 -115.26,50.42,1000 -115.36,50.45,1000 -115.43,50.48,1000 -115.51,50.53,1000 -115.60,50.58,1000 -115.70,50.63,1000 -115.79,50.68,1000 -115.87,50.70,1000 -115.94,50.71,1000 -115.99,50.69,1000 -116.02,50.64,1000 -116.04,50.58,1000 -116.05,50.51,1000 -116.07,50.44,1000 -116.09,50.37,1000 -116.12,50.32,1000 -116.17,50.27,1000 -116.24,50.22,1000 -116.30,50.18,1000 -116.37,50.15,1000 -116.43,50.12,1000 -116.52,50.09,1000 -116.61,50.08,1000 -116.70,50.09,1000 -116.78,50.11,1000 -116.86,50.14,1000 -116.94,50.18,1000 -117.01,50.23,1000 -117.05,50.28,1000 -117.08,50.33,1000 -117.11,50.40,1000 -117.14,50.46,1000 -117.20,50.52,1000 -117.26,50.56,1000 -117.33,50.60,1000 -117.41,50.65,1000 -117.49,50.69,1000 -117.57,50.73,1000 -117.64,50.78,1000 -117.70,50.82,1000 -117.76,50.88,1000 -117.80,50.95,1000 -117.83,51.01,1000 -117.85,51.07,1000 -117.85,51.13,1000 -117.83,51.20,1000 -117.79,51.26,1000 -117.73,51.32,1000 -117.68,51.36,1000 -117.61,51.40,1000 -117.54,51.42,1000 -117.46,51.43,1000 -117.37,51.44,1000 -117.28,51.45,1000 -117.18,51.45,1000 -117.10,51.43,1000 -117.02,51.39,1000 -116.94,51.36,1000 -116.89,51.35,1000 -116.86,51.38,1000 -116.85,51.43,1000 -116.85,51.49,1000 -116.86,51.56,1000 -116.74,51.77,1000 
          </coordinates>
        </LinearRing>
      </innerBoundaryIs>
  </Polygon>
 </MultiGeometry>
</Placemark>
<Placemark>
  <name>1%</name>
  <visibility>1</visibility>
  <styleUrl>#poly_1</styleUrl>
  <MultiGeometry>
    <Polygon>
      <outerBoundaryIs>
        <LinearRing>
          <coordinates>
-107.67,38.11,0 -107.64,38.13,0 -107.62,38.14,0 -107.59,38.16,0 -107.57,38.17,0 -107.54,38.19,0 -107.51,38.20,0 -107.49,38.21,0 -107.46,38.22,0 -107.43,38.23,0 -107.40,38.23,0 -107.36,38.23,0 -107.33,38.24,0 -107.30,38.24,0 -107.26,38.24,0 -107.23,38.24,0 -107.20,38.24,0 -107.17,38.25,0 -107.14,38.26,0 -107.11,38.26,0 -107.07,38.27,0 -107.04,38.27,0 -107.01,38.27,0 -106.98,38.27,0 -106.95,38.26,0 -106.91,38.25,0 -106.88,38.24,0 -106.85,38.23,0 -106.82,38.23,0 -106.79,38.22,0 -106.77,38.21,0 -106.74,38.20,0 -106.72,38.18,0 -106.71,38.16,0 -106.69,38.14,0 -106.67,38.12,0 -106.65,38.09,0 -106.63,38.06,0 -106.62,38.04,0 -106.61,38.01,0 -106.61,37.99,0 -106.62,37.96,0 -106.62,37.93,0 -106.64,37.91,0 -106.65,37.88,0 -106.66,37.86,0 -106.67,37.84,0 -106.68,37.82,0 -106.69,37.80,0 -106.70,37.79,0 -106.73,37.78,0 -106.75,37.77,0 -106.78,37.76,0 -106.81,37.74,0 -106.84,37.73,0 -106.87,37.71,0 -106.91,37.70,0 -106.94,37.69,0 -106.97,37.68,0 -107.00,37.68,0 -107.04,37.68,0 -107.07,37.68,0 -107.10,37.68,0 -107.14,37.68,0 -107.17,37.68,0 -107.20,37.68,0 -107.23,37.68,0 -107.26,37.68,0 -107.29,37.68,0 -107.33,37.68,0 -107.36,37.68,0 -107.39,37.68,0 -107.42,37.68,0 -107.45,37.69,0 -107.49,37.70,0 -107.52,37.71,0 -107.56,37.72,0 -107.59,37.73,0 -107.61,37.73,0 -107.63,37.74,0 -107.64,37.75,0 -107.65,37.76,0 -107.67,37.78,0 -107.69,37.80,0 -107.71,37.82,0 -107.73,37.85,0 -107.75,37.87,0 -107.76,37.90,0 -107.77,37.92,0 -107.77,37.94,0 -107.77,37.97,0 -107.76,37.99,0 -107.75,38.01,0 -107.73,38.04,0 -107.72,38.06,0 -107.70,38.09,0 -107.68,38.11,0 -107.67,38.11,0 
          </coordinates>
        </LinearRing>
      </outerBoundaryIs>
  </Polygon>
 </MultiGeometry>
</Placemark>
<Placemark>
  <name>5%</name>
  <visibility>1</visibility>
  <styleUrl>#poly_5</styleUrl>
  <MultiGeometry>
    <Polygon>
      <outerBoundaryIs>
        <LinearRing>
          <coordinates>
-116.74,51.77,1000 -116.67,51.80,1000 -116.60,51.83,1000 -116.52,51.85,1000 -116.43,51.85,1000 -116.32,51.84,1000 -116.22,51.82,1000 -116.15,51.79,1000 -116.07,51.76,1000 -116.00,51.73,1000 -115.93,51.70,1000 -115.84,51.69,1000 -115.75,51.68,1000 -115.65,51.67,1000 -115.57,51.65,1000 -115.48,51.63,1000 -115.38,51.61,1000 -115.29,51.59,1000 -115.22,51.56,1000 -115.13,51.52,1000 -115.06,51.47,1000 -115.02,51.41,1000 -115.00,51.36,1000 -115.01,51.30,1000 -115.01,51.23,1000 -115.01,51.18,1000 -115.01,51.12,1000 -115.00,51.08,1000 -114.97,51.02,1000 -114.93,50.98,1000 -114.88,50.93,1000 -114.82,50.88,1000 -114.78,50.83,1000 -114.75,50.78,1000 -114.75,50.72,1000 -114.76,50.67,1000 -114.79,50.61,1000 -114.82,50.55,1000 -114.86,50.51,1000 -114.94,50.47,1000 -115.03,50.44,1000 -115.12,50.43,1000 -115.19,50.42,1000 -115.26,50.42,1000 -115.36,50.45,1000 -115.43,50.48,1000 -115.51,50.53,1000 -115.60,50.58,1000 -115.70,50.63,1000 -115.79,50.68,1000 -115.87,50.70,1000 -115.94,50.71,1000 -115.99,50.69,1000 -116.02,50.64,1000 -116.04,50.58,1000 -116.05,50.51,1000 -116.07,50.44,1000 -116.09,50.37,1000 -116.12,50.32,1000 -116.17,50.27,1000 -116.24,50.22,1000 -116.30,50.18,1000 -116.37,50.15,1000 -116.43,50.12,1000 -116.52,50.09,1000 -116.61,50.08,1000 -116.70,50.09,1000 -116.78,50.11,1000 -116.86,50.14,1000 -116.94,50.18,1000 -117.01,50.23,1000 -117.05,50.28,1000 -117.08,50.33,1000 -117.11,50.40,1000 -117.14,50.46,1000 -117.20,50.52,1000 -117.26,50.56,1000 -117.33,50.60,1000 -117.41,50.65,1000 -117.49,50.69,1000 -117.57,50.73,1000 -117.64,50.78,1000 -117.70,50.82,1000 -117.76,50.88,1000 -117.80,50.95,1000 -117.83,51.01,1000 -117.85,51.07,1000 -117.85,51.13,1000 -117.83,51.20,1000 -117.79,51.26,1000 -117.73,51.32,1000 -117.68,51.36,1000 -117.61,51.40,1000 -117.54,51.42,1000 -117.46,51.43,1000 -117.37,51.44,1000 -117.28,51.45,1000 -117.18,51.45,1000 -117.10,51.43,1000 -117.02,51.39,1000 -116.94,51.36,1000 -116.89,51.35,1000 -116.86,51.38,1000 -116.85,51.43,1000 -116.85,51.49,1000 -116.86,51.56,1000 -116.74,51.77,1000 
          </coordinates>
        </LinearRing>
      </outerBoundaryIs>
      <innerBoundaryIs>
        <LinearRing>
          <coordinates>
-116.48,51.80,2000 -116.39,51.79,2000 -116.29,51.77,2000 -116.20,51.75,2000 -116.13,51.72,2000 -116.05,51.69,2000 -115.98,51.65,2000 -115.91,51.63,2000 -115.83,51.62,2000 -115.75,51.62,2000 -115.67,51.62,2000 -115.58,51.60,2000 -115.49,51.57,2000 -115.40,51.54,2000 -115.33,51.51,2000 -115.25,51.49,2000 -115.19,51.45,2000 -115.15,51.40,2000 -115.15,51.35,2000 -115.17,51.30,2000 -115.20,51.24,2000 -115.23,51.18,2000 -115.25,51.12,2000 -115.24,51.06,2000 -115.21,51.01,2000 -115.15,50.95,2000 -115.08,50.90,2000 -115.01,50.85,2000 -114.96,50.80,2000 -114.92,50.76,2000 -114.90,50.70,2000 -114.93,50.65,2000 -114.96,50.61,2000 -115.00,50.57,2000 -115.04,50.53,2000 -115.11,50.51,2000 -115.18,50.51,2000 -115.25,50.52,2000 -115.34,50.53,2000 -115.42,50.55,2000 -115.49,50.57,2000 -115.57,50.59,2000 -115.65,50.62,2000 -115.72,50.65,2000 -115.78,50.68,2000 -115.84,50.72,2000 -115.88,50.77,2000 -115.92,50.81,2000 -115.97,50.84,2000 -116.06,50.86,2000 -116.15,50.87,2000 -116.22,50.87,2000 -116.25,50.85,2000 -116.24,50.80,2000 -116.21,50.76,2000 -116.17,50.71,2000 -116.14,50.65,2000 -116.13,50.60,2000 -116.12,50.54,2000 -116.14,50.47,2000 -116.17,50.42,2000 -116.20,50.36,2000 -116.25,50.30,2000 -116.30,50.24,2000 -116.34,50.20,2000 -116.41,50.16,2000 -116.48,50.14,2000 -116.56,50.14,2000 -116.63,50.15,2000 -116.71,50.17,2000 -116.79,50.19,2000 -116.86,50.22,2000 -116.91,50.26,2000 -116.95,50.30,2000 -116.98,50.34,2000 -117.02,50.39,2000 -117.06,50.44,2000 -117.11,50.49,2000 -117.15,50.54,2000 -117.21,50.59,2000 -117.27,50.63,2000 -117.33,50.67,2000 -117.40,50.70,2000 -117.47,50.74,2000 -117.53,50.78,2000 -117.59,50.83,2000 -117.65,50.88,2000 -117.70,50.93,2000 -117.74,50.98,2000 -117.77,51.04,2000 -117.78,51.10,2000 -117.77,51.15,2000 -117.75,51.20,2000 -117.71,51.24,2000 -117.66,51.28,2000 -117.59,51.32,2000 -117.51,51.36,2000 -117.42,51.38,2000 -117.33,51.39,2000 -117.24,51.39,2000 -117.15,51.37,2000 -117.08,51.34,2000 -117.01,51.30,2000 -116.94,51.26,2000 -116.89,51.25,2000 -116.84,51.28,2000 -116.81,51.34,2000 -116.78,51.41,2000 -116.76,51.46,2000 -116.75,51.51,2000 -116.73,51.56,2000 -116.72,51.62,2000 -116.71,51.68,2000 -116.48,51.80,2000 
          </coordinates>
        </LinearRing>
      </innerBoundaryIs>
  </Polygon>
 </MultiGeometry>
</Placemark>
<Placemark>
  <name>10%</name>
  <visibility>1</visibility>
  <styleUrl>#poly_10</styleUrl>
  <MultiGeometry>
    <Polygon>
      <outerBoundaryIs>
        <LinearRing>
          <coordinates>
-116.48,51.80,2000 -116.39,51.79,2000 -116.29,51.77,2000 -116.20,51.75,2000 -116.13,51.72,2000 -116.05,51.69,2000 -115.98,51.65,2000 -115.91,51.63,2000 -115.83,51.62,2000 -115.75,51.62,2000 -115.67,51.62,2000 -115.58,51.60,2000 -115.49,51.57,2000 -115.40,51.54,2000 -115.33,51.51,2000 -115.25,51.49,2000 -115.19,51.45,2000 -115.15,51.40,2000 -115.15,51.35,2000 -115.17,51.30,2000 -115.20,51.24,2000 -115.23,51.18,2000 -115.25,51.12,2000 -115.24,51.06,2000 -115.21,51.01,2000 -115.15,50.95,2000 -115.08,50.90,2000 -115.01,50.85,2000 -114.96,50.80,2000 -114.92,50.76,2000 -114.90,50.70,2000 -114.93,50.65,2000 -114.96,50.61,2000 -115.00,50.57,2000 -115.04,50.53,2000 -115.11,50.51,2000 -115.18,50.51,2000 -115.25,50.52,2000 -115.34,50.53,2000 -115.42,50.55,2000 -115.49,50.57,2000 -115.57,50.59,2000 -115.65,50.62,2000 -115.72,50.65,2000 -115.78,50.68,2000 -115.84,50.72,2000 -115.88,50.77,2000 -115.92,50.81,2000 -115.97,50.84,2000 -116.06,50.86,2000 -116.15,50.87,2000 -116.22,50.87,2000 -116.25,50.85,2000 -116.24,50.80,2000 -116.21,50.76,2000 -116.17,50.71,2000 -116.14,50.65,2000 -116.13,50.60,2000 -116.12,50.54,2000 -116.14,50.47,2000 -116.17,50.42,2000 -116.20,50.36,2000 -116.25,50.30,2000 -116.30,50.24,2000 -116.34,50.20,2000 -116.41,50.16,2000 -116.48,50.14,2000 -116.56,50.14,2000 -116.63,50.15,2000 -116.71,50.17,2000 -116.79,50.19,2000 -116.86,50.22,2000 -116.91,50.26,2000 -116.95,50.30,2000 -116.98,50.34,2000 -117.02,50.39,2000 -117.06,50.44,2000 -117.11,50.49,2000 -117.15,50.54,2000 -117.21,50.59,2000 -117.27,50.63,2000 -117.33,50.67,2000 -117.40,50.70,2000 -117.47,50.74,2000 -117.53,50.78,2000 -117.59,50.83,2000 -117.65,50.88,2000 -117.70,50.93,2000 -117.74,50.98,2000 -117.77,51.04,2000 -117.78,51.10,2000 -117.77,51.15,2000 -117.75,51.20,2000 -117.71,51.24,2000 -117.66,51.28,2000 -117.59,51.32,2000 -117.51,51.36,2000 -117.42,51.38,2000 -117.33,51.39,2000 -117.24,51.39,2000 -117.15,51.37,2000 -117.08,51.34,2000 -117.01,51.30,2000 -116.94,51.26,2000 -116.89,51.25,2000 -116.84,51.28,2000 -116.81,51.34,2000 -116.78,51.41,2000 -116.76,51.46,2000 -116.75,51.51,2000 -116.73,51.56,2000 -116.72,51.62,2000 -116.71,51.68,2000 -116.48,51.80,2000 
          </coordinates>
        </LinearRing>
      </outerBoundaryIs>
      <innerBoundaryIs>
        <LinearRing>
          <coordinates>
-116.46,51.70,3000 -116.40,51.69,3000 -116.34,51.67,3000 -116.29,51.66,3000 -116.23,51.64,3000 -116.17,51.63,3000 -116.11,51.61,3000 -116.06,51.60,3000 -116.00,51.58,3000 -115.95,51.56,3000 -115.89,51.55,3000 -115.84,51.54,3000 -115.78,51.54,3000 -115.73,51.54,3000 -115.67,51.53,3000 -115.62,51.52,3000 -115.57,51.50,3000 -115.52,51.48,3000 -115.46,51.46,3000 -115.41,51.43,3000 -115.37,51.41,3000 -115.35,51.38,3000 -115.35,51.35,3000 -115.36,51.31,3000 -115.39,51.28,3000 -115.42,51.24,3000 -115.44,51.21,3000 -115.46,51.18,3000 -115.47,51.14,3000 -115.48,51.11,3000 -115.49,51.07,3000 -115.48,51.04,3000 -115.45,51.01,3000 -115.41,50.98,3000 -115.36,50.95,3000 -115.32,50.93,3000 -115.28,50.90,3000 -115.25,50.87,3000 -115.22,50.83,3000 -115.20,50.80,3000 -115.18,50.78,3000 -115.16,50.75,3000 -115.15,50.74,3000 -115.16,50.72,3000 -115.20,50.71,3000 -115.25,50.69,3000 -115.31,50.68,3000 -115.36,50.67,3000 -115.41,50.66,3000 -115.46,50.67,3000 -115.51,50.68,3000 -115.55,50.70,3000 -115.60,50.72,3000 -115.64,50.74,3000 -115.69,50.76,3000 -115.73,50.78,3000 -115.77,50.81,3000 -115.82,50.84,3000 -115.85,50.87,3000 -115.89,50.90,3000 -115.92,50.94,3000 -115.96,50.97,3000 -115.98,50.99,3000 -116.01,51.00,3000 -116.05,51.00,3000 -116.10,51.01,3000 -116.16,51.01,3000 -116.23,51.02,3000 -116.28,51.03,3000 -116.34,51.04,3000 -116.40,51.06,3000 -116.46,51.08,3000 -116.50,51.10,3000 -116.52,51.13,3000 -116.54,51.16,3000 -116.55,51.19,3000 -116.56,51.23,3000 -116.57,51.26,3000 -116.58,51.29,3000 -116.59,51.32,3000 -116.60,51.36,3000 -116.61,51.39,3000 -116.62,51.42,3000 -116.62,51.45,3000 -116.62,51.48,3000 -116.62,51.52,3000 -116.62,51.55,3000 -116.62,51.58,3000 -116.46,51.70,3000 
          </coordinates>
        </LinearRing>
      </innerBoundaryIs>
      <innerBoundaryIs>
        <LinearRing>
          <coordinates>
-117.40,51.30,3000 -117.33,51.30,3000 -117.26,51.31,3000 -117.20,51.31,3000 -117.14,51.30,3000 -117.09,51.29,3000 -117.04,51.27,3000 -117.00,51.24,3000 -116.96,51.22,3000 -116.91,51.19,3000 -116.88,51.16,3000 -116.83,51.13,3000 -116.77,51.11,3000 -116.71,51.10,3000 -116.65,51.09,3000 -116.61,51.07,3000 -116.57,51.04,3000 -116.54,51.02,3000 -116.50,51.00,3000 -116.47,50.98,3000 -116.43,50.95,3000 -116.41,50.92,3000 -116.39,50.89,3000 -116.37,50.86,3000 -116.36,50.82,3000 -116.34,50.79,3000 -116.32,50.76,3000 -116.30,50.73,3000 -116.29,50.69,3000 -116.27,50.66,3000 -116.26,50.63,3000 -116.25,50.59,3000 -116.23,50.55,3000 -116.23,50.51,3000 -116.23,50.47,3000 -116.25,50.43,3000 -116.28,50.39,3000 -116.31,50.35,3000 -116.34,50.31,3000 -116.36,50.29,3000 -116.37,50.29,3000 -116.40,50.28,3000 -116.45,50.26,3000 -116.51,50.24,3000 -116.56,50.22,3000 -116.60,50.21,3000 -116.65,50.21,3000 -116.68,50.23,3000 -116.72,50.26,3000 -116.75,50.28,3000 -116.79,50.31,3000 -116.83,50.35,3000 -116.86,50.38,3000 -116.89,50.40,3000 -116.91,50.42,3000 -116.92,50.44,3000 -116.94,50.46,3000 -116.96,50.49,3000 -116.99,50.53,3000 -117.03,50.56,3000 -117.07,50.59,3000 -117.12,50.62,3000 -117.17,50.65,3000 -117.21,50.67,3000 -117.24,50.69,3000 -117.25,50.70,3000 -117.28,50.72,3000 -117.33,50.75,3000 -117.38,50.78,3000 -117.43,50.81,3000 -117.47,50.84,3000 -117.50,50.87,3000 -117.53,50.91,3000 -117.55,50.94,3000 -117.57,50.96,3000 -117.61,50.99,3000 -117.62,51.02,3000 -117.62,51.06,3000 -117.63,51.10,3000 -117.63,51.15,3000 -117.40,51.30,3000 
          </coordinates>
        </LinearRing>
      </innerBoundaryIs>
  </Polygon>
 </MultiGeometry>
</Placemark>
<Placemark>
  <name>20%</name>
  <visibility>1</visibility>
  <styleUrl>#poly_20</styleUrl>
  <MultiGeometry>
    <Polygon>
      <outerBoundaryIs>
        <LinearRing>
          <coordinates>
-116.46,51.70,3000 -116.40,51.69,3000 -116.34,51.67,3000 -116.29,51.66,3000 -116.23,51.64,3000 -116.17,51.63,3000 -116.11,51.61,3000 -116.06,51.60,3000 -116.00,51.58,3000 -115.95,51.56,3000 -115.89,51.55,3000 -115.84,51.54,3000 -115.78,51.54,3000 -115.73,51.54,3000 -115.67,51.53,3000 -115.62,51.52,3000 -115.57,51.50,3000 -115.52,51.48,3000 -115.46,51.46,3000 -115.41,51.43,3000 -115.37,51.41,3000 -115.35,51.38,3000 -115.35,51.35,3000 -115.36,51.31,3000 -115.39,51.28,3000 -115.42,51.24,3000 -115.44,51.21,3000 -115.46,51.18,3000 -115.47,51.14,3000 -115.48,51.11,3000 -115.49,51.07,3000 -115.48,51.04,3000 -115.45,51.01,3000 -115.41,50.98,3000 -115.36,50.95,3000 -115.32,50.93,3000 -115.28,50.90,3000 -115.25,50.87,3000 -115.22,50.83,3000 -115.20,50.80,3000 -115.18,50.78,3000 -115.16,50.75,3000 -115.15,50.74,3000 -115.16,50.72,3000 -115.20,50.71,3000 -115.25,50.69,3000 -115.31,50.68,3000 -115.36,50.67,3000 -115.41,50.66,3000 -115.46,50.67,3000 -115.51,50.68,3000 -115.55,50.70,3000 -115.60,50.72,3000 -115.64,50.74,3000 -115.69,50.76,3000 -115.73,50.78,3000 -115.77,50.81,3000 -115.82,50.84,3000 -115.85,50.87,3000 -115.89,50.90,3000 -115.92,50.94,3000 -115.96,50.97,3000 -115.98,50.99,3000 -116.01,51.00,3000 -116.05,51.00,3000 -116.10,51.01,3000 -116.16,51.01,3000 -116.23,51.02,3000 -116.28,51.03,3000 -116.34,51.04,3000 -116.40,51.06,3000 -116.46,51.08,3000 -116.50,51.10,3000 -116.52,51.13,3000 -116.54,51.16,3000 -116.55,51.19,3000 -116.56,51.23,3000 -116.57,51.26,3000 -116.58,51.29,3000 -116.59,51.32,3000 -116.60,51.36,3000 -116.61,51.39,3000 -116.62,51.42,3000 -116.62,51.45,3000 -116.62,51.48,3000 -116.62,51.52,3000 -116.62,51.55,3000 -116.62,51.58,3000 -116.46,51.70,3000 
          </coordinates>
        </LinearRing>
      </outerBoundaryIs>
      <innerBoundaryIs>
        <LinearRing>
          <coordinates>
-116.43,51.63,4000 -116.42,51.63,4000 -116.40,51.62,4000 -116.37,51.61,4000 -116.35,51.60,4000 -116.33,51.59,4000 -116.30,51.58,4000 -116.27,51.57,4000 -116.24,51.56,4000 -116.21,51.55,4000 -116.18,51.54,4000 -116.15,51.53,4000 -116.12,51.52,4000 -116.09,51.52,4000 -116.06,51.51,4000 -116.03,51.50,4000 -116.01,51.50,4000 -115.98,51.49,4000 -115.96,51.49,4000 -115.94,51.48,4000 -115.92,51.48,4000 -115.90,51.47,4000 -115.87,51.46,4000 -115.85,51.45,4000 -115.82,51.44,4000 -115.79,51.43,4000 -115.76,51.42,4000 -115.72,51.41,4000 -115.69,51.40,4000 -115.65,51.39,4000 -115.62,51.38,4000 -115.60,51.38,4000 -115.58,51.37,4000 -115.56,51.36,4000 -115.55,51.36,4000 -115.57,51.34,4000 -115.58,51.33,4000 -115.60,51.32,4000 -115.62,51.30,4000 -115.64,51.28,4000 -115.66,51.26,4000 -115.68,51.24,4000 -115.70,51.23,4000 -115.72,51.21,4000 -115.74,51.19,4000 -115.75,51.18,4000 -115.76,51.16,4000 -115.76,51.14,4000 -115.76,51.13,4000 -115.78,51.12,4000 -115.80,51.12,4000 -115.82,51.11,4000 -115.85,51.11,4000 -115.88,51.10,4000 -115.91,51.10,4000 -115.94,51.10,4000 -115.98,51.09,4000 -116.01,51.09,4000 -116.04,51.09,4000 -116.07,51.09,4000 -116.10,51.09,4000 -116.14,51.09,4000 -116.17,51.10,4000 -116.20,51.10,4000 -116.23,51.10,4000 -116.26,51.11,4000 -116.28,51.11,4000 -116.30,51.11,4000 -116.32,51.11,4000 -116.33,51.12,4000 -116.34,51.13,4000 -116.36,51.14,4000 -116.37,51.16,4000 -116.39,51.18,4000 -116.41,51.19,4000 -116.43,51.21,4000 -116.44,51.23,4000 -116.46,51.25,4000 -116.47,51.27,4000 -116.48,51.29,4000 -116.49,51.31,4000 -116.50,51.33,4000 -116.50,51.35,4000 -116.51,51.37,4000 -116.51,51.39,4000 -116.51,51.41,4000 -116.51,51.43,4000 -116.51,51.45,4000 -116.51,51.47,4000 -116.50,51.49,4000 -116.50,51.50,4000 -116.49,51.52,4000 -116.49,51.54,4000 -116.48,51.56,4000 -116.48,51.58,4000 -116.47,51.60,4000 -116.43,51.63,4000 
          </coordinates>
        </LinearRing>
      </innerBoundaryIs>
  </Polygon>
 </MultiGeometry>
</Placemark>
<Placemark>
  <name>20%</name>
  <visibility>1</visibility>
  <styleUrl>#poly_20</styleUrl>
  <MultiGeometry>
    <Polygon>
      <outerBoundaryIs>
        <LinearRing>
          <coordinates>
-117.40,51.30,3000 -117.33,51.30,3000 -117.26,51.31,3000 -117.20,51.31,3000 -117.14,51.30,3000 -117.09,51.29,3000 -117.04,51.27,3000 -117.00,51.24,3000 -116.96,51.22,3000 -116.91,51.19,3000 -116.88,51.16,3000 -116.83,51.13,3000 -116.77,51.11,3000 -116.71,51.10,3000 -116.65,51.09,3000 -116.61,51.07,3000 -116.57,51.04,3000 -116.54,51.02,3000 -116.50,51.00,3000 -116.47,50.98,3000 -116.43,50.95,3000 -116.41,50.92,3000 -116.39,50.89,3000 -116.37,50.86,3000 -116.36,50.82,3000 -116.34,50.79,3000 -116.32,50.76,3000 -116.30,50.73,3000 -116.29,50.69,3000 -116.27,50.66,3000 -116.26,50.63,3000 -116.25,50.59,3000 -116.23,50.55,3000 -116.23,50.51,3000 -116.23,50.47,3000 -116.25,50.43,3000 -116.28,50.39,3000 -116.31,50.35,3000 -116.34,50.31,3000 -116.36,50.29,3000 -116.37,50.29,3000 -116.40,50.28,3000 -116.45,50.26,3000 -116.51,50.24,3000 -116.56,50.22,3000 -116.60,50.21,3000 -116.65,50.21,3000 -116.68,50.23,3000 -116.72,50.26,3000 -116.75,50.28,3000 -116.79,50.31,3000 -116.83,50.35,3000 -116.86,50.38,3000 -116.89,50.40,3000 -116.91,50.42,3000 -116.92,50.44,3000 -116.94,50.46,3000 -116.96,50.49,3000 -116.99,50.53,3000 -117.03,50.56,3000 -117.07,50.59,3000 -117.12,50.62,3000 -117.17,50.65,3000 -117.21,50.67,3000 -117.24,50.69,3000 -117.25,50.70,3000 -117.28,50.72,3000 -117.33,50.75,3000 -117.38,50.78,3000 -117.43,50.81,3000 -117.47,50.84,3000 -117.50,50.87,3000 -117.53,50.91,3000 -117.55,50.94,3000 -117.57,50.96,3000 -117.61,50.99,3000 -117.62,51.02,3000 -117.62,51.06,3000 -117.63,51.10,3000 -117.63,51.15,3000 -117.40,51.30,3000 
          </coordinates>
        </LinearRing>
      </outerBoundaryIs>
      <innerBoundaryIs>
        <LinearRing>
          <coordinates>
-117.39,51.24,4000 -117.33,51.24,4000 -117.26,51.24,4000 -117.21,51.24,4000 -117.16,51.23,4000 -117.12,51.23,4000 -117.09,51.23,4000 -117.07,51.21,4000 -117.04,51.19,4000 -117.00,51.17,4000 -116.96,51.14,4000 -116.92,51.11,4000 -116.88,51.09,4000 -116.85,51.07,4000 -116.81,51.05,4000 -116.78,51.04,4000 -116.74,51.02,4000 -116.70,50.99,4000 -116.65,50.97,4000 -116.61,50.95,4000 -116.58,50.93,4000 -116.54,50.90,4000 -116.52,50.87,4000 -116.50,50.85,4000 -116.48,50.83,4000 -116.45,50.81,4000 -116.43,50.78,4000 -116.41,50.76,4000 -116.40,50.73,4000 -116.38,50.70,4000 -116.36,50.66,4000 -116.35,50.63,4000 -116.34,50.60,4000 -116.33,50.56,4000 -116.33,50.52,4000 -116.33,50.49,4000 -116.33,50.46,4000 -116.33,50.43,4000 -116.35,50.40,4000 -116.38,50.38,4000 -116.42,50.36,4000 -116.47,50.34,4000 -116.52,50.32,4000 -116.57,50.30,4000 -116.62,50.30,4000 -116.66,50.31,4000 -116.69,50.33,4000 -116.73,50.35,4000 -116.76,50.38,4000 -116.79,50.41,4000 -116.82,50.44,4000 -116.84,50.46,4000 -116.86,50.50,4000 -116.89,50.53,4000 -116.90,50.55,4000 -116.92,50.57,4000 -116.95,50.59,4000 -116.98,50.61,4000 -117.02,50.63,4000 -117.07,50.66,4000 -117.11,50.69,4000 -117.15,50.71,4000 -117.19,50.73,4000 -117.23,50.75,4000 -117.26,50.77,4000 -117.29,50.79,4000 -117.32,50.80,4000 -117.35,50.82,4000 -117.38,50.85,4000 -117.41,50.88,4000 -117.44,50.90,4000 -117.47,50.94,4000 -117.50,50.97,4000 -117.52,51.00,4000 -117.53,51.03,4000 -117.53,51.07,4000 -117.52,51.10,4000 -117.51,51.14,4000 -117.50,51.17,4000 -117.39,51.24,4000 
          </coordinates>
        </LinearRing>
      </innerBoundaryIs>
  </Polygon>
 </MultiGeometry>
</Placemark>
<Placemark>
  <name>30%</name>
  <visibility>1</visibility>
  <styleUrl>#poly_30</styleUrl>
  <MultiGeometry>
    <Polygon>
      <outerBoundaryIs>
        <LinearRing>
          <coordinates>
-117.39,51.24,4000 -117.33,51.24,4000 -117.26,51.24,4000 -117.21,51.24,4000 -117.16,51.23,4000 -117.12,51.23,4000 -117.09,51.23,4000 -117.07,51.21,4000 -117.04,51.19,4000 -117.00,51.17,4000 -116.96,51.14,4000 -116.92,51.11,4000 -116.88,51.09,4000 -116.85,51.07,4000 -116.81,51.05,4000 -116.78,51.04,4000 -116.74,51.02,4000 -116.70,50.99,4000 -116.65,50.97,4000 -116.61,50.95,4000 -116.58,50.93,4000 -116.54,50.90,4000 -116.52,50.87,4000 -116.50,50.85,4000 -116.48,50.83,4000 -116.45,50.81,4000 -116.43,50.78,4000 -116.41,50.76,4000 -116.40,50.73,4000 -116.38,50.70,4000 -116.36,50.66,4000 -116.35,50.63,4000 -116.34,50.60,4000 -116.33,50.56,4000 -116.33,50.52,4000 -116.33,50.49,4000 -116.33,50.46,4000 -116.33,50.43,4000 -116.35,50.40,4000 -116.38,50.38,4000 -116.42,50.36,4000 -116.47,50.34,4000 -116.52,50.32,4000 -116.57,50.30,4000 -116.62,50.30,4000 -116.66,50.31,4000 -116.69,50.33,4000 -116.73,50.35,4000 -116.76,50.38,4000 -116.79,50.41,4000 -116.82,50.44,4000 -116.84,50.46,4000 -116.86,50.50,4000 -116.89,50.53,4000 -116.90,50.55,4000 -116.92,50.57,4000 -116.95,50.59,4000 -116.98,50.61,4000 -117.02,50.63,4000 -117.07,50.66,4000 -117.11,50.69,4000 -117.15,50.71,4000 -117.19,50.73,4000 -117.23,50.75,4000 -117.26,50.77,4000 -117.29,50.79,4000 -117.32,50.80,4000 -117.35,50.82,4000 -117.38,50.85,4000 -117.41,50.88,4000 -117.44,50.90,4000 -117.47,50.94,4000 -117.50,50.97,4000 -117.52,51.00,4000 -117.53,51.03,4000 -117.53,51.07,4000 -117.52,51.10,4000 -117.51,51.14,4000 -117.50,51.17,4000 -117.39,51.24,4000 
          </coordinates>
        </LinearRing>
      </outerBoundaryIs>
      <innerBoundaryIs>
        <LinearRing>
          <coordinates>
-117.37,51.19,5000 -117.33,51.18,5000 -117.30,51.18,5000 -117.25,51.18,5000 -117.20,51.17,5000 -117.14,51.17,5000 -117.10,51.16,5000 -117.06,51.14,5000 -117.03,51.12,5000 -117.00,51.10,5000 -116.97,51.08,5000 -116.94,51.06,5000 -116.91,51.04,5000 -116.88,51.03,5000 -116.85,51.01,5000 -116.82,50.99,5000 -116.79,50.98,5000 -116.76,50.97,5000 -116.73,50.95,5000 -116.71,50.94,5000 -116.68,50.92,5000 -116.66,50.90,5000 -116.63,50.88,5000 -116.61,50.85,5000 -116.58,50.82,5000 -116.56,50.80,5000 -116.54,50.77,5000 -116.52,50.74,5000 -116.50,50.72,5000 -116.49,50.69,5000 -116.47,50.67,5000 -116.46,50.65,5000 -116.45,50.63,5000 -116.43,50.62,5000 -116.43,50.61,5000 -116.43,50.58,5000 -116.44,50.56,5000 -116.44,50.53,5000 -116.45,50.50,5000 -116.46,50.47,5000 -116.48,50.45,5000 -116.51,50.43,5000 -116.56,50.41,5000 -116.60,50.40,5000 -116.64,50.39,5000 -116.67,50.39,5000 -116.70,50.42,5000 -116.71,50.44,5000 -116.73,50.47,5000 -116.75,50.50,5000 -116.77,50.53,5000 -116.79,50.56,5000 -116.81,50.58,5000 -116.84,50.60,5000 -116.87,50.62,5000 -116.91,50.64,5000 -116.94,50.66,5000 -116.97,50.67,5000 -117.00,50.69,5000 -117.02,50.70,5000 -117.06,50.72,5000 -117.09,50.74,5000 -117.12,50.75,5000 -117.16,50.78,5000 -117.19,50.80,5000 -117.23,50.82,5000 -117.26,50.84,5000 -117.28,50.85,5000 -117.29,50.86,5000 -117.31,50.88,5000 -117.34,50.90,5000 -117.37,50.93,5000 -117.40,50.95,5000 -117.43,50.98,5000 -117.44,51.01,5000 -117.44,51.04,5000 -117.44,51.06,5000 -117.43,51.09,5000 -117.42,51.12,5000 -117.40,51.15,5000 -117.38,51.18,5000 -117.37,51.19,5000 
          </coordinates>
        </LinearRing>
      </innerBoundaryIs>
  </Polygon>
 </MultiGeometry>
</Placemark>
<Placemark>
  <name>30%</name>
  <visibility>1</visibility>
  <styleUrl>#poly_30</styleUrl>
  <MultiGeometry>
    <Polygon>
      <outerBoundaryIs>
        <LinearRing>
          <coordinates>
-116.43,51.63,4000 -116.42,51.63,4000 -116.40,51.62,4000 -116.37,51.61,4000 -116.35,51.60,4000 -116.33,51.59,4000 -116.30,51.58,4000 -116.27,51.57,4000 -116.24,51.56,4000 -116.21,51.55,4000 -116.18,51.54,4000 -116.15,51.53,4000 -116.12,51.52,4000 -116.09,51.52,4000 -116.06,51.51,4000 -116.03,51.50,4000 -116.01,51.50,4000 -115.98,51.49,4000 -115.96,51.49,4000 -115.94,51.48,4000 -115.92,51.48,4000 -115.90,51.47,4000 -115.87,51.46,4000 -115.85,51.45,4000 -115.82,51.44,4000 -115.79,51.43,4000 -115.76,51.42,4000 -115.72,51.41,4000 -115.69,51.40,4000 -115.65,51.39,4000 -115.62,51.38,4000 -115.60,51.38,4000 -115.58,51.37,4000 -115.56,51.36,4000 -115.55,51.36,4000 -115.57,51.34,4000 -115.58,51.33,4000 -115.60,51.32,4000 -115.62,51.30,4000 -115.64,51.28,4000 -115.66,51.26,4000 -115.68,51.24,4000 -115.70,51.23,4000 -115.72,51.21,4000 -115.74,51.19,4000 -115.75,51.18,4000 -115.76,51.16,4000 -115.76,51.14,4000 -115.76,51.13,4000 -115.78,51.12,4000 -115.80,51.12,4000 -115.82,51.11,4000 -115.85,51.11,4000 -115.88,51.10,4000 -115.91,51.10,4000 -115.94,51.10,4000 -115.98,51.09,4000 -116.01,51.09,4000 -116.04,51.09,4000 -116.07,51.09,4000 -116.10,51.09,4000 -116.14,51.09,4000 -116.17,51.10,4000 -116.20,51.10,4000 -116.23,51.10,4000 -116.26,51.11,4000 -116.28,51.11,4000 -116.30,51.11,4000 -116.32,51.11,4000 -116.33,51.12,4000 -116.34,51.13,4000 -116.36,51.14,4000 -116.37,51.16,4000 -116.39,51.18,4000 -116.41,51.19,4000 -116.43,51.21,4000 -116.44,51.23,4000 -116.46,51.25,4000 -116.47,51.27,4000 -116.48,51.29,4000 -116.49,51.31,4000 -116.50,51.33,4000 -116.50,51.35,4000 -116.51,51.37,4000 -116.51,51.39,4000 -116.51,51.41,4000 -116.51,51.43,4000 -116.51,51.45,4000 -116.51,51.47,4000 -116.50,51.49,4000 -116.50,51.50,4000 -116.49,51.52,4000 -116.49,51.54,4000 -116.48,51.56,4000 -116.48,51.58,4000 -116.47,51.60,4000 -116.43,51.63,4000 
          </coordinates>
        </LinearRing>
      </outerBoundaryIs>
      <innerBoundaryIs>
        <LinearRing>
          <coordinates>
-116.39,51.44,5000 -116.38,51.44,5000 -116.37,51.44,5000 -116.36,51.45,5000 -116.35,51.45,5000 -116.34,51.44,5000 -116.32,51.44,5000 -116.31,51.44,5000 -116.29,51.44,5000 -116.27,51.43,5000 -116.26,51.43,5000 -116.24,51.43,5000 -116.22,51.42,5000 -116.20,51.42,5000 -116.18,51.41,5000 -116.17,51.41,5000 -116.15,51.41,5000 -116.14,51.40,5000 -116.12,51.40,5000 -116.10,51.40,5000 -116.09,51.39,5000 -116.07,51.39,5000 -116.05,51.39,5000 -116.03,51.38,5000 -116.02,51.38,5000 -116.00,51.38,5000 -115.98,51.37,5000 -115.96,51.37,5000 -115.94,51.37,5000 -115.93,51.36,5000 -115.91,51.36,5000 -115.90,51.35,5000 -115.89,51.35,5000 -115.88,51.35,5000 -115.87,51.34,5000 -115.86,51.34,5000 -115.86,51.33,5000 -115.86,51.32,5000 -115.86,51.32,5000 -115.87,51.31,5000 -115.87,51.30,5000 -115.88,51.30,5000 -115.89,51.29,5000 -115.90,51.28,5000 -115.91,51.27,5000 -115.92,51.26,5000 -115.93,51.25,5000 -115.95,51.24,5000 -115.96,51.24,5000 -115.98,51.23,5000 -115.99,51.22,5000 -116.00,51.22,5000 -116.02,51.21,5000 -116.03,51.21,5000 -116.05,51.20,5000 -116.06,51.20,5000 -116.07,51.20,5000 -116.09,51.20,5000 -116.10,51.20,5000 -116.12,51.20,5000 -116.13,51.20,5000 -116.15,51.21,5000 -116.17,51.21,5000 -116.18,51.21,5000 -116.20,51.22,5000 -116.22,51.22,5000 -116.24,51.23,5000 -116.25,51.23,5000 -116.27,51.24,5000 -116.28,51.24,5000 -116.30,51.25,5000 -116.31,51.25,5000 -116.32,51.25,5000 -116.33,51.26,5000 -116.34,51.26,5000 -116.37,51.26,5000 -116.37,51.26,5000 -116.37,51.28,5000 -116.37,51.29,5000 -116.37,51.29,5000 -116.38,51.30,5000 -116.38,51.31,5000 -116.39,51.32,5000 -116.39,51.33,5000 -116.39,51.35,5000 -116.40,51.36,5000 -116.40,51.37,5000 -116.40,51.38,5000 -116.40,51.39,5000 -116.41,51.40,5000 -116.41,51.41,5000 -116.40,51.42,5000 -116.40,51.43,5000 -116.40,51.44,5000 -116.39,51.44,5000 -116.39,51.44,5000 
          </coordinates>
        </LinearRing>
      </innerBoundaryIs>
  </Polygon>
 </MultiGeometry>
</Placemark>
<Placemark>
  <name>40%</name>
  <visibility>1</visibility>
  <styleUrl>#poly_40</styleUrl>
  <MultiGeometry>
    <Polygon>
      <outerBoundaryIs>
        <LinearRing>
          <coordinates>
-117.37,51.19,5000 -117.33,51.18,5000 -117.30,51.18,5000 -117.25,51.18,5000 -117.20,51.17,5000 -117.14,51.17,5000 -117.10,51.16,5000 -117.06,51.14,5000 -117.03,51.12,5000 -117.00,51.10,5000 -116.97,51.08,5000 -116.94,51.06,5000 -116.91,51.04,5000 -116.88,51.03,5000 -116.85,51.01,5000 -116.82,50.99,5000 -116.79,50.98,5000 -116.76,50.97,5000 -116.73,50.95,5000 -116.71,50.94,5000 -116.68,50.92,5000 -116.66,50.90,5000 -116.63,50.88,5000 -116.61,50.85,5000 -116.58,50.82,5000 -116.56,50.80,5000 -116.54,50.77,5000 -116.52,50.74,5000 -116.50,50.72,5000 -116.49,50.69,5000 -116.47,50.67,5000 -116.46,50.65,5000 -116.45,50.63,5000 -116.43,50.62,5000 -116.43,50.61,5000 -116.43,50.58,5000 -116.44,50.56,5000 -116.44,50.53,5000 -116.45,50.50,5000 -116.46,50.47,5000 -116.48,50.45,5000 -116.51,50.43,5000 -116.56,50.41,5000 -116.60,50.40,5000 -116.64,50.39,5000 -116.67,50.39,5000 -116.70,50.42,5000 -116.71,50.44,5000 -116.73,50.47,5000 -116.75,50.50,5000 -116.77,50.53,5000 -116.79,50.56,5000 -116.81,50.58,5000 -116.84,50.60,5000 -116.87,50.62,5000 -116.91,50.64,5000 -116.94,50.66,5000 -116.97,50.67,5000 -117.00,50.69,5000 -117.02,50.70,5000 -117.06,50.72,5000 -117.09,50.74,5000 -117.12,50.75,5000 -117.16,50.78,5000 -117.19,50.80,5000 -117.23,50.82,5000 -117.26,50.84,5000 -117.28,50.85,5000 -117.29,50.86,5000 -117.31,50.88,5000 -117.34,50.90,5000 -117.37,50.93,5000 -117.40,50.95,5000 -117.43,50.98,5000 -117.44,51.01,5000 -117.44,51.04,5000 -117.44,51.06,5000 -117.43,51.09,5000 -117.42,51.12,5000 -117.40,51.15,5000 -117.38,51.18,5000 -117.37,51.19,5000 
          </coordinates>
        </LinearRing>
      </outerBoundaryIs>
      <innerBoundaryIs>
        <LinearRing>
          <coordinates>
-117.34,51.06,6000 -117.31,51.07,6000 -117.27,51.07,6000 -117.24,51.08,6000 -117.21,51.08,6000 -117.18,51.08,6000 -117.15,51.09,6000 -117.12,51.09,6000 -117.10,51.09,6000 -117.08,51.09,6000 -117.05,51.09,6000 -117.05,51.07,6000 -117.03,51.05,6000 -117.01,51.04,6000 -116.99,51.03,6000 -116.97,51.02,6000 -116.95,51.00,6000 -116.92,50.99,6000 -116.89,50.97,6000 -116.87,50.96,6000 -116.84,50.94,6000 -116.82,50.93,6000 -116.80,50.92,6000 -116.79,50.91,6000 -116.77,50.90,6000 -116.76,50.89,6000 -116.75,50.88,6000 -116.73,50.86,6000 -116.72,50.85,6000 -116.70,50.83,6000 -116.68,50.81,6000 -116.67,50.80,6000 -116.66,50.78,6000 -116.65,50.76,6000 -116.65,50.74,6000 -116.65,50.72,6000 -116.65,50.70,6000 -116.65,50.68,6000 -116.65,50.66,6000 -116.66,50.64,6000 -116.66,50.62,6000 -116.67,50.60,6000 -116.67,50.59,6000 -116.68,50.56,6000 -116.69,50.56,6000 -116.69,50.56,6000 -116.71,50.59,6000 -116.72,50.60,6000 -116.74,50.61,6000 -116.76,50.63,6000 -116.79,50.64,6000 -116.81,50.66,6000 -116.84,50.68,6000 -116.86,50.69,6000 -116.88,50.71,6000 -116.90,50.72,6000 -116.92,50.73,6000 -116.95,50.75,6000 -116.97,50.75,6000 -117.00,50.76,6000 -117.02,50.77,6000 -117.04,50.78,6000 -117.06,50.80,6000 -117.08,50.81,6000 -117.10,50.83,6000 -117.13,50.84,6000 -117.15,50.86,6000 -117.17,50.87,6000 -117.19,50.88,6000 -117.21,50.90,6000 -117.23,50.91,6000 -117.25,50.93,6000 -117.27,50.94,6000 -117.29,50.96,6000 -117.31,50.97,6000 -117.32,50.98,6000 -117.34,51.00,6000 -117.35,51.01,6000 -117.36,51.02,6000 -117.34,51.06,6000 
          </coordinates>
        </LinearRing>
      </innerBoundaryIs>
  </Polygon>
 </MultiGeometry>
</Placemark>
<Placemark>
  <name>40%</name>
  <visibility>1</visibility>
  <styleUrl>#poly_40</styleUrl>
  <MultiGeometry>
    <Polygon>
      <outerBoundaryIs>
        <LinearRing>
          <coordinates>
-116.39,51.44,5000 -116.38,51.44,5000 -116.37,51.44,5000 -116.36,51.45,5000 -116.35,51.45,5000 -116.34,51.44,5000 -116.32,51.44,5000 -116.31,51.44,5000 -116.29,51.44,5000 -116.27,51.43,5000 -116.26,51.43,5000 -116.24,51.43,5000 -116.22,51.42,5000 -116.20,51.42,5000 -116.18,51.41,5000 -116.17,51.41,5000 -116.15,51.41,5000 -116.14,51.40,5000 -116.12,51.40,5000 -116.10,51.40,5000 -116.09,51.39,5000 -116.07,51.39,5000 -116.05,51.39,5000 -116.03,51.38,5000 -116.02,51.38,5000 -116.00,51.38,5000 -115.98,51.37,5000 -115.96,51.37,5000 -115.94,51.37,5000 -115.93,51.36,5000 -115.91,51.36,5000 -115.90,51.35,5000 -115.89,51.35,5000 -115.88,51.35,5000 -115.87,51.34,5000 -115.86,51.34,5000 -115.86,51.33,5000 -115.86,51.32,5000 -115.86,51.32,5000 -115.87,51.31,5000 -115.87,51.30,5000 -115.88,51.30,5000 -115.89,51.29,5000 -115.90,51.28,5000 -115.91,51.27,5000 -115.92,51.26,5000 -115.93,51.25,5000 -115.95,51.24,5000 -115.96,51.24,5000 -115.98,51.23,5000 -115.99,51.22,5000 -116.00,51.22,5000 -116.02,51.21,5000 -116.03,51.21,5000 -116.05,51.20,5000 -116.06,51.20,5000 -116.07,51.20,5000 -116.09,51.20,5000 -116.10,51.20,5000 -116.12,51.20,5000 -116.13,51.20,5000 -116.15,51.21,5000 -116.17,51.21,5000 -116.18,51.21,5000 -116.20,51.22,5000 -116.22,51.22,5000 -116.24,51.23,5000 -116.25,51.23,5000 -116.27,51.24,5000 -116.28,51.24,5000 -116.30,51.25,5000 -116.31,51.25,5000 -116.32,51.25,5000 -116.33,51.26,5000 -116.34,51.26,5000 -116.37,51.26,5000 -116.37,51.26,5000 -116.37,51.28,5000 -116.37,51.29,5000 -116.37,51.29,5000 -116.38,51.30,5000 -116.38,51.31,5000 -116.39,51.32,5000 -116.39,51.33,5000 -116.39,51.35,5000 -116.40,51.36,5000 -116.40,51.37,5000 -116.40,51.38,5000 -116.40,51.39,5000 -116.41,51.40,5000 -116.41,51.41,5000 -116.40,51.42,5000 -116.40,51.43,5000 -116.40,51.44,5000 -116.39,51.44,5000 -116.39,51.44,5000 
          </coordinates>
        </LinearRing>
      </outerBoundaryIs>
  </Polygon>
 </MultiGeometry>
</Placemark>
<Placemark>
  <name>50%</name>
  <visibility>1</visibility>
  <styleUrl>#poly_50</styleUrl>
  <MultiGeometry>
    <Polygon>
      <outerBoundaryIs>
        <LinearRing>
          <coordinates>
-117.34,51.06,6000 -117.31,51.07,6000 -117.27,51.07,6000 -117.24,51.08,6000 -117.21,51.08,6000 -117.18,51.08,6000 -117.15,51.09,6000 -117.12,51.09,6000 -117.10,51.09,6000 -117.08,51.09,6000 -117.05,51.09,6000 -117.05,51.07,6000 -117.03,51.05,6000 -117.01,51.04,6000 -116.99,51.03,6000 -116.97,51.02,6000 -116.95,51.00,6000 -116.92,50.99,6000 -116.89,50.97,6000 -116.87,50.96,6000 -116.84,50.94,6000 -116.82,50.93,6000 -116.80,50.92,6000 -116.79,50.91,6000 -116.77,50.90,6000 -116.76,50.89,6000 -116.75,50.88,6000 -116.73,50.86,6000 -116.72,50.85,6000 -116.70,50.83,6000 -116.68,50.81,6000 -116.67,50.80,6000 -116.66,50.78,6000 -116.65,50.76,6000 -116.65,50.74,6000 -116.65,50.72,6000 -116.65,50.70,6000 -116.65,50.68,6000 -116.65,50.66,6000 -116.66,50.64,6000 -116.66,50.62,6000 -116.67,50.60,6000 -116.67,50.59,6000 -116.68,50.56,6000 -116.69,50.56,6000 -116.69,50.56,6000 -116.71,50.59,6000 -116.72,50.60,6000 -116.74,50.61,6000 -116.76,50.63,6000 -116.79,50.64,6000 -116.81,50.66,6000 -116.84,50.68,6000 -116.86,50.69,6000 -116.88,50.71,6000 -116.90,50.72,6000 -116.92,50.73,6000 -116.95,50.75,6000 -116.97,50.75,6000 -117.00,50.76,6000 -117.02,50.77,6000 -117.04,50.78,6000 -117.06,50.80,6000 -117.08,50.81,6000 -117.10,50.83,6000 -117.13,50.84,6000 -117.15,50.86,6000 -117.17,50.87,6000 -117.19,50.88,6000 -117.21,50.90,6000 -117.23,50.91,6000 -117.25,50.93,6000 -117.27,50.94,6000 -117.29,50.96,6000 -117.31,50.97,6000 -117.32,50.98,6000 -117.34,51.00,6000 -117.35,51.01,6000 -117.36,51.02,6000 -117.34,51.06,6000 
          </coordinates>
        </LinearRing>
      </outerBoundaryIs>
  </Polygon>
 </MultiGeometry>
</Placemark>
    </Folder>
  </Document>
</kml>
