<?xml version="1.0" encoding="UTF-8"?>
<kml xmlns="http://www.opengis.net/kml/2.2">
<Document id="prb_72hsnow_ge02_f072">
<name>WPC 72-Hr Prob of Snow > 2"</name>
  <open>1</open>
  <snippet>Valid 12Z 06/28/2026 - 12Z 07/01/2026</snippet>
  <description></description>
    <Style id="poly_1">
        <IconStyle>
           <color>00000000</color>
           <scale>1</scale>
        </IconStyle>
        <LabelStyle>
            <color>ff26478b</color>
            <scale>0.8</scale>
        </LabelStyle>
        <LineStyle>
            <color>6626478b</color>
            <width>0</width>
        </LineStyle>
	<PolyStyle>
            <color>6626478b</color>
	</PolyStyle>
        <BalloonStyle>
            <text>
                <![CDATA[ <table border=0 width="300"><tr><td style="font-size:10pt;">
                During this forecast period, there is a <b>1-5%</b> probability of snowfall exceeding the depicted amount in the enclosed area.
                <br/><br/>
                *<span style="font-size:8pt;">Note that in cases where this contour is embedded within a 5% contour, 
                the probability of snowfall exceeding the depicted amount is &lt;1%.</span>
                </td></tr></table>]]>
            </text>
        </BalloonStyle>
    </Style>

    <Style id="poly_5">
        <IconStyle>
           <color>00000000</color>
           <scale>1</scale>
        </IconStyle>
        <LabelStyle>
            <color>ff00eeee</color>
            <scale>0.8</scale>
        </LabelStyle>
        <LineStyle>
            <color>6600eeee</color>
            <width>0.4</width>
        </LineStyle>
	<PolyStyle>
	    <color>6600eeee</color>
	</PolyStyle>
        <BalloonStyle>
            <text>
                <![CDATA[ <table border=0 width="300"><tr><td style="font-size:10pt;">
                During this forecast period, there is a <b>5-10%</b> probability of snowfall exceeding the depicted amount in the enclosed area.
                <br/><br/>
                *<span style="font-size:8pt;">Note that in cases where this contour is embedded within a 10% contour, 
                the probability of snowfall exceeding the depicted amount is &lt;5%.</span>
                </td></tr></table>]]>
            </text>
        </BalloonStyle>
    </Style>

    <Style id="poly_10">
        <IconStyle>
           <color>00000000</color>
           <scale>1</scale>
        </IconStyle>
        <LabelStyle>
            <color>ff00ff7f</color>
            <scale>0.8</scale>
        </LabelStyle>
        <LineStyle>
            <color>6600ff7f</color>
            <width>0.4</width>
        </LineStyle>
	<PolyStyle>
	    <color>6600ff7f</color>
	</PolyStyle>
        <BalloonStyle>
            <text>
                <![CDATA[ <table border=0 width="300"><tr><td style="font-size:10pt;">
                During this forecast period, there is a <b>10-20%</b> probability of snowfall exceeding the depicted amount in the enclosed area.
                <br/><br/>
                *<span style="font-size:8pt;">Note that in cases where this contour is embedded within a 20% contour, 
                the probability of snowfall exceeding the depicted amount is &lt;10%.</span>
                </td></tr></table>]]>
            </text>
        </BalloonStyle>
    </Style>
    
    <Style id="poly_20">
        <IconStyle>
            <color>00000000</color>
            <scale>1</scale>
        </IconStyle>
        <LabelStyle>
            <color>ff00cd00</color>
            <scale>0.8</scale>
        </LabelStyle>
        <LineStyle>
            <color>6600cd00</color>
	    <width>0.4</width>
	</LineStyle>
	<PolyStyle>
	    <color>6600cd00</color>
	</PolyStyle>
        <BalloonStyle>
            <text>
                <![CDATA[ <table border=0 width="300"><tr><td style="font-size:10pt;">
                During this forecast period, there is a <b>20-30%</b> probability of snowfall exceeding the depicted amount in the enclosed area.
                <br/><br/>
                *<span style="font-size:8pt;">Note that in cases where this contour is embedded within a 30% contour, 
                the probability of snowfall exceeding the depicted amount is &lt;20%.</span>
                </td></tr></table>]]>
            </text>
        </BalloonStyle>
    </Style>

    <Style id="poly_30">
        <IconStyle>
            <color>00000000</color>
            <scale>1</scale>
        </IconStyle>
        <LabelStyle>
            <color>ff008b00</color>
            <scale>0.8</scale>
        </LabelStyle>
        <LineStyle>
            <color>66008b00</color>
	    <width>0.4</width>
	</LineStyle>
	<PolyStyle>
	    <color>66008b00</color>
	</PolyStyle>
        <BalloonStyle>
            <text>
                <![CDATA[ <table border=0 width="300"><tr><td style="font-size:10pt;">
                During this forecast period, there is a <b>30-40%</b> probability of snowfall exceeding the depicted amount in the enclosed area.
                <br/><br/>
                *<span style="font-size:8pt;">Note that in cases where this contour is embedded within a 40% contour, 
                the probability of snowfall exceeding the depicted amount is &lt;30%.</span>
                </td></tr></table>]]>
            </text>
        </BalloonStyle>
    </Style>

    <Style id="poly_40">
        <IconStyle>
            <color>00000000</color>
            <scale>1</scale>
        </IconStyle>
        <LabelStyle>
            <color>ff8b4e10</color>
            <scale>0.8</scale>
        </LabelStyle>
        <LineStyle>
            <color>668b4e10</color>
	    <width>0.4</width>
	</LineStyle>
	<PolyStyle>
	    <color>668b4e10</color>
	</PolyStyle>
        <BalloonStyle>
            <text>
                <![CDATA[ <table border=0 width="300"><tr><td style="font-size:10pt;">
                During this forecast period, there is a <b>40-50%</b> probability of snowfall exceeding the depicted amount in the enclosed area.
                <br/><br/>
                *<span style="font-size:8pt;">Note that in cases where this contour is embedded within a 50% contour, 
                the probability of snowfall exceeding the depicted amount is &lt;40%.</span>
                </td></tr></table>]]>
            </text>
        </BalloonStyle>
    </Style>

    <Style id="poly_50">
        <IconStyle>
            <color>00000000</color>
            <scale>1</scale>
        </IconStyle>
        <LabelStyle>
            <color>ffff901e</color>
            <scale>0.8</scale>
        </LabelStyle>
        <LineStyle>
            <color>66ff901e</color>
	    <width>0.4</width>
	</LineStyle>
	<PolyStyle>
	    <color>66ff901e</color>
	</PolyStyle>
        <BalloonStyle>
            <text>
                <![CDATA[ <table border=0 width="300"><tr><td style="font-size:10pt;">
                During this forecast period, there is a <b>50-60%</b> probability of snowfall exceeding the depicted amount in the enclosed area.
                <br/><br/>
                *<span style="font-size:8pt;">Note that in cases where this contour is embedded within a 60% contour, 
                the probability of snowfall exceeding the depicted amount is &lt;50%.</span>
                </td></tr></table>]]>
            </text>
        </BalloonStyle>
    </Style>

    <Style id="poly_60">
        <IconStyle>
            <color>00000000</color>
            <scale>1</scale>
        </IconStyle>
        <LabelStyle>
            <color>ffeeb200</color>
            <scale>0.8</scale>
        </LabelStyle>
        <LineStyle>
            <color>66eeb200</color>
	    <width>0.4</width>
	</LineStyle>
	<PolyStyle>
	    <color>66eeb200</color>
	</PolyStyle>
        <BalloonStyle>
            <text>
                <![CDATA[ <table border=0 width="300"><tr><td style="font-size:10pt;">
                During this forecast period, there is a <b>60-70%</b> probability of snowfall exceeding the depicted amount in the enclosed area.
                <br/><br/>
                *<span style="font-size:8pt;">Note that in cases where this contour is embedded within a 70% contour, 
                the probability of snowfall exceeding the depicted amount is &lt;60%.</span>
                </td></tr></table>]]>
            </text>
        </BalloonStyle>
    </Style>
    
    <Style id="poly_70">
        <IconStyle>
            <color>00000000</color>
            <scale>1</scale>
        </IconStyle>
        <LabelStyle>
            <color>ffeeee00</color>
            <scale>0.8</scale>
        </LabelStyle>
        <LineStyle>
            <color>66eeee00</color>
	    <width>0.4</width>
	</LineStyle>
	<PolyStyle>
	    <color>66eeee00</color>
	</PolyStyle>
        <BalloonStyle>
            <text>
                <![CDATA[ <table border=0 width="300"><tr><td style="font-size:10pt;">
                During this forecast period, there is a <b>70-80%</b> probability of snowfall exceeding the depicted amount in the enclosed area.
                <br/><br/>
                *<span style="font-size:8pt;">Note that in cases where this contour is embedded within a 80% contour, 
                the probability of snowfall exceeding the depicted amount is &lt;70%.</span>
                </td></tr></table>]]>
            </text>
        </BalloonStyle>
    </Style>

    <Style id="poly_80">
        <IconStyle>
            <color>00000000</color>
            <scale>1</scale>
        </IconStyle>
        <LabelStyle>
            <color>ff4782ff</color>
            <scale>0.8</scale>
        </LabelStyle>
        <LineStyle>
            <color>664782ff</color>
	    <width>0.4</width>
	</LineStyle>
	<PolyStyle>
	    <color>664782ff</color>
	</PolyStyle>
        <BalloonStyle>
            <text>
                <![CDATA[ <table border=0 width="300"><tr><td style="font-size:10pt;">
                During this forecast period, there is a <b>80-90%</b> probability of snowfall exceeding the depicted amount in the enclosed area.
                <br/><br/>
                *<span style="font-size:8pt;">Note that in cases where this contour is embedded within a 90% contour, 
                the probability of snowfall exceeding the depicted amount is &lt;80%.</span>
                </td></tr></table>]]>
            </text>
        </BalloonStyle>
    </Style>

    <Style id="poly_90">
        <IconStyle>
            <color>00000000</color>
            <scale>1</scale>
        </IconStyle>
        <LabelStyle>
            <color>ff2c2cee</color>
            <scale>0.8</scale>
        </LabelStyle>
        <LineStyle>
            <color>662c2cee</color>
            <width>0.4</width>
        </LineStyle>
        <PolyStyle>
            <color>662c2cee</color>
        </PolyStyle>
        <BalloonStyle>
            <text>
                <![CDATA[ <table border=0 width="300"><tr><td style="font-size:10pt;">
                During this forecast period, there is a <b>90-95%</b> probability of snowfall exceeding the depicted amount in the enclosed area.
                <br/><br/>
                *<span style="font-size:8pt;">Note that in cases where this contour is embedded within a 95% contour, 
                the probability of snowfall exceeding the depicted amount is &lt;90%.</span>
                </td></tr></table>]]>
            </text>
        </BalloonStyle>
    </Style>

    <Style id="poly_95">
        <IconStyle>
            <color>00000000</color>
            <scale>1</scale>
        </IconStyle>
        <LabelStyle>
            <color>ff00008b</color>
            <scale>0.8</scale>
        </LabelStyle>
        <LineStyle>
            <color>6600008b</color>
	    <width>0.4</width>
	</LineStyle>
	<PolyStyle>
	    <color>6600008b</color>
	</PolyStyle>
        <BalloonStyle>
            <text>
                <![CDATA[ <table border=0 width="300"><tr><td style="font-size:10pt;">
                The probability of snowfall exceeding the depicted amount is <b>&ge;95%</b> in the enclosed area during this forecast period.
                </td></tr></table>]]>
            </text>
        </BalloonStyle>
    </Style>

  <ScreenOverlay>
    <name>Logos</name>
    <description></description>
    <Icon>
      <href>https://www.wpc.ncep.noaa.gov/images/noaa_and_nws_logo.png</href>
    </Icon>
   <overlayXY x=".01" y=".01" xunits="fraction" yunits="fraction" />
   <screenXY x=".01" y=".01" xunits="fraction" yunits="fraction" />
   <rotationXY x="0" y="0" xunits="fraction" yunits="fraction" />
   <size x="-1" y="-1" xunits="fraction" yunits="fraction" />
  </ScreenOverlay>
    <Folder>
      <name>Snow Probabilities</name>
      <open>0</open>
<Placemark>
  <name>1%</name>
  <visibility>1</visibility>
  <styleUrl>#poly_1</styleUrl>
  <MultiGeometry>
    <Polygon>
      <outerBoundaryIs>
        <LinearRing>
          <coordinates>
-113.46,46.37,0 -113.28,46.44,0 -113.12,46.48,0 -112.98,46.46,0 -112.86,46.39,0 -112.78,46.30,0 -112.69,46.19,0 -112.62,46.10,0 -112.53,46.00,0 -112.45,45.94,0 -112.25,45.95,0 -112.09,45.96,0 -111.93,45.96,0 -111.79,45.91,0 -111.68,45.84,0 -111.65,45.75,0 -111.61,45.67,0 -111.50,45.67,0 -111.31,45.69,0 -111.16,45.70,0 -110.96,45.70,0 -110.77,45.71,0 -110.62,45.72,0 -110.46,45.75,0 -110.34,45.76,0 -110.19,45.74,0 -110.03,45.69,0 -109.90,45.65,0 -109.76,45.61,0 -109.62,45.55,0 -109.46,45.48,0 -109.30,45.40,0 -109.18,45.32,0 -109.11,45.21,0 -109.09,45.09,0 -109.07,44.97,0 -109.08,44.85,0 -109.18,44.76,0 -109.30,44.69,0 -109.41,44.68,0 -109.50,44.65,0 -109.52,44.55,0 -109.52,44.42,0 -109.51,44.30,0 -109.48,44.17,0 -109.46,44.05,0 -109.46,43.96,0 -109.47,43.86,0 -109.53,43.77,0 -109.68,43.70,0 -109.88,43.63,0 -109.98,43.57,0 -109.90,43.52,0 -109.71,43.48,0 -109.55,43.43,0 -109.44,43.36,0 -109.34,43.28,0 -109.27,43.21,0 -109.22,43.13,0 -109.21,43.06,0 -109.24,42.98,0 -109.33,42.91,0 -109.50,42.89,0 -109.71,42.91,0 -109.84,42.96,0 -109.97,43.02,0 -110.10,43.08,0 -110.24,43.12,0 -110.37,43.14,0 -110.49,43.18,0 -110.60,43.26,0 -110.70,43.35,0 -110.85,43.40,0 -111.00,43.45,0 -111.09,43.51,0 -111.16,43.58,0 -111.21,43.67,0 -111.26,43.81,0 -111.28,43.91,0 -111.31,44.04,0 -111.34,44.18,0 -111.36,44.31,0 -111.38,44.40,0 -111.40,44.49,0 -111.50,44.50,0 -111.69,44.49,0 -111.84,44.49,0 -112.03,44.49,0 -112.22,44.48,0 -112.36,44.45,0 -112.44,44.36,0 -112.46,44.25,0 -112.49,44.16,0 -112.61,44.09,0 -112.74,44.06,0 -112.88,44.04,0 -113.01,44.03,0 -113.12,44.01,0 -113.23,43.97,0 -113.35,43.90,0 -113.46,43.80,0 -113.52,43.71,0 -113.58,43.60,0 -113.64,43.52,0 -113.77,43.46,0 -113.91,43.43,0 -114.07,43.44,0 -114.24,43.46,0 -114.41,43.48,0 -114.60,43.52,0 -114.73,43.55,0 -114.88,43.59,0 -115.03,43.63,0 -115.15,43.67,0 -115.29,43.76,0 -115.36,43.86,0 -115.40,43.96,0 -115.41,44.10,0 -115.40,44.20,0 -115.39,44.33,0 -115.38,44.45,0 -115.37,44.55,0 -115.38,44.68,0 -115.42,44.77,0 -115.52,44.85,0 -115.62,44.93,0 -115.67,45.05,0 -115.63,45.18,0 -115.52,45.23,0 -115.36,45.26,0 -115.20,45.30,0 -115.08,45.35,0 -115.04,45.45,0 -115.05,45.56,0 -115.03,45.66,0 -114.95,45.75,0 -114.85,45.83,0 -114.73,45.90,0 -113.46,46.37,0 
          </coordinates>
        </LinearRing>
      </outerBoundaryIs>
      <innerBoundaryIs>
        <LinearRing>
          <coordinates>
-110.41,44.35,0 -110.40,44.33,0 -110.39,44.31,0 -110.39,44.28,0 -110.38,44.26,0 -110.37,44.23,0 -110.36,44.21,0 -110.36,44.19,0 -110.35,44.16,0 -110.35,44.14,0 -110.34,44.11,0 -110.34,44.08,0 -110.33,44.06,0 -110.32,44.04,0 -110.32,44.01,0 -110.31,43.99,0 -110.31,43.96,0 -110.30,43.94,0 -110.30,43.91,0 -110.29,43.89,0 -110.28,43.87,0 -110.27,43.84,0 -110.25,43.81,0 -110.24,43.79,0 -110.23,43.77,0 -110.22,43.75,0 -110.22,43.73,0 -110.24,43.71,0 -110.27,43.69,0 -110.30,43.69,0 -110.31,43.69,0 -110.32,43.72,0 -110.32,43.74,0 -110.33,43.76,0 -110.33,43.78,0 -110.34,43.81,0 -110.34,43.84,0 -110.35,43.86,0 -110.35,43.89,0 -110.35,43.91,0 -110.36,43.94,0 -110.36,43.96,0 -110.37,43.99,0 -110.37,44.01,0 -110.38,44.04,0 -110.38,44.06,0 -110.38,44.08,0 -110.39,44.11,0 -110.39,44.13,0 -110.39,44.16,0 -110.39,44.18,0 -110.40,44.21,0 -110.40,44.23,0 -110.41,44.35,0 
          </coordinates>
        </LinearRing>
      </innerBoundaryIs>
      <innerBoundaryIs>
        <LinearRing>
          <coordinates>
-112.53,45.38,0 -112.52,45.37,0 -112.52,45.36,0 -112.51,45.34,0 -112.50,45.33,0 -112.49,45.32,0 -112.49,45.30,0 -112.48,45.29,0 -112.48,45.28,0 -112.47,45.26,0 -112.47,45.25,0 -112.46,45.23,0 -112.46,45.22,0 -112.45,45.20,0 -112.45,45.19,0 -112.44,45.17,0 -112.44,45.15,0 -112.44,45.14,0 -112.43,45.12,0 -112.43,45.11,0 -112.43,45.10,0 -112.43,45.09,0 -112.43,45.07,0 -112.43,45.06,0 -112.44,45.06,0 -112.47,45.05,0 -112.48,45.04,0 -112.50,45.04,0 -112.52,45.03,0 -112.54,45.02,0 -112.56,45.02,0 -112.58,45.01,0 -112.61,45.00,0 -112.63,44.99,0 -112.65,44.99,0 -112.67,44.98,0 -112.69,44.98,0 -112.70,44.98,0 -112.72,44.99,0 -112.73,45.00,0 -112.74,45.01,0 -112.75,45.03,0 -112.75,45.05,0 -112.75,45.06,0 -112.75,45.06,0 -112.72,45.08,0 -112.71,45.09,0 -112.70,45.10,0 -112.70,45.11,0 -112.69,45.12,0 -112.68,45.13,0 -112.66,45.14,0 -112.65,45.15,0 -112.64,45.16,0 -112.63,45.18,0 -112.61,45.19,0 -112.60,45.21,0 -112.59,45.22,0 -112.57,45.24,0 -112.56,45.25,0 -112.53,45.38,0 
          </coordinates>
        </LinearRing>
      </innerBoundaryIs>
      <innerBoundaryIs>
        <LinearRing>
          <coordinates>
-109.94,44.44,1000 -109.92,44.42,1000 -109.91,44.40,1000 -109.89,44.39,1000 -109.88,44.37,1000 -109.86,44.35,1000 -109.85,44.33,1000 -109.84,44.32,1000 -109.82,44.30,1000 -109.81,44.28,1000 -109.80,44.26,1000 -109.78,44.24,1000 -109.77,44.22,1000 -109.76,44.21,1000 -109.75,44.19,1000 -109.73,44.17,1000 -109.72,44.15,1000 -109.72,44.13,1000 -109.71,44.11,1000 -109.71,44.09,1000 -109.70,44.07,1000 -109.70,44.04,1000 -109.70,44.02,1000 -109.70,44.00,1000 -109.71,43.98,1000 -109.71,43.96,1000 -109.72,43.94,1000 -109.73,43.92,1000 -109.75,43.90,1000 -109.77,43.87,1000 -109.79,43.86,1000 -109.81,43.85,1000 -109.84,43.84,1000 -109.86,43.84,1000 -109.89,43.84,1000 -109.92,43.85,1000 -109.95,43.86,1000 -109.98,43.88,1000 -110.01,43.89,1000 -110.03,43.91,1000 -110.05,43.93,1000 -110.06,43.95,1000 -110.07,43.97,1000 -110.08,43.99,1000 -110.09,44.01,1000 -110.09,44.03,1000 -110.10,44.06,1000 -110.10,44.08,1000 -110.10,44.10,1000 -110.10,44.12,1000 -110.09,44.14,1000 -110.09,44.16,1000 -110.08,44.18,1000 -110.08,44.20,1000 -110.07,44.22,1000 -110.06,44.24,1000 -110.05,44.26,1000 -109.94,44.44,1000 
          </coordinates>
        </LinearRing>
      </innerBoundaryIs>
      <innerBoundaryIs>
        <LinearRing>
          <coordinates>
-112.36,45.80,1000 -112.28,45.84,1000 -112.18,45.87,1000 -112.06,45.87,1000 -111.94,45.85,1000 -111.88,45.82,1000 -111.82,45.78,1000 -111.76,45.72,1000 -111.69,45.66,1000 -111.62,45.61,1000 -111.54,45.61,1000 -111.45,45.62,1000 -111.35,45.63,1000 -111.23,45.62,1000 -111.10,45.60,1000 -110.99,45.58,1000 -110.91,45.54,1000 -110.85,45.50,1000 -110.77,45.49,1000 -110.69,45.52,1000 -110.60,45.58,1000 -110.49,45.64,1000 -110.38,45.67,1000 -110.28,45.66,1000 -110.17,45.63,1000 -110.06,45.59,1000 -109.94,45.55,1000 -109.84,45.51,1000 -109.74,45.48,1000 -109.64,45.44,1000 -109.55,45.41,1000 -109.47,45.37,1000 -109.40,45.34,1000 -109.32,45.30,1000 -109.27,45.26,1000 -109.23,45.21,1000 -109.20,45.13,1000 -109.19,45.05,1000 -109.19,44.97,1000 -109.22,44.90,1000 -109.28,44.84,1000 -109.34,44.80,1000 -109.41,44.76,1000 -109.50,44.72,1000 -109.61,44.69,1000 -109.73,44.66,1000 -109.83,44.63,1000 -109.89,44.57,1000 -109.93,44.51,1000 -109.98,44.49,1000 -110.04,44.53,1000 -110.12,44.61,1000 -110.20,44.70,1000 -110.28,44.76,1000 -110.38,44.79,1000 -110.48,44.82,1000 -110.58,44.82,1000 -110.66,44.82,1000 -110.77,44.77,1000 -110.80,44.68,1000 -110.76,44.62,1000 -110.67,44.54,1000 -110.59,44.46,1000 -110.54,44.39,1000 -110.54,44.32,1000 -110.56,44.25,1000 -110.59,44.19,1000 -110.60,44.13,1000 -110.57,44.07,1000 -110.53,44.02,1000 -110.49,43.96,1000 -110.46,43.88,1000 -110.45,43.79,1000 -110.44,43.71,1000 -110.46,43.64,1000 -110.51,43.60,1000 -110.59,43.56,1000 -110.70,43.54,1000 -110.81,43.55,1000 -110.93,43.57,1000 -111.03,43.60,1000 -111.09,43.64,1000 -111.14,43.70,1000 -111.16,43.76,1000 -111.15,43.82,1000 -111.12,43.90,1000 -111.11,44.00,1000 -111.12,44.06,1000 -111.14,44.14,1000 -111.16,44.23,1000 -111.18,44.32,1000 -111.21,44.41,1000 -111.24,44.48,1000 -111.27,44.53,1000 -111.35,44.58,1000 -111.44,44.58,1000 -111.54,44.57,1000 -111.65,44.57,1000 -111.77,44.56,1000 -111.89,44.55,1000 -111.99,44.55,1000 -112.09,44.55,1000 -112.18,44.56,1000 -112.26,44.57,1000 -112.36,44.61,1000 -112.42,44.68,1000 -112.44,44.75,1000 -112.44,44.84,1000 -112.41,44.92,1000 -112.34,44.99,1000 -112.24,45.05,1000 -112.18,45.11,1000 -112.19,45.16,1000 -112.27,45.23,1000 -112.31,45.29,1000 -112.36,45.35,1000 -112.41,45.43,1000 -112.47,45.51,1000 -112.53,45.60,1000 -112.36,45.80,1000 
          </coordinates>
        </LinearRing>
      </innerBoundaryIs>
      <innerBoundaryIs>
        <LinearRing>
          <coordinates>
-114.30,44.45,1000 -114.28,44.46,1000 -114.27,44.47,1000 -114.25,44.47,1000 -114.23,44.48,1000 -114.22,44.49,1000 -114.20,44.50,1000 -114.19,44.50,1000 -114.17,44.51,1000 -114.16,44.51,1000 -114.14,44.52,1000 -114.13,44.52,1000 -114.11,44.53,1000 -114.10,44.53,1000 -114.09,44.53,1000 -114.08,44.53,1000 -114.07,44.53,1000 -114.06,44.53,1000 -114.05,44.52,1000 -114.04,44.51,1000 -114.03,44.50,1000 -114.02,44.49,1000 -114.02,44.48,1000 -114.01,44.47,1000 -114.01,44.46,1000 -114.00,44.44,1000 -114.00,44.43,1000 -114.00,44.42,1000 -114.00,44.41,1000 -114.00,44.40,1000 -114.00,44.39,1000 -114.00,44.37,1000 -114.00,44.36,1000 -114.00,44.35,1000 -114.01,44.34,1000 -114.01,44.33,1000 -114.02,44.32,1000 -114.03,44.31,1000 -114.04,44.30,1000 -114.05,44.30,1000 -114.06,44.29,1000 -114.08,44.28,1000 -114.09,44.28,1000 -114.11,44.27,1000 -114.13,44.26,1000 -114.14,44.26,1000 -114.16,44.25,1000 -114.17,44.25,1000 -114.19,44.24,1000 -114.20,44.24,1000 -114.21,44.23,1000 -114.22,44.23,1000 -114.24,44.22,1000 -114.25,44.21,1000 -114.25,44.21,1000 -114.26,44.20,1000 -114.27,44.22,1000 -114.27,44.23,1000 -114.28,44.23,1000 -114.28,44.24,1000 -114.29,44.25,1000 -114.29,44.26,1000 -114.30,44.27,1000 -114.30,44.28,1000 -114.31,44.30,1000 -114.31,44.31,1000 -114.32,44.32,1000 -114.32,44.33,1000 -114.33,44.35,1000 -114.34,44.36,1000 -114.34,44.38,1000 -114.35,44.39,1000 -114.30,44.45,1000 
          </coordinates>
        </LinearRing>
      </innerBoundaryIs>
      <innerBoundaryIs>
        <LinearRing>
          <coordinates>
-113.68,46.23,1000 -113.57,46.28,1000 -113.45,46.32,1000 -113.34,46.34,1000 -113.23,46.35,1000 -113.12,46.35,1000 -113.02,46.32,1000 -112.92,46.27,1000 -112.82,46.19,1000 -112.74,46.09,1000 -112.70,46.01,1000 -112.67,45.91,1000 -112.64,45.81,1000 -112.62,45.72,1000 -112.60,45.64,1000 -112.58,45.54,1000 -112.60,45.46,1000 -112.64,45.39,1000 -112.69,45.31,1000 -112.75,45.24,1000 -112.83,45.17,1000 -112.92,45.11,1000 -112.98,45.05,1000 -112.99,44.98,1000 -112.92,44.87,1000 -112.87,44.80,1000 -112.79,44.72,1000 -112.70,44.63,1000 -112.62,44.53,1000 -112.58,44.44,1000 -112.59,44.36,1000 -112.65,44.30,1000 -112.76,44.23,1000 -112.89,44.17,1000 -113.04,44.11,1000 -113.18,44.06,1000 -113.31,44.01,1000 -113.41,43.96,1000 -113.56,43.88,1000 -113.65,43.81,1000 -113.72,43.76,1000 -113.79,43.68,1000 -113.85,43.62,1000 -113.96,43.58,1000 -114.12,43.56,1000 -114.24,43.57,1000 -114.39,43.59,1000 -114.54,43.62,1000 -114.67,43.65,1000 -114.79,43.68,1000 -114.90,43.71,1000 -115.00,43.75,1000 -115.08,43.79,1000 -115.15,43.85,1000 -115.18,43.93,1000 -115.19,44.01,1000 -115.17,44.11,1000 -115.12,44.21,1000 -115.09,44.31,1000 -115.08,44.39,1000 -115.09,44.46,1000 -115.08,44.52,1000 -115.05,44.58,1000 -114.99,44.64,1000 -114.90,44.71,1000 -114.78,44.79,1000 -114.70,44.87,1000 -114.70,44.95,1000 -114.73,45.04,1000 -114.76,45.11,1000 -114.76,45.19,1000 -114.73,45.27,1000 -114.67,45.35,1000 -114.59,45.44,1000 -114.51,45.50,1000 -114.38,45.46,1000 -114.25,45.43,1000 -114.20,45.48,1000 -114.16,45.55,1000 -114.11,45.64,1000 -114.07,45.72,1000 -114.01,45.81,1000 -113.95,45.91,1000 -113.89,46.00,1000 -113.68,46.23,1000 
          </coordinates>
        </LinearRing>
      </innerBoundaryIs>
  </Polygon>
 </MultiGeometry>
</Placemark>
<Placemark>
  <name>5%</name>
  <visibility>1</visibility>
  <styleUrl>#poly_5</styleUrl>
  <MultiGeometry>
    <Polygon>
      <outerBoundaryIs>
        <LinearRing>
          <coordinates>
-109.94,44.44,1000 -109.92,44.42,1000 -109.91,44.40,1000 -109.89,44.39,1000 -109.88,44.37,1000 -109.86,44.35,1000 -109.85,44.33,1000 -109.84,44.32,1000 -109.82,44.30,1000 -109.81,44.28,1000 -109.80,44.26,1000 -109.78,44.24,1000 -109.77,44.22,1000 -109.76,44.21,1000 -109.75,44.19,1000 -109.73,44.17,1000 -109.72,44.15,1000 -109.72,44.13,1000 -109.71,44.11,1000 -109.71,44.09,1000 -109.70,44.07,1000 -109.70,44.04,1000 -109.70,44.02,1000 -109.70,44.00,1000 -109.71,43.98,1000 -109.71,43.96,1000 -109.72,43.94,1000 -109.73,43.92,1000 -109.75,43.90,1000 -109.77,43.87,1000 -109.79,43.86,1000 -109.81,43.85,1000 -109.84,43.84,1000 -109.86,43.84,1000 -109.89,43.84,1000 -109.92,43.85,1000 -109.95,43.86,1000 -109.98,43.88,1000 -110.01,43.89,1000 -110.03,43.91,1000 -110.05,43.93,1000 -110.06,43.95,1000 -110.07,43.97,1000 -110.08,43.99,1000 -110.09,44.01,1000 -110.09,44.03,1000 -110.10,44.06,1000 -110.10,44.08,1000 -110.10,44.10,1000 -110.10,44.12,1000 -110.09,44.14,1000 -110.09,44.16,1000 -110.08,44.18,1000 -110.08,44.20,1000 -110.07,44.22,1000 -110.06,44.24,1000 -110.05,44.26,1000 -109.94,44.44,1000 
          </coordinates>
        </LinearRing>
      </outerBoundaryIs>
  </Polygon>
 </MultiGeometry>
</Placemark>
<Placemark>
  <name>5%</name>
  <visibility>1</visibility>
  <styleUrl>#poly_5</styleUrl>
  <MultiGeometry>
    <Polygon>
      <outerBoundaryIs>
        <LinearRing>
          <coordinates>
-112.36,45.80,1000 -112.28,45.84,1000 -112.18,45.87,1000 -112.06,45.87,1000 -111.94,45.85,1000 -111.88,45.82,1000 -111.82,45.78,1000 -111.76,45.72,1000 -111.69,45.66,1000 -111.62,45.61,1000 -111.54,45.61,1000 -111.45,45.62,1000 -111.35,45.63,1000 -111.23,45.62,1000 -111.10,45.60,1000 -110.99,45.58,1000 -110.91,45.54,1000 -110.85,45.50,1000 -110.77,45.49,1000 -110.69,45.52,1000 -110.60,45.58,1000 -110.49,45.64,1000 -110.38,45.67,1000 -110.28,45.66,1000 -110.17,45.63,1000 -110.06,45.59,1000 -109.94,45.55,1000 -109.84,45.51,1000 -109.74,45.48,1000 -109.64,45.44,1000 -109.55,45.41,1000 -109.47,45.37,1000 -109.40,45.34,1000 -109.32,45.30,1000 -109.27,45.26,1000 -109.23,45.21,1000 -109.20,45.13,1000 -109.19,45.05,1000 -109.19,44.97,1000 -109.22,44.90,1000 -109.28,44.84,1000 -109.34,44.80,1000 -109.41,44.76,1000 -109.50,44.72,1000 -109.61,44.69,1000 -109.73,44.66,1000 -109.83,44.63,1000 -109.89,44.57,1000 -109.93,44.51,1000 -109.98,44.49,1000 -110.04,44.53,1000 -110.12,44.61,1000 -110.20,44.70,1000 -110.28,44.76,1000 -110.38,44.79,1000 -110.48,44.82,1000 -110.58,44.82,1000 -110.66,44.82,1000 -110.77,44.77,1000 -110.80,44.68,1000 -110.76,44.62,1000 -110.67,44.54,1000 -110.59,44.46,1000 -110.54,44.39,1000 -110.54,44.32,1000 -110.56,44.25,1000 -110.59,44.19,1000 -110.60,44.13,1000 -110.57,44.07,1000 -110.53,44.02,1000 -110.49,43.96,1000 -110.46,43.88,1000 -110.45,43.79,1000 -110.44,43.71,1000 -110.46,43.64,1000 -110.51,43.60,1000 -110.59,43.56,1000 -110.70,43.54,1000 -110.81,43.55,1000 -110.93,43.57,1000 -111.03,43.60,1000 -111.09,43.64,1000 -111.14,43.70,1000 -111.16,43.76,1000 -111.15,43.82,1000 -111.12,43.90,1000 -111.11,44.00,1000 -111.12,44.06,1000 -111.14,44.14,1000 -111.16,44.23,1000 -111.18,44.32,1000 -111.21,44.41,1000 -111.24,44.48,1000 -111.27,44.53,1000 -111.35,44.58,1000 -111.44,44.58,1000 -111.54,44.57,1000 -111.65,44.57,1000 -111.77,44.56,1000 -111.89,44.55,1000 -111.99,44.55,1000 -112.09,44.55,1000 -112.18,44.56,1000 -112.26,44.57,1000 -112.36,44.61,1000 -112.42,44.68,1000 -112.44,44.75,1000 -112.44,44.84,1000 -112.41,44.92,1000 -112.34,44.99,1000 -112.24,45.05,1000 -112.18,45.11,1000 -112.19,45.16,1000 -112.27,45.23,1000 -112.31,45.29,1000 -112.36,45.35,1000 -112.41,45.43,1000 -112.47,45.51,1000 -112.53,45.60,1000 -112.36,45.80,1000 
          </coordinates>
        </LinearRing>
      </outerBoundaryIs>
      <innerBoundaryIs>
        <LinearRing>
          <coordinates>
-110.58,45.43,2000 -110.55,45.46,2000 -110.52,45.48,2000 -110.49,45.51,2000 -110.46,45.53,2000 -110.43,45.55,2000 -110.39,45.57,2000 -110.36,45.58,2000 -110.32,45.59,2000 -110.28,45.59,2000 -110.23,45.59,2000 -110.19,45.58,2000 -110.15,45.57,2000 -110.11,45.56,2000 -110.07,45.55,2000 -110.04,45.53,2000 -110.00,45.51,2000 -109.97,45.50,2000 -109.94,45.48,2000 -109.92,45.47,2000 -109.89,45.46,2000 -109.85,45.46,2000 -109.82,45.45,2000 -109.79,45.44,2000 -109.75,45.43,2000 -109.71,45.42,2000 -109.67,45.40,2000 -109.63,45.39,2000 -109.60,45.38,2000 -109.56,45.37,2000 -109.53,45.36,2000 -109.50,45.34,2000 -109.48,45.32,2000 -109.45,45.30,2000 -109.42,45.28,2000 -109.39,45.26,2000 -109.37,45.23,2000 -109.34,45.20,2000 -109.32,45.18,2000 -109.30,45.15,2000 -109.28,45.12,2000 -109.27,45.09,2000 -109.26,45.06,2000 -109.25,45.03,2000 -109.25,45.01,2000 -109.25,44.98,2000 -109.29,44.96,2000 -109.31,44.94,2000 -109.34,44.92,2000 -109.37,44.90,2000 -109.41,44.88,2000 -109.44,44.85,2000 -109.47,44.83,2000 -109.49,44.82,2000 -109.51,44.81,2000 -109.54,44.81,2000 -109.58,44.80,2000 -109.63,44.80,2000 -109.67,44.79,2000 -109.72,44.79,2000 -109.75,44.79,2000 -109.79,44.79,2000 -109.82,44.80,2000 -109.85,44.80,2000 -109.89,44.79,2000 -109.94,44.79,2000 -109.99,44.79,2000 -110.03,44.80,2000 -110.07,44.80,2000 -110.11,44.82,2000 -110.16,44.83,2000 -110.20,44.84,2000 -110.24,44.85,2000 -110.28,44.86,2000 -110.32,44.88,2000 -110.35,44.89,2000 -110.38,44.91,2000 -110.41,44.92,2000 -110.44,44.93,2000 -110.46,44.94,2000 -110.50,44.96,2000 -110.53,44.97,2000 -110.57,44.98,2000 -110.61,44.99,2000 -110.66,45.01,2000 -110.70,45.02,2000 -110.74,45.04,2000 -110.76,45.06,2000 -110.78,45.09,2000 -110.78,45.11,2000 -110.78,45.14,2000 -110.77,45.18,2000 -110.76,45.21,2000 -110.75,45.24,2000 -110.74,45.27,2000 -110.72,45.29,2000 -110.70,45.32,2000 -110.68,45.34,2000 -110.66,45.37,2000 -110.63,45.39,2000 -110.61,45.42,2000 -110.58,45.43,2000 
          </coordinates>
        </LinearRing>
      </innerBoundaryIs>
      <innerBoundaryIs>
        <LinearRing>
          <coordinates>
-110.85,44.13,2000 -110.84,44.11,2000 -110.83,44.10,2000 -110.81,44.08,2000 -110.80,44.06,2000 -110.78,44.05,2000 -110.76,44.03,2000 -110.74,44.02,2000 -110.72,44.01,2000 -110.70,44.00,2000 -110.68,43.98,2000 -110.66,43.97,2000 -110.63,43.96,2000 -110.61,43.95,2000 -110.59,43.94,2000 -110.58,43.93,2000 -110.56,43.91,2000 -110.54,43.90,2000 -110.53,43.89,2000 -110.53,43.87,2000 -110.53,43.86,2000 -110.53,43.84,2000 -110.54,43.82,2000 -110.55,43.80,2000 -110.55,43.79,2000 -110.56,43.77,2000 -110.56,43.75,2000 -110.56,43.74,2000 -110.57,43.72,2000 -110.57,43.71,2000 -110.59,43.69,2000 -110.61,43.68,2000 -110.62,43.66,2000 -110.65,43.65,2000 -110.67,43.64,2000 -110.70,43.62,2000 -110.72,43.61,2000 -110.75,43.60,2000 -110.77,43.60,2000 -110.79,43.60,2000 -110.82,43.60,2000 -110.85,43.61,2000 -110.87,43.62,2000 -110.90,43.63,2000 -110.92,43.64,2000 -110.94,43.65,2000 -110.96,43.66,2000 -110.98,43.67,2000 -110.99,43.69,2000 -111.00,43.70,2000 -111.01,43.72,2000 -111.02,43.74,2000 -111.03,43.75,2000 -111.04,43.77,2000 -111.06,43.78,2000 -111.07,43.80,2000 -111.08,43.82,2000 -111.08,43.83,2000 -111.08,43.85,2000 -111.07,43.86,2000 -111.05,43.88,2000 -111.04,43.89,2000 -111.03,43.90,2000 -111.01,43.92,2000 -111.00,43.93,2000 -110.98,43.95,2000 -110.96,43.96,2000 -110.95,43.98,2000 -110.93,43.99,2000 -110.91,44.01,2000 -110.85,44.13,2000 
          </coordinates>
        </LinearRing>
      </innerBoundaryIs>
      <innerBoundaryIs>
        <LinearRing>
          <coordinates>
-112.12,45.81,2000 -112.07,45.81,2000 -112.02,45.80,2000 -111.96,45.79,2000 -111.91,45.77,2000 -111.86,45.75,2000 -111.82,45.72,2000 -111.78,45.69,2000 -111.75,45.65,2000 -111.71,45.60,2000 -111.67,45.57,2000 -111.64,45.53,2000 -111.61,45.51,2000 -111.55,45.50,2000 -111.49,45.52,2000 -111.45,45.53,2000 -111.40,45.54,2000 -111.34,45.55,2000 -111.28,45.55,2000 -111.22,45.56,2000 -111.17,45.55,2000 -111.12,45.54,2000 -111.07,45.52,2000 -111.02,45.50,2000 -110.97,45.47,2000 -110.93,45.44,2000 -110.89,45.40,2000 -110.87,45.37,2000 -110.84,45.33,2000 -110.82,45.28,2000 -110.81,45.24,2000 -110.79,45.19,2000 -110.78,45.14,2000 -110.78,45.10,2000 -110.78,45.06,2000 -110.79,45.02,2000 -110.81,44.98,2000 -110.84,44.93,2000 -110.87,44.90,2000 -110.90,44.86,2000 -110.94,44.83,2000 -110.97,44.80,2000 -111.02,44.77,2000 -111.06,44.75,2000 -111.11,44.73,2000 -111.16,44.71,2000 -111.21,44.70,2000 -111.26,44.69,2000 -111.30,44.67,2000 -111.36,44.67,2000 -111.43,44.66,2000 -111.48,44.66,2000 -111.54,44.65,2000 -111.60,44.65,2000 -111.67,44.65,2000 -111.74,44.65,2000 -111.80,44.64,2000 -111.86,44.64,2000 -111.91,44.64,2000 -111.98,44.64,2000 -112.03,44.63,2000 -112.08,44.63,2000 -112.12,44.63,2000 -112.16,44.64,2000 -112.22,44.66,2000 -112.27,44.68,2000 -112.32,44.71,2000 -112.34,44.75,2000 -112.34,44.78,2000 -112.32,44.82,2000 -112.30,44.86,2000 -112.27,44.90,2000 -112.24,44.94,2000 -112.21,44.97,2000 -112.17,45.00,2000 -112.12,45.03,2000 -112.07,45.05,2000 -112.03,45.08,2000 -111.99,45.10,2000 -111.97,45.13,2000 -111.97,45.16,2000 -111.99,45.19,2000 -112.03,45.23,2000 -112.07,45.26,2000 -112.11,45.29,2000 -112.15,45.32,2000 -112.20,45.34,2000 -112.25,45.36,2000 -112.30,45.39,2000 -112.35,45.41,2000 -112.38,45.44,2000 -112.41,45.48,2000 -112.43,45.53,2000 -112.43,45.57,2000 -112.43,45.61,2000 -112.42,45.65,2000 -112.39,45.68,2000 -112.35,45.71,2000 -112.12,45.81,2000 
          </coordinates>
        </LinearRing>
      </innerBoundaryIs>
      <innerBoundaryIs>
        <LinearRing>
          <coordinates>
-110.92,44.55,2000 -110.93,44.56,2000 -110.90,44.54,2000 -110.89,44.53,2000 -110.88,44.53,2000 -110.87,44.52,2000 -110.86,44.51,2000 -110.85,44.51,2000 -110.83,44.50,2000 -110.82,44.49,2000 -110.80,44.48,2000 -110.79,44.47,2000 -110.77,44.46,2000 -110.76,44.45,2000 -110.75,44.44,2000 -110.73,44.43,2000 -110.72,44.42,2000 -110.71,44.41,2000 -110.71,44.40,2000 -110.70,44.39,2000 -110.70,44.38,2000 -110.70,44.37,2000 -110.70,44.36,2000 -110.71,44.35,2000 -110.71,44.34,2000 -110.72,44.32,2000 -110.73,44.31,2000 -110.74,44.30,2000 -110.75,44.29,2000 -110.76,44.28,2000 -110.78,44.27,2000 -110.79,44.26,2000 -110.80,44.25,2000 -110.82,44.24,2000 -110.83,44.23,2000 -110.84,44.23,2000 -110.86,44.22,2000 -110.87,44.22,2000 -110.88,44.22,2000 -110.90,44.22,2000 -110.91,44.22,2000 -110.93,44.23,2000 -110.95,44.23,2000 -110.96,44.24,2000 -110.98,44.24,2000 -111.00,44.25,2000 -111.02,44.26,2000 -111.03,44.27,2000 -111.05,44.28,2000 -111.06,44.28,2000 -111.08,44.29,2000 -111.09,44.30,2000 -111.10,44.31,2000 -111.11,44.32,2000 -111.12,44.33,2000 -111.12,44.34,2000 -111.12,44.35,2000 -111.12,44.36,2000 -111.12,44.37,2000 -111.12,44.37,2000 -111.11,44.38,2000 -111.10,44.39,2000 -111.10,44.40,2000 -111.09,44.41,2000 -111.08,44.42,2000 -111.07,44.43,2000 -111.06,44.44,2000 -111.05,44.45,2000 -111.03,44.47,2000 -111.02,44.48,2000 -111.01,44.49,2000 -110.99,44.50,2000 -110.98,44.51,2000 -110.96,44.52,2000 -110.95,44.53,2000 -110.92,44.55,2000 
          </coordinates>
        </LinearRing>
      </innerBoundaryIs>
  </Polygon>
 </MultiGeometry>
</Placemark>
<Placemark>
  <name>5%</name>
  <visibility>1</visibility>
  <styleUrl>#poly_5</styleUrl>
  <MultiGeometry>
    <Polygon>
      <outerBoundaryIs>
        <LinearRing>
          <coordinates>
-113.68,46.23,1000 -113.57,46.28,1000 -113.45,46.32,1000 -113.34,46.34,1000 -113.23,46.35,1000 -113.12,46.35,1000 -113.02,46.32,1000 -112.92,46.27,1000 -112.82,46.19,1000 -112.74,46.09,1000 -112.70,46.01,1000 -112.67,45.91,1000 -112.64,45.81,1000 -112.62,45.72,1000 -112.60,45.64,1000 -112.58,45.54,1000 -112.60,45.46,1000 -112.64,45.39,1000 -112.69,45.31,1000 -112.75,45.24,1000 -112.83,45.17,1000 -112.92,45.11,1000 -112.98,45.05,1000 -112.99,44.98,1000 -112.92,44.87,1000 -112.87,44.80,1000 -112.79,44.72,1000 -112.70,44.63,1000 -112.62,44.53,1000 -112.58,44.44,1000 -112.59,44.36,1000 -112.65,44.30,1000 -112.76,44.23,1000 -112.89,44.17,1000 -113.04,44.11,1000 -113.18,44.06,1000 -113.31,44.01,1000 -113.41,43.96,1000 -113.56,43.88,1000 -113.65,43.81,1000 -113.72,43.76,1000 -113.79,43.68,1000 -113.85,43.62,1000 -113.96,43.58,1000 -114.12,43.56,1000 -114.24,43.57,1000 -114.39,43.59,1000 -114.54,43.62,1000 -114.67,43.65,1000 -114.79,43.68,1000 -114.90,43.71,1000 -115.00,43.75,1000 -115.08,43.79,1000 -115.15,43.85,1000 -115.18,43.93,1000 -115.19,44.01,1000 -115.17,44.11,1000 -115.12,44.21,1000 -115.09,44.31,1000 -115.08,44.39,1000 -115.09,44.46,1000 -115.08,44.52,1000 -115.05,44.58,1000 -114.99,44.64,1000 -114.90,44.71,1000 -114.78,44.79,1000 -114.70,44.87,1000 -114.70,44.95,1000 -114.73,45.04,1000 -114.76,45.11,1000 -114.76,45.19,1000 -114.73,45.27,1000 -114.67,45.35,1000 -114.59,45.44,1000 -114.51,45.50,1000 -114.38,45.46,1000 -114.25,45.43,1000 -114.20,45.48,1000 -114.16,45.55,1000 -114.11,45.64,1000 -114.07,45.72,1000 -114.01,45.81,1000 -113.95,45.91,1000 -113.89,46.00,1000 -113.68,46.23,1000 
          </coordinates>
        </LinearRing>
      </outerBoundaryIs>
      <innerBoundaryIs>
        <LinearRing>
          <coordinates>
-114.30,44.45,1000 -114.28,44.46,1000 -114.27,44.47,1000 -114.25,44.47,1000 -114.23,44.48,1000 -114.22,44.49,1000 -114.20,44.50,1000 -114.19,44.50,1000 -114.17,44.51,1000 -114.16,44.51,1000 -114.14,44.52,1000 -114.13,44.52,1000 -114.11,44.53,1000 -114.10,44.53,1000 -114.09,44.53,1000 -114.08,44.53,1000 -114.07,44.53,1000 -114.06,44.53,1000 -114.05,44.52,1000 -114.04,44.51,1000 -114.03,44.50,1000 -114.02,44.49,1000 -114.02,44.48,1000 -114.01,44.47,1000 -114.01,44.46,1000 -114.00,44.44,1000 -114.00,44.43,1000 -114.00,44.42,1000 -114.00,44.41,1000 -114.00,44.40,1000 -114.00,44.39,1000 -114.00,44.37,1000 -114.00,44.36,1000 -114.00,44.35,1000 -114.01,44.34,1000 -114.01,44.33,1000 -114.02,44.32,1000 -114.03,44.31,1000 -114.04,44.30,1000 -114.05,44.30,1000 -114.06,44.29,1000 -114.08,44.28,1000 -114.09,44.28,1000 -114.11,44.27,1000 -114.13,44.26,1000 -114.14,44.26,1000 -114.16,44.25,1000 -114.17,44.25,1000 -114.19,44.24,1000 -114.20,44.24,1000 -114.21,44.23,1000 -114.22,44.23,1000 -114.24,44.22,1000 -114.25,44.21,1000 -114.25,44.21,1000 -114.26,44.20,1000 -114.27,44.22,1000 -114.27,44.23,1000 -114.28,44.23,1000 -114.28,44.24,1000 -114.29,44.25,1000 -114.29,44.26,1000 -114.30,44.27,1000 -114.30,44.28,1000 -114.31,44.30,1000 -114.31,44.31,1000 -114.32,44.32,1000 -114.32,44.33,1000 -114.33,44.35,1000 -114.34,44.36,1000 -114.34,44.38,1000 -114.35,44.39,1000 -114.30,44.45,1000 
          </coordinates>
        </LinearRing>
      </innerBoundaryIs>
      <innerBoundaryIs>
        <LinearRing>
          <coordinates>
-114.34,44.62,2000 -114.31,44.62,2000 -114.28,44.62,2000 -114.25,44.63,2000 -114.22,44.63,2000 -114.20,44.63,2000 -114.17,44.63,2000 -114.15,44.63,2000 -114.12,44.63,2000 -114.11,44.63,2000 -114.09,44.63,2000 -114.06,44.62,2000 -114.06,44.61,2000 -114.05,44.59,2000 -114.04,44.58,2000 -114.03,44.57,2000 -114.01,44.55,2000 -114.00,44.54,2000 -113.98,44.52,2000 -113.96,44.50,2000 -113.95,44.48,2000 -113.94,44.47,2000 -113.93,44.45,2000 -113.92,44.43,2000 -113.92,44.41,2000 -113.92,44.39,2000 -113.92,44.37,2000 -113.92,44.35,2000 -113.93,44.33,2000 -113.94,44.32,2000 -113.94,44.30,2000 -113.95,44.28,2000 -113.95,44.26,2000 -113.96,44.25,2000 -113.97,44.23,2000 -113.97,44.21,2000 -113.98,44.20,2000 -113.99,44.19,2000 -114.01,44.18,2000 -114.03,44.17,2000 -114.05,44.17,2000 -114.07,44.16,2000 -114.09,44.15,2000 -114.12,44.15,2000 -114.14,44.14,2000 -114.17,44.13,2000 -114.20,44.13,2000 -114.22,44.13,2000 -114.24,44.13,2000 -114.26,44.13,2000 -114.29,44.14,2000 -114.31,44.15,2000 -114.33,44.16,2000 -114.35,44.17,2000 -114.36,44.18,2000 -114.38,44.20,2000 -114.40,44.21,2000 -114.42,44.22,2000 -114.43,44.24,2000 -114.45,44.25,2000 -114.47,44.27,2000 -114.48,44.28,2000 -114.50,44.30,2000 -114.51,44.32,2000 -114.52,44.33,2000 -114.53,44.35,2000 -114.53,44.37,2000 -114.53,44.38,2000 -114.52,44.40,2000 -114.52,44.42,2000 -114.51,44.43,2000 -114.49,44.45,2000 -114.48,44.46,2000 -114.47,44.48,2000 -114.45,44.49,2000 -114.43,44.51,2000 -114.42,44.53,2000 -114.40,44.54,2000 -114.38,44.56,2000 -114.34,44.62,2000 
          </coordinates>
        </LinearRing>
      </innerBoundaryIs>
      <innerBoundaryIs>
        <LinearRing>
          <coordinates>
-113.44,46.28,2000 -113.32,46.29,2000 -113.21,46.29,2000 -113.12,46.28,2000 -113.03,46.25,2000 -112.95,46.19,2000 -112.89,46.11,2000 -112.84,46.01,2000 -112.79,45.92,2000 -112.75,45.84,2000 -112.72,45.76,2000 -112.69,45.69,2000 -112.67,45.62,2000 -112.66,45.55,2000 -112.67,45.47,2000 -112.73,45.38,2000 -112.81,45.29,2000 -112.88,45.22,2000 -112.96,45.16,2000 -113.02,45.10,2000 -113.05,45.02,2000 -113.04,44.92,2000 -113.00,44.85,2000 -112.95,44.77,2000 -112.89,44.69,2000 -112.84,44.61,2000 -112.78,44.54,2000 -112.75,44.47,2000 -112.73,44.39,2000 -112.79,44.32,2000 -112.88,44.29,2000 -113.00,44.27,2000 -113.14,44.24,2000 -113.28,44.18,2000 -113.36,44.13,2000 -113.45,44.07,2000 -113.54,43.99,2000 -113.64,43.92,2000 -113.73,43.85,2000 -113.81,43.79,2000 -113.89,43.74,2000 -114.01,43.69,2000 -114.12,43.67,2000 -114.22,43.66,2000 -114.31,43.66,2000 -114.43,43.66,2000 -114.54,43.68,2000 -114.64,43.70,2000 -114.74,43.73,2000 -114.83,43.76,2000 -114.91,43.79,2000 -114.99,43.84,2000 -115.04,43.91,2000 -115.06,43.97,2000 -115.07,44.05,2000 -115.07,44.11,2000 -115.04,44.17,2000 -114.99,44.24,2000 -114.96,44.31,2000 -114.93,44.40,2000 -114.89,44.49,2000 -114.85,44.57,2000 -114.77,44.64,2000 -114.68,44.69,2000 -114.61,44.76,2000 -114.58,44.83,2000 -114.56,44.92,2000 -114.54,45.02,2000 -114.52,45.10,2000 -114.49,45.16,2000 -114.39,45.20,2000 -114.26,45.19,2000 -114.15,45.16,2000 -114.03,45.12,2000 -113.96,45.12,2000 -113.98,45.18,2000 -114.03,45.26,2000 -114.09,45.36,2000 -114.11,45.45,2000 -114.07,45.52,2000 -113.99,45.59,2000 -113.91,45.65,2000 -113.85,45.72,2000 -113.82,45.81,2000 -113.81,45.90,2000 -113.81,45.99,2000 -113.44,46.28,2000 
          </coordinates>
        </LinearRing>
      </innerBoundaryIs>
  </Polygon>
 </MultiGeometry>
</Placemark>
<Placemark>
  <name>10%</name>
  <visibility>1</visibility>
  <styleUrl>#poly_10</styleUrl>
  <MultiGeometry>
    <Polygon>
      <outerBoundaryIs>
        <LinearRing>
          <coordinates>
-113.44,46.28,2000 -113.32,46.29,2000 -113.21,46.29,2000 -113.12,46.28,2000 -113.03,46.25,2000 -112.95,46.19,2000 -112.89,46.11,2000 -112.84,46.01,2000 -112.79,45.92,2000 -112.75,45.84,2000 -112.72,45.76,2000 -112.69,45.69,2000 -112.67,45.62,2000 -112.66,45.55,2000 -112.67,45.47,2000 -112.73,45.38,2000 -112.81,45.29,2000 -112.88,45.22,2000 -112.96,45.16,2000 -113.02,45.10,2000 -113.05,45.02,2000 -113.04,44.92,2000 -113.00,44.85,2000 -112.95,44.77,2000 -112.89,44.69,2000 -112.84,44.61,2000 -112.78,44.54,2000 -112.75,44.47,2000 -112.73,44.39,2000 -112.79,44.32,2000 -112.88,44.29,2000 -113.00,44.27,2000 -113.14,44.24,2000 -113.28,44.18,2000 -113.36,44.13,2000 -113.45,44.07,2000 -113.54,43.99,2000 -113.64,43.92,2000 -113.73,43.85,2000 -113.81,43.79,2000 -113.89,43.74,2000 -114.01,43.69,2000 -114.12,43.67,2000 -114.22,43.66,2000 -114.31,43.66,2000 -114.43,43.66,2000 -114.54,43.68,2000 -114.64,43.70,2000 -114.74,43.73,2000 -114.83,43.76,2000 -114.91,43.79,2000 -114.99,43.84,2000 -115.04,43.91,2000 -115.06,43.97,2000 -115.07,44.05,2000 -115.07,44.11,2000 -115.04,44.17,2000 -114.99,44.24,2000 -114.96,44.31,2000 -114.93,44.40,2000 -114.89,44.49,2000 -114.85,44.57,2000 -114.77,44.64,2000 -114.68,44.69,2000 -114.61,44.76,2000 -114.58,44.83,2000 -114.56,44.92,2000 -114.54,45.02,2000 -114.52,45.10,2000 -114.49,45.16,2000 -114.39,45.20,2000 -114.26,45.19,2000 -114.15,45.16,2000 -114.03,45.12,2000 -113.96,45.12,2000 -113.98,45.18,2000 -114.03,45.26,2000 -114.09,45.36,2000 -114.11,45.45,2000 -114.07,45.52,2000 -113.99,45.59,2000 -113.91,45.65,2000 -113.85,45.72,2000 -113.82,45.81,2000 -113.81,45.90,2000 -113.81,45.99,2000 -113.44,46.28,2000 
          </coordinates>
        </LinearRing>
      </outerBoundaryIs>
      <innerBoundaryIs>
        <LinearRing>
          <coordinates>
-114.34,44.62,2000 -114.31,44.62,2000 -114.28,44.62,2000 -114.25,44.63,2000 -114.22,44.63,2000 -114.20,44.63,2000 -114.17,44.63,2000 -114.15,44.63,2000 -114.12,44.63,2000 -114.11,44.63,2000 -114.09,44.63,2000 -114.06,44.62,2000 -114.06,44.61,2000 -114.05,44.59,2000 -114.04,44.58,2000 -114.03,44.57,2000 -114.01,44.55,2000 -114.00,44.54,2000 -113.98,44.52,2000 -113.96,44.50,2000 -113.95,44.48,2000 -113.94,44.47,2000 -113.93,44.45,2000 -113.92,44.43,2000 -113.92,44.41,2000 -113.92,44.39,2000 -113.92,44.37,2000 -113.92,44.35,2000 -113.93,44.33,2000 -113.94,44.32,2000 -113.94,44.30,2000 -113.95,44.28,2000 -113.95,44.26,2000 -113.96,44.25,2000 -113.97,44.23,2000 -113.97,44.21,2000 -113.98,44.20,2000 -113.99,44.19,2000 -114.01,44.18,2000 -114.03,44.17,2000 -114.05,44.17,2000 -114.07,44.16,2000 -114.09,44.15,2000 -114.12,44.15,2000 -114.14,44.14,2000 -114.17,44.13,2000 -114.20,44.13,2000 -114.22,44.13,2000 -114.24,44.13,2000 -114.26,44.13,2000 -114.29,44.14,2000 -114.31,44.15,2000 -114.33,44.16,2000 -114.35,44.17,2000 -114.36,44.18,2000 -114.38,44.20,2000 -114.40,44.21,2000 -114.42,44.22,2000 -114.43,44.24,2000 -114.45,44.25,2000 -114.47,44.27,2000 -114.48,44.28,2000 -114.50,44.30,2000 -114.51,44.32,2000 -114.52,44.33,2000 -114.53,44.35,2000 -114.53,44.37,2000 -114.53,44.38,2000 -114.52,44.40,2000 -114.52,44.42,2000 -114.51,44.43,2000 -114.49,44.45,2000 -114.48,44.46,2000 -114.47,44.48,2000 -114.45,44.49,2000 -114.43,44.51,2000 -114.42,44.53,2000 -114.40,44.54,2000 -114.38,44.56,2000 -114.34,44.62,2000 
          </coordinates>
        </LinearRing>
      </innerBoundaryIs>
      <innerBoundaryIs>
        <LinearRing>
          <coordinates>
-113.64,46.02,3000 -113.58,46.07,3000 -113.52,46.12,3000 -113.46,46.16,3000 -113.38,46.20,3000 -113.28,46.20,3000 -113.21,46.19,3000 -113.13,46.16,3000 -113.06,46.12,3000 -112.99,46.07,3000 -112.95,46.02,3000 -112.92,45.96,3000 -112.89,45.89,3000 -112.87,45.82,3000 -112.85,45.75,3000 -112.83,45.69,3000 -112.81,45.61,3000 -112.78,45.54,3000 -112.78,45.47,3000 -112.81,45.40,3000 -112.86,45.35,3000 -112.92,45.29,3000 -113.00,45.24,3000 -113.08,45.18,3000 -113.15,45.14,3000 -113.21,45.10,3000 -113.30,45.05,3000 -113.34,45.02,3000 -113.33,44.97,3000 -113.29,44.91,3000 -113.25,44.87,3000 -113.20,44.83,3000 -113.15,44.78,3000 -113.09,44.72,3000 -113.03,44.66,3000 -113.00,44.59,3000 -112.99,44.52,3000 -113.01,44.44,3000 -113.07,44.37,3000 -113.14,44.33,3000 -113.23,44.28,3000 -113.34,44.23,3000 -113.44,44.20,3000 -113.52,44.19,3000 -113.60,44.21,3000 -113.66,44.27,3000 -113.72,44.33,3000 -113.76,44.38,3000 -113.79,44.43,3000 -113.82,44.49,3000 -113.87,44.54,3000 -113.93,44.59,3000 -113.99,44.65,3000 -114.02,44.70,3000 -114.01,44.77,3000 -113.97,44.84,3000 -113.90,44.89,3000 -113.82,44.91,3000 -113.71,44.93,3000 -113.62,44.94,3000 -113.56,44.96,3000 -113.57,45.02,3000 -113.64,45.08,3000 -113.71,45.14,3000 -113.78,45.18,3000 -113.83,45.23,3000 -113.85,45.28,3000 -113.87,45.34,3000 -113.87,45.41,3000 -113.85,45.47,3000 -113.79,45.52,3000 -113.70,45.56,3000 -113.61,45.61,3000 -113.56,45.67,3000 -113.55,45.73,3000 -113.56,45.79,3000 -113.58,45.86,3000 -113.61,45.94,3000 -113.65,46.01,3000 -113.64,46.02,3000 
          </coordinates>
        </LinearRing>
      </innerBoundaryIs>
      <innerBoundaryIs>
        <LinearRing>
          <coordinates>
-114.73,44.18,3000 -114.72,44.17,3000 -114.71,44.17,3000 -114.69,44.16,3000 -114.67,44.16,3000 -114.65,44.16,3000 -114.63,44.15,3000 -114.61,44.15,3000 -114.59,44.15,3000 -114.56,44.14,3000 -114.54,44.14,3000 -114.52,44.13,3000 -114.50,44.13,3000 -114.48,44.12,3000 -114.46,44.11,3000 -114.44,44.11,3000 -114.42,44.10,3000 -114.40,44.09,3000 -114.38,44.08,3000 -114.37,44.07,3000 -114.35,44.06,3000 -114.34,44.05,3000 -114.32,44.04,3000 -114.31,44.03,3000 -114.29,44.02,3000 -114.28,44.00,3000 -114.27,43.98,3000 -114.25,43.97,3000 -114.24,43.95,3000 -114.23,43.94,3000 -114.22,43.92,3000 -114.21,43.91,3000 -114.20,43.90,3000 -114.19,43.89,3000 -114.17,43.88,3000 -114.17,43.88,3000 -114.16,43.88,3000 -114.19,43.87,3000 -114.20,43.86,3000 -114.21,43.86,3000 -114.23,43.85,3000 -114.25,43.84,3000 -114.27,43.83,3000 -114.29,43.82,3000 -114.31,43.81,3000 -114.33,43.80,3000 -114.35,43.80,3000 -114.37,43.79,3000 -114.39,43.78,3000 -114.41,43.78,3000 -114.43,43.78,3000 -114.45,43.78,3000 -114.47,43.78,3000 -114.50,43.78,3000 -114.52,43.78,3000 -114.54,43.79,3000 -114.57,43.79,3000 -114.59,43.80,3000 -114.61,43.80,3000 -114.63,43.80,3000 -114.65,43.81,3000 -114.66,43.81,3000 -114.69,43.81,3000 -114.70,43.81,3000 -114.72,43.83,3000 -114.73,43.84,3000 -114.75,43.85,3000 -114.76,43.85,3000 -114.78,43.87,3000 -114.80,43.88,3000 -114.82,43.89,3000 -114.84,43.90,3000 -114.86,43.91,3000 -114.88,43.93,3000 -114.90,43.94,3000 -114.91,43.95,3000 -114.92,43.97,3000 -114.92,43.98,3000 -114.92,43.99,3000 -114.92,44.00,3000 -114.91,44.02,3000 -114.90,44.03,3000 -114.89,44.04,3000 -114.88,44.06,3000 -114.87,44.07,3000 -114.86,44.09,3000 -114.84,44.10,3000 -114.82,44.11,3000 -114.81,44.13,3000 -114.79,44.14,3000 -114.77,44.16,3000 -114.75,44.17,3000 -114.73,44.18,3000 
          </coordinates>
        </LinearRing>
      </innerBoundaryIs>
  </Polygon>
 </MultiGeometry>
</Placemark>
<Placemark>
  <name>10%</name>
  <visibility>1</visibility>
  <styleUrl>#poly_10</styleUrl>
  <MultiGeometry>
    <Polygon>
      <outerBoundaryIs>
        <LinearRing>
          <coordinates>
-110.58,45.43,2000 -110.55,45.46,2000 -110.52,45.48,2000 -110.49,45.51,2000 -110.46,45.53,2000 -110.43,45.55,2000 -110.39,45.57,2000 -110.36,45.58,2000 -110.32,45.59,2000 -110.28,45.59,2000 -110.23,45.59,2000 -110.19,45.58,2000 -110.15,45.57,2000 -110.11,45.56,2000 -110.07,45.55,2000 -110.04,45.53,2000 -110.00,45.51,2000 -109.97,45.50,2000 -109.94,45.48,2000 -109.92,45.47,2000 -109.89,45.46,2000 -109.85,45.46,2000 -109.82,45.45,2000 -109.79,45.44,2000 -109.75,45.43,2000 -109.71,45.42,2000 -109.67,45.40,2000 -109.63,45.39,2000 -109.60,45.38,2000 -109.56,45.37,2000 -109.53,45.36,2000 -109.50,45.34,2000 -109.48,45.32,2000 -109.45,45.30,2000 -109.42,45.28,2000 -109.39,45.26,2000 -109.37,45.23,2000 -109.34,45.20,2000 -109.32,45.18,2000 -109.30,45.15,2000 -109.28,45.12,2000 -109.27,45.09,2000 -109.26,45.06,2000 -109.25,45.03,2000 -109.25,45.01,2000 -109.25,44.98,2000 -109.29,44.96,2000 -109.31,44.94,2000 -109.34,44.92,2000 -109.37,44.90,2000 -109.41,44.88,2000 -109.44,44.85,2000 -109.47,44.83,2000 -109.49,44.82,2000 -109.51,44.81,2000 -109.54,44.81,2000 -109.58,44.80,2000 -109.63,44.80,2000 -109.67,44.79,2000 -109.72,44.79,2000 -109.75,44.79,2000 -109.79,44.79,2000 -109.82,44.80,2000 -109.85,44.80,2000 -109.89,44.79,2000 -109.94,44.79,2000 -109.99,44.79,2000 -110.03,44.80,2000 -110.07,44.80,2000 -110.11,44.82,2000 -110.16,44.83,2000 -110.20,44.84,2000 -110.24,44.85,2000 -110.28,44.86,2000 -110.32,44.88,2000 -110.35,44.89,2000 -110.38,44.91,2000 -110.41,44.92,2000 -110.44,44.93,2000 -110.46,44.94,2000 -110.50,44.96,2000 -110.53,44.97,2000 -110.57,44.98,2000 -110.61,44.99,2000 -110.66,45.01,2000 -110.70,45.02,2000 -110.74,45.04,2000 -110.76,45.06,2000 -110.78,45.09,2000 -110.78,45.11,2000 -110.78,45.14,2000 -110.77,45.18,2000 -110.76,45.21,2000 -110.75,45.24,2000 -110.74,45.27,2000 -110.72,45.29,2000 -110.70,45.32,2000 -110.68,45.34,2000 -110.66,45.37,2000 -110.63,45.39,2000 -110.61,45.42,2000 -110.58,45.43,2000 
          </coordinates>
        </LinearRing>
      </outerBoundaryIs>
      <innerBoundaryIs>
        <LinearRing>
          <coordinates>
-110.35,45.48,3000 -110.32,45.48,3000 -110.28,45.47,3000 -110.25,45.47,3000 -110.22,45.47,3000 -110.19,45.46,3000 -110.17,45.46,3000 -110.15,45.46,3000 -110.13,45.46,3000 -110.10,45.45,3000 -110.08,45.44,3000 -110.05,45.44,3000 -110.03,45.43,3000 -109.99,45.42,3000 -109.96,45.41,3000 -109.93,45.40,3000 -109.90,45.40,3000 -109.87,45.39,3000 -109.84,45.38,3000 -109.81,45.37,3000 -109.78,45.36,3000 -109.75,45.35,3000 -109.73,45.34,3000 -109.70,45.33,3000 -109.68,45.32,3000 -109.65,45.31,3000 -109.63,45.30,3000 -109.61,45.29,3000 -109.58,45.28,3000 -109.56,45.27,3000 -109.53,45.26,3000 -109.51,45.24,3000 -109.48,45.23,3000 -109.46,45.21,3000 -109.44,45.19,3000 -109.42,45.17,3000 -109.41,45.15,3000 -109.40,45.13,3000 -109.39,45.11,3000 -109.39,45.08,3000 -109.38,45.06,3000 -109.38,45.04,3000 -109.39,45.02,3000 -109.39,45.00,3000 -109.40,44.98,3000 -109.42,44.96,3000 -109.44,44.94,3000 -109.46,44.93,3000 -109.49,44.91,3000 -109.52,44.90,3000 -109.54,44.89,3000 -109.57,44.89,3000 -109.60,44.88,3000 -109.63,44.88,3000 -109.66,44.87,3000 -109.70,44.87,3000 -109.73,44.87,3000 -109.76,44.87,3000 -109.79,44.87,3000 -109.83,44.88,3000 -109.86,44.88,3000 -109.90,44.89,3000 -109.93,44.90,3000 -109.96,44.91,3000 -109.99,44.91,3000 -110.01,44.92,3000 -110.04,44.93,3000 -110.05,44.94,3000 -110.08,44.95,3000 -110.10,44.96,3000 -110.13,44.96,3000 -110.15,44.97,3000 -110.18,44.97,3000 -110.21,44.98,3000 -110.24,44.99,3000 -110.27,45.00,3000 -110.30,45.01,3000 -110.33,45.02,3000 -110.36,45.03,3000 -110.39,45.04,3000 -110.42,45.06,3000 -110.44,45.07,3000 -110.46,45.09,3000 -110.47,45.11,3000 -110.48,45.13,3000 -110.49,45.15,3000 -110.50,45.17,3000 -110.50,45.19,3000 -110.50,45.21,3000 -110.50,45.24,3000 -110.50,45.26,3000 -110.50,45.28,3000 -110.49,45.30,3000 -110.48,45.32,3000 -110.47,45.34,3000 -110.46,45.36,3000 -110.45,45.38,3000 -110.44,45.40,3000 -110.42,45.42,3000 -110.41,45.44,3000 -110.35,45.48,3000 
          </coordinates>
        </LinearRing>
      </innerBoundaryIs>
  </Polygon>
 </MultiGeometry>
</Placemark>
<Placemark>
  <name>10%</name>
  <visibility>1</visibility>
  <styleUrl>#poly_10</styleUrl>
  <MultiGeometry>
    <Polygon>
      <outerBoundaryIs>
        <LinearRing>
          <coordinates>
-110.85,44.13,2000 -110.84,44.11,2000 -110.83,44.10,2000 -110.81,44.08,2000 -110.80,44.06,2000 -110.78,44.05,2000 -110.76,44.03,2000 -110.74,44.02,2000 -110.72,44.01,2000 -110.70,44.00,2000 -110.68,43.98,2000 -110.66,43.97,2000 -110.63,43.96,2000 -110.61,43.95,2000 -110.59,43.94,2000 -110.58,43.93,2000 -110.56,43.91,2000 -110.54,43.90,2000 -110.53,43.89,2000 -110.53,43.87,2000 -110.53,43.86,2000 -110.53,43.84,2000 -110.54,43.82,2000 -110.55,43.80,2000 -110.55,43.79,2000 -110.56,43.77,2000 -110.56,43.75,2000 -110.56,43.74,2000 -110.57,43.72,2000 -110.57,43.71,2000 -110.59,43.69,2000 -110.61,43.68,2000 -110.62,43.66,2000 -110.65,43.65,2000 -110.67,43.64,2000 -110.70,43.62,2000 -110.72,43.61,2000 -110.75,43.60,2000 -110.77,43.60,2000 -110.79,43.60,2000 -110.82,43.60,2000 -110.85,43.61,2000 -110.87,43.62,2000 -110.90,43.63,2000 -110.92,43.64,2000 -110.94,43.65,2000 -110.96,43.66,2000 -110.98,43.67,2000 -110.99,43.69,2000 -111.00,43.70,2000 -111.01,43.72,2000 -111.02,43.74,2000 -111.03,43.75,2000 -111.04,43.77,2000 -111.06,43.78,2000 -111.07,43.80,2000 -111.08,43.82,2000 -111.08,43.83,2000 -111.08,43.85,2000 -111.07,43.86,2000 -111.05,43.88,2000 -111.04,43.89,2000 -111.03,43.90,2000 -111.01,43.92,2000 -111.00,43.93,2000 -110.98,43.95,2000 -110.96,43.96,2000 -110.95,43.98,2000 -110.93,43.99,2000 -110.91,44.01,2000 -110.85,44.13,2000 
          </coordinates>
        </LinearRing>
      </outerBoundaryIs>
  </Polygon>
 </MultiGeometry>
</Placemark>
<Placemark>
  <name>10%</name>
  <visibility>1</visibility>
  <styleUrl>#poly_10</styleUrl>
  <MultiGeometry>
    <Polygon>
      <outerBoundaryIs>
        <LinearRing>
          <coordinates>
-112.12,45.81,2000 -112.07,45.81,2000 -112.02,45.80,2000 -111.96,45.79,2000 -111.91,45.77,2000 -111.86,45.75,2000 -111.82,45.72,2000 -111.78,45.69,2000 -111.75,45.65,2000 -111.71,45.60,2000 -111.67,45.57,2000 -111.64,45.53,2000 -111.61,45.51,2000 -111.55,45.50,2000 -111.49,45.52,2000 -111.45,45.53,2000 -111.40,45.54,2000 -111.34,45.55,2000 -111.28,45.55,2000 -111.22,45.56,2000 -111.17,45.55,2000 -111.12,45.54,2000 -111.07,45.52,2000 -111.02,45.50,2000 -110.97,45.47,2000 -110.93,45.44,2000 -110.89,45.40,2000 -110.87,45.37,2000 -110.84,45.33,2000 -110.82,45.28,2000 -110.81,45.24,2000 -110.79,45.19,2000 -110.78,45.14,2000 -110.78,45.10,2000 -110.78,45.06,2000 -110.79,45.02,2000 -110.81,44.98,2000 -110.84,44.93,2000 -110.87,44.90,2000 -110.90,44.86,2000 -110.94,44.83,2000 -110.97,44.80,2000 -111.02,44.77,2000 -111.06,44.75,2000 -111.11,44.73,2000 -111.16,44.71,2000 -111.21,44.70,2000 -111.26,44.69,2000 -111.30,44.67,2000 -111.36,44.67,2000 -111.43,44.66,2000 -111.48,44.66,2000 -111.54,44.65,2000 -111.60,44.65,2000 -111.67,44.65,2000 -111.74,44.65,2000 -111.80,44.64,2000 -111.86,44.64,2000 -111.91,44.64,2000 -111.98,44.64,2000 -112.03,44.63,2000 -112.08,44.63,2000 -112.12,44.63,2000 -112.16,44.64,2000 -112.22,44.66,2000 -112.27,44.68,2000 -112.32,44.71,2000 -112.34,44.75,2000 -112.34,44.78,2000 -112.32,44.82,2000 -112.30,44.86,2000 -112.27,44.90,2000 -112.24,44.94,2000 -112.21,44.97,2000 -112.17,45.00,2000 -112.12,45.03,2000 -112.07,45.05,2000 -112.03,45.08,2000 -111.99,45.10,2000 -111.97,45.13,2000 -111.97,45.16,2000 -111.99,45.19,2000 -112.03,45.23,2000 -112.07,45.26,2000 -112.11,45.29,2000 -112.15,45.32,2000 -112.20,45.34,2000 -112.25,45.36,2000 -112.30,45.39,2000 -112.35,45.41,2000 -112.38,45.44,2000 -112.41,45.48,2000 -112.43,45.53,2000 -112.43,45.57,2000 -112.43,45.61,2000 -112.42,45.65,2000 -112.39,45.68,2000 -112.35,45.71,2000 -112.12,45.81,2000 
          </coordinates>
        </LinearRing>
      </outerBoundaryIs>
      <innerBoundaryIs>
        <LinearRing>
          <coordinates>
-112.10,45.72,3000 -112.08,45.72,3000 -112.07,45.71,3000 -112.05,45.71,3000 -112.03,45.70,3000 -112.01,45.70,3000 -112.00,45.69,3000 -111.98,45.69,3000 -111.97,45.68,3000 -111.96,45.67,3000 -111.94,45.67,3000 -111.93,45.66,3000 -111.92,45.65,3000 -111.91,45.64,3000 -111.90,45.63,3000 -111.89,45.62,3000 -111.88,45.61,3000 -111.88,45.59,3000 -111.87,45.58,3000 -111.86,45.57,3000 -111.86,45.55,3000 -111.86,45.54,3000 -111.85,45.53,3000 -111.85,45.51,3000 -111.86,45.50,3000 -111.86,45.49,3000 -111.87,45.48,3000 -111.87,45.47,3000 -111.88,45.46,3000 -111.89,45.45,3000 -111.91,45.44,3000 -111.92,45.43,3000 -111.94,45.42,3000 -111.95,45.41,3000 -111.97,45.40,3000 -111.98,45.40,3000 -112.00,45.39,3000 -112.01,45.39,3000 -112.03,45.38,3000 -112.04,45.38,3000 -112.06,45.38,3000 -112.07,45.38,3000 -112.09,45.38,3000 -112.11,45.39,3000 -112.13,45.39,3000 -112.14,45.40,3000 -112.16,45.41,3000 -112.17,45.42,3000 -112.19,45.43,3000 -112.20,45.44,3000 -112.21,45.45,3000 -112.22,45.46,3000 -112.22,45.47,3000 -112.23,45.48,3000 -112.23,45.49,3000 -112.24,45.50,3000 -112.24,45.51,3000 -112.24,45.53,3000 -112.24,45.54,3000 -112.25,45.55,3000 -112.25,45.56,3000 -112.25,45.58,3000 -112.25,45.59,3000 -112.25,45.61,3000 -112.25,45.62,3000 -112.10,45.72,3000 
          </coordinates>
        </LinearRing>
      </innerBoundaryIs>
      <innerBoundaryIs>
        <LinearRing>
          <coordinates>
-111.55,45.40,3000 -111.52,45.41,3000 -111.49,45.43,3000 -111.45,45.44,3000 -111.42,45.45,3000 -111.39,45.46,3000 -111.35,45.46,3000 -111.32,45.46,3000 -111.29,45.46,3000 -111.25,45.45,3000 -111.22,45.44,3000 -111.18,45.43,3000 -111.15,45.42,3000 -111.11,45.41,3000 -111.09,45.40,3000 -111.07,45.38,3000 -111.06,45.36,3000 -111.05,45.34,3000 -111.06,45.31,3000 -111.06,45.29,3000 -111.07,45.26,3000 -111.08,45.24,3000 -111.08,45.21,3000 -111.08,45.19,3000 -111.08,45.16,3000 -111.08,45.14,3000 -111.08,45.11,3000 -111.08,45.09,3000 -111.09,45.06,3000 -111.09,45.04,3000 -111.09,45.01,3000 -111.10,44.99,3000 -111.10,44.96,3000 -111.11,44.93,3000 -111.11,44.90,3000 -111.12,44.88,3000 -111.13,44.86,3000 -111.15,44.83,3000 -111.17,44.82,3000 -111.21,44.81,3000 -111.23,44.80,3000 -111.26,44.79,3000 -111.30,44.78,3000 -111.33,44.77,3000 -111.37,44.76,3000 -111.41,44.75,3000 -111.44,44.74,3000 -111.47,44.74,3000 -111.51,44.73,3000 -111.54,44.73,3000 -111.58,44.73,3000 -111.61,44.74,3000 -111.65,44.74,3000 -111.68,44.74,3000 -111.72,44.74,3000 -111.76,44.75,3000 -111.79,44.75,3000 -111.83,44.76,3000 -111.87,44.76,3000 -111.90,44.77,3000 -111.93,44.77,3000 -111.98,44.77,3000 -112.01,44.77,3000 -112.02,44.78,3000 -112.02,44.80,3000 -112.00,44.82,3000 -111.98,44.85,3000 -111.96,44.88,3000 -111.95,44.90,3000 -111.95,44.92,3000 -111.96,44.93,3000 -111.95,44.96,3000 -111.94,44.98,3000 -111.92,45.00,3000 -111.90,45.03,3000 -111.88,45.05,3000 -111.86,45.08,3000 -111.84,45.11,3000 -111.82,45.13,3000 -111.81,45.15,3000 -111.79,45.18,3000 -111.78,45.20,3000 -111.77,45.22,3000 -111.75,45.24,3000 -111.74,45.26,3000 -111.72,45.28,3000 -111.69,45.31,3000 -111.67,45.33,3000 -111.55,45.40,3000 
          </coordinates>
        </LinearRing>
      </innerBoundaryIs>
  </Polygon>
 </MultiGeometry>
</Placemark>
<Placemark>
  <name>10%</name>
  <visibility>1</visibility>
  <styleUrl>#poly_10</styleUrl>
  <MultiGeometry>
    <Polygon>
      <outerBoundaryIs>
        <LinearRing>
          <coordinates>
-110.92,44.55,2000 -110.93,44.56,2000 -110.90,44.54,2000 -110.89,44.53,2000 -110.88,44.53,2000 -110.87,44.52,2000 -110.86,44.51,2000 -110.85,44.51,2000 -110.83,44.50,2000 -110.82,44.49,2000 -110.80,44.48,2000 -110.79,44.47,2000 -110.77,44.46,2000 -110.76,44.45,2000 -110.75,44.44,2000 -110.73,44.43,2000 -110.72,44.42,2000 -110.71,44.41,2000 -110.71,44.40,2000 -110.70,44.39,2000 -110.70,44.38,2000 -110.70,44.37,2000 -110.70,44.36,2000 -110.71,44.35,2000 -110.71,44.34,2000 -110.72,44.32,2000 -110.73,44.31,2000 -110.74,44.30,2000 -110.75,44.29,2000 -110.76,44.28,2000 -110.78,44.27,2000 -110.79,44.26,2000 -110.80,44.25,2000 -110.82,44.24,2000 -110.83,44.23,2000 -110.84,44.23,2000 -110.86,44.22,2000 -110.87,44.22,2000 -110.88,44.22,2000 -110.90,44.22,2000 -110.91,44.22,2000 -110.93,44.23,2000 -110.95,44.23,2000 -110.96,44.24,2000 -110.98,44.24,2000 -111.00,44.25,2000 -111.02,44.26,2000 -111.03,44.27,2000 -111.05,44.28,2000 -111.06,44.28,2000 -111.08,44.29,2000 -111.09,44.30,2000 -111.10,44.31,2000 -111.11,44.32,2000 -111.12,44.33,2000 -111.12,44.34,2000 -111.12,44.35,2000 -111.12,44.36,2000 -111.12,44.37,2000 -111.12,44.37,2000 -111.11,44.38,2000 -111.10,44.39,2000 -111.10,44.40,2000 -111.09,44.41,2000 -111.08,44.42,2000 -111.07,44.43,2000 -111.06,44.44,2000 -111.05,44.45,2000 -111.03,44.47,2000 -111.02,44.48,2000 -111.01,44.49,2000 -110.99,44.50,2000 -110.98,44.51,2000 -110.96,44.52,2000 -110.95,44.53,2000 -110.92,44.55,2000 
          </coordinates>
        </LinearRing>
      </outerBoundaryIs>
  </Polygon>
 </MultiGeometry>
</Placemark>
<Placemark>
  <name>20%</name>
  <visibility>1</visibility>
  <styleUrl>#poly_20</styleUrl>
  <MultiGeometry>
    <Polygon>
      <outerBoundaryIs>
        <LinearRing>
          <coordinates>
-112.10,45.72,3000 -112.08,45.72,3000 -112.07,45.71,3000 -112.05,45.71,3000 -112.03,45.70,3000 -112.01,45.70,3000 -112.00,45.69,3000 -111.98,45.69,3000 -111.97,45.68,3000 -111.96,45.67,3000 -111.94,45.67,3000 -111.93,45.66,3000 -111.92,45.65,3000 -111.91,45.64,3000 -111.90,45.63,3000 -111.89,45.62,3000 -111.88,45.61,3000 -111.88,45.59,3000 -111.87,45.58,3000 -111.86,45.57,3000 -111.86,45.55,3000 -111.86,45.54,3000 -111.85,45.53,3000 -111.85,45.51,3000 -111.86,45.50,3000 -111.86,45.49,3000 -111.87,45.48,3000 -111.87,45.47,3000 -111.88,45.46,3000 -111.89,45.45,3000 -111.91,45.44,3000 -111.92,45.43,3000 -111.94,45.42,3000 -111.95,45.41,3000 -111.97,45.40,3000 -111.98,45.40,3000 -112.00,45.39,3000 -112.01,45.39,3000 -112.03,45.38,3000 -112.04,45.38,3000 -112.06,45.38,3000 -112.07,45.38,3000 -112.09,45.38,3000 -112.11,45.39,3000 -112.13,45.39,3000 -112.14,45.40,3000 -112.16,45.41,3000 -112.17,45.42,3000 -112.19,45.43,3000 -112.20,45.44,3000 -112.21,45.45,3000 -112.22,45.46,3000 -112.22,45.47,3000 -112.23,45.48,3000 -112.23,45.49,3000 -112.24,45.50,3000 -112.24,45.51,3000 -112.24,45.53,3000 -112.24,45.54,3000 -112.25,45.55,3000 -112.25,45.56,3000 -112.25,45.58,3000 -112.25,45.59,3000 -112.25,45.61,3000 -112.25,45.62,3000 -112.10,45.72,3000 
          </coordinates>
        </LinearRing>
      </outerBoundaryIs>
  </Polygon>
 </MultiGeometry>
</Placemark>
<Placemark>
  <name>20%</name>
  <visibility>1</visibility>
  <styleUrl>#poly_20</styleUrl>
  <MultiGeometry>
    <Polygon>
      <outerBoundaryIs>
        <LinearRing>
          <coordinates>
-113.64,46.02,3000 -113.58,46.07,3000 -113.52,46.12,3000 -113.46,46.16,3000 -113.38,46.20,3000 -113.28,46.20,3000 -113.21,46.19,3000 -113.13,46.16,3000 -113.06,46.12,3000 -112.99,46.07,3000 -112.95,46.02,3000 -112.92,45.96,3000 -112.89,45.89,3000 -112.87,45.82,3000 -112.85,45.75,3000 -112.83,45.69,3000 -112.81,45.61,3000 -112.78,45.54,3000 -112.78,45.47,3000 -112.81,45.40,3000 -112.86,45.35,3000 -112.92,45.29,3000 -113.00,45.24,3000 -113.08,45.18,3000 -113.15,45.14,3000 -113.21,45.10,3000 -113.30,45.05,3000 -113.34,45.02,3000 -113.33,44.97,3000 -113.29,44.91,3000 -113.25,44.87,3000 -113.20,44.83,3000 -113.15,44.78,3000 -113.09,44.72,3000 -113.03,44.66,3000 -113.00,44.59,3000 -112.99,44.52,3000 -113.01,44.44,3000 -113.07,44.37,3000 -113.14,44.33,3000 -113.23,44.28,3000 -113.34,44.23,3000 -113.44,44.20,3000 -113.52,44.19,3000 -113.60,44.21,3000 -113.66,44.27,3000 -113.72,44.33,3000 -113.76,44.38,3000 -113.79,44.43,3000 -113.82,44.49,3000 -113.87,44.54,3000 -113.93,44.59,3000 -113.99,44.65,3000 -114.02,44.70,3000 -114.01,44.77,3000 -113.97,44.84,3000 -113.90,44.89,3000 -113.82,44.91,3000 -113.71,44.93,3000 -113.62,44.94,3000 -113.56,44.96,3000 -113.57,45.02,3000 -113.64,45.08,3000 -113.71,45.14,3000 -113.78,45.18,3000 -113.83,45.23,3000 -113.85,45.28,3000 -113.87,45.34,3000 -113.87,45.41,3000 -113.85,45.47,3000 -113.79,45.52,3000 -113.70,45.56,3000 -113.61,45.61,3000 -113.56,45.67,3000 -113.55,45.73,3000 -113.56,45.79,3000 -113.58,45.86,3000 -113.61,45.94,3000 -113.65,46.01,3000 -113.64,46.02,3000 
          </coordinates>
        </LinearRing>
      </outerBoundaryIs>
      <innerBoundaryIs>
        <LinearRing>
          <coordinates>
-113.41,46.10,4000 -113.36,46.10,4000 -113.31,46.10,4000 -113.27,46.10,4000 -113.22,46.10,4000 -113.19,46.09,4000 -113.16,46.09,4000 -113.12,46.08,4000 -113.11,46.06,4000 -113.11,46.04,4000 -113.11,46.01,4000 -113.11,45.97,4000 -113.12,45.94,4000 -113.12,45.92,4000 -113.14,45.89,4000 -113.16,45.88,4000 -113.15,45.88,4000 -113.11,45.87,4000 -113.09,45.85,4000 -113.06,45.82,4000 -113.04,45.79,4000 -113.01,45.76,4000 -112.98,45.73,4000 -112.96,45.70,4000 -112.93,45.68,4000 -112.91,45.65,4000 -112.89,45.63,4000 -112.87,45.60,4000 -112.86,45.57,4000 -112.86,45.54,4000 -112.87,45.51,4000 -112.88,45.47,4000 -112.89,45.44,4000 -112.91,45.41,4000 -112.92,45.39,4000 -112.94,45.36,4000 -112.97,45.34,4000 -113.01,45.32,4000 -113.04,45.31,4000 -113.08,45.30,4000 -113.12,45.28,4000 -113.16,45.27,4000 -113.20,45.26,4000 -113.24,45.25,4000 -113.28,45.24,4000 -113.32,45.23,4000 -113.35,45.21,4000 -113.39,45.20,4000 -113.43,45.20,4000 -113.47,45.20,4000 -113.51,45.21,4000 -113.55,45.22,4000 -113.60,45.24,4000 -113.64,45.26,4000 -113.68,45.28,4000 -113.72,45.30,4000 -113.74,45.31,4000 -113.74,45.32,4000 -113.71,45.33,4000 -113.67,45.33,4000 -113.63,45.34,4000 -113.58,45.35,4000 -113.54,45.37,4000 -113.51,45.38,4000 -113.49,45.41,4000 -113.48,45.44,4000 -113.48,45.47,4000 -113.47,45.51,4000 -113.46,45.54,4000 -113.45,45.57,4000 -113.44,45.60,4000 -113.43,45.63,4000 -113.42,45.66,4000 -113.42,45.69,4000 -113.42,45.72,4000 -113.42,45.75,4000 -113.43,45.78,4000 -113.44,45.80,4000 -113.44,45.83,4000 -113.45,45.86,4000 -113.46,45.89,4000 -113.47,45.92,4000 -113.48,45.96,4000 -113.49,45.99,4000 -113.50,46.02,4000 -113.41,46.10,4000 
          </coordinates>
        </LinearRing>
      </innerBoundaryIs>
      <innerBoundaryIs>
        <LinearRing>
          <coordinates>
-113.64,44.79,4000 -113.62,44.79,4000 -113.59,44.79,4000 -113.57,44.79,4000 -113.55,44.79,4000 -113.53,44.79,4000 -113.51,44.79,4000 -113.48,44.79,4000 -113.46,44.78,4000 -113.44,44.78,4000 -113.43,44.78,4000 -113.41,44.77,4000 -113.39,44.77,4000 -113.37,44.76,4000 -113.35,44.76,4000 -113.34,44.75,4000 -113.32,44.74,4000 -113.30,44.73,4000 -113.29,44.72,4000 -113.28,44.71,4000 -113.26,44.70,4000 -113.25,44.68,4000 -113.24,44.67,4000 -113.23,44.66,4000 -113.22,44.64,4000 -113.20,44.63,4000 -113.19,44.61,4000 -113.18,44.60,4000 -113.17,44.58,4000 -113.16,44.57,4000 -113.15,44.55,4000 -113.15,44.54,4000 -113.15,44.52,4000 -113.15,44.51,4000 -113.16,44.50,4000 -113.16,44.48,4000 -113.18,44.47,4000 -113.19,44.46,4000 -113.21,44.45,4000 -113.22,44.44,4000 -113.24,44.43,4000 -113.26,44.42,4000 -113.28,44.41,4000 -113.30,44.40,4000 -113.32,44.39,4000 -113.34,44.38,4000 -113.36,44.38,4000 -113.38,44.37,4000 -113.41,44.37,4000 -113.43,44.36,4000 -113.46,44.36,4000 -113.48,44.36,4000 -113.50,44.36,4000 -113.52,44.36,4000 -113.54,44.36,4000 -113.56,44.36,4000 -113.58,44.36,4000 -113.60,44.37,4000 -113.61,44.38,4000 -113.62,44.39,4000 -113.63,44.41,4000 -113.64,44.42,4000 -113.66,44.43,4000 -113.67,44.45,4000 -113.68,44.46,4000 -113.69,44.47,4000 -113.70,44.49,4000 -113.71,44.50,4000 -113.72,44.51,4000 -113.73,44.53,4000 -113.74,44.54,4000 -113.75,44.56,4000 -113.76,44.57,4000 -113.77,44.59,4000 -113.78,44.60,4000 -113.79,44.62,4000 -113.64,44.79,4000 
          </coordinates>
        </LinearRing>
      </innerBoundaryIs>
  </Polygon>
 </MultiGeometry>
</Placemark>
<Placemark>
  <name>20%</name>
  <visibility>1</visibility>
  <styleUrl>#poly_20</styleUrl>
  <MultiGeometry>
    <Polygon>
      <outerBoundaryIs>
        <LinearRing>
          <coordinates>
-110.35,45.48,3000 -110.32,45.48,3000 -110.28,45.47,3000 -110.25,45.47,3000 -110.22,45.47,3000 -110.19,45.46,3000 -110.17,45.46,3000 -110.15,45.46,3000 -110.13,45.46,3000 -110.10,45.45,3000 -110.08,45.44,3000 -110.05,45.44,3000 -110.03,45.43,3000 -109.99,45.42,3000 -109.96,45.41,3000 -109.93,45.40,3000 -109.90,45.40,3000 -109.87,45.39,3000 -109.84,45.38,3000 -109.81,45.37,3000 -109.78,45.36,3000 -109.75,45.35,3000 -109.73,45.34,3000 -109.70,45.33,3000 -109.68,45.32,3000 -109.65,45.31,3000 -109.63,45.30,3000 -109.61,45.29,3000 -109.58,45.28,3000 -109.56,45.27,3000 -109.53,45.26,3000 -109.51,45.24,3000 -109.48,45.23,3000 -109.46,45.21,3000 -109.44,45.19,3000 -109.42,45.17,3000 -109.41,45.15,3000 -109.40,45.13,3000 -109.39,45.11,3000 -109.39,45.08,3000 -109.38,45.06,3000 -109.38,45.04,3000 -109.39,45.02,3000 -109.39,45.00,3000 -109.40,44.98,3000 -109.42,44.96,3000 -109.44,44.94,3000 -109.46,44.93,3000 -109.49,44.91,3000 -109.52,44.90,3000 -109.54,44.89,3000 -109.57,44.89,3000 -109.60,44.88,3000 -109.63,44.88,3000 -109.66,44.87,3000 -109.70,44.87,3000 -109.73,44.87,3000 -109.76,44.87,3000 -109.79,44.87,3000 -109.83,44.88,3000 -109.86,44.88,3000 -109.90,44.89,3000 -109.93,44.90,3000 -109.96,44.91,3000 -109.99,44.91,3000 -110.01,44.92,3000 -110.04,44.93,3000 -110.05,44.94,3000 -110.08,44.95,3000 -110.10,44.96,3000 -110.13,44.96,3000 -110.15,44.97,3000 -110.18,44.97,3000 -110.21,44.98,3000 -110.24,44.99,3000 -110.27,45.00,3000 -110.30,45.01,3000 -110.33,45.02,3000 -110.36,45.03,3000 -110.39,45.04,3000 -110.42,45.06,3000 -110.44,45.07,3000 -110.46,45.09,3000 -110.47,45.11,3000 -110.48,45.13,3000 -110.49,45.15,3000 -110.50,45.17,3000 -110.50,45.19,3000 -110.50,45.21,3000 -110.50,45.24,3000 -110.50,45.26,3000 -110.50,45.28,3000 -110.49,45.30,3000 -110.48,45.32,3000 -110.47,45.34,3000 -110.46,45.36,3000 -110.45,45.38,3000 -110.44,45.40,3000 -110.42,45.42,3000 -110.41,45.44,3000 -110.35,45.48,3000 
          </coordinates>
        </LinearRing>
      </outerBoundaryIs>
      <innerBoundaryIs>
        <LinearRing>
          <coordinates>
-110.32,45.35,4000 -110.30,45.35,4000 -110.27,45.36,4000 -110.25,45.36,4000 -110.22,45.36,4000 -110.20,45.37,4000 -110.18,45.37,4000 -110.15,45.37,4000 -110.13,45.37,4000 -110.10,45.37,4000 -110.08,45.37,4000 -110.06,45.37,4000 -110.04,45.36,4000 -110.01,45.36,4000 -109.99,45.36,4000 -109.97,45.35,4000 -109.94,45.35,4000 -109.92,45.34,4000 -109.90,45.33,4000 -109.88,45.33,4000 -109.85,45.32,4000 -109.83,45.31,4000 -109.81,45.30,4000 -109.79,45.29,4000 -109.77,45.28,4000 -109.74,45.27,4000 -109.72,45.26,4000 -109.70,45.25,4000 -109.68,45.24,4000 -109.66,45.23,4000 -109.63,45.22,4000 -109.62,45.21,4000 -109.60,45.20,4000 -109.58,45.20,4000 -109.57,45.19,4000 -109.54,45.18,4000 -109.53,45.18,4000 -109.52,45.16,4000 -109.52,45.15,4000 -109.52,45.13,4000 -109.52,45.11,4000 -109.52,45.09,4000 -109.52,45.07,4000 -109.52,45.05,4000 -109.52,45.03,4000 -109.52,45.02,4000 -109.52,45.00,4000 -109.52,44.99,4000 -109.53,44.98,4000 -109.55,44.98,4000 -109.57,44.97,4000 -109.59,44.97,4000 -109.62,44.97,4000 -109.65,44.96,4000 -109.68,44.96,4000 -109.70,44.96,4000 -109.73,44.95,4000 -109.75,44.95,4000 -109.77,44.95,4000 -109.80,44.95,4000 -109.81,44.96,4000 -109.83,44.97,4000 -109.85,44.97,4000 -109.86,44.98,4000 -109.88,44.98,4000 -109.91,44.99,4000 -109.93,44.99,4000 -109.96,45.00,4000 -109.98,45.01,4000 -110.01,45.01,4000 -110.03,45.02,4000 -110.05,45.03,4000 -110.07,45.03,4000 -110.10,45.04,4000 -110.12,45.05,4000 -110.15,45.06,4000 -110.17,45.07,4000 -110.20,45.07,4000 -110.22,45.08,4000 -110.24,45.09,4000 -110.26,45.09,4000 -110.27,45.10,4000 -110.29,45.11,4000 -110.29,45.12,4000 -110.30,45.13,4000 -110.30,45.14,4000 -110.31,45.16,4000 -110.32,45.17,4000 -110.33,45.19,4000 -110.34,45.21,4000 -110.35,45.23,4000 -110.36,45.25,4000 -110.37,45.27,4000 -110.32,45.35,4000 
          </coordinates>
        </LinearRing>
      </innerBoundaryIs>
  </Polygon>
 </MultiGeometry>
</Placemark>
<Placemark>
  <name>20%</name>
  <visibility>1</visibility>
  <styleUrl>#poly_20</styleUrl>
  <MultiGeometry>
    <Polygon>
      <outerBoundaryIs>
        <LinearRing>
          <coordinates>
-111.55,45.40,3000 -111.52,45.41,3000 -111.49,45.43,3000 -111.45,45.44,3000 -111.42,45.45,3000 -111.39,45.46,3000 -111.35,45.46,3000 -111.32,45.46,3000 -111.29,45.46,3000 -111.25,45.45,3000 -111.22,45.44,3000 -111.18,45.43,3000 -111.15,45.42,3000 -111.11,45.41,3000 -111.09,45.40,3000 -111.07,45.38,3000 -111.06,45.36,3000 -111.05,45.34,3000 -111.06,45.31,3000 -111.06,45.29,3000 -111.07,45.26,3000 -111.08,45.24,3000 -111.08,45.21,3000 -111.08,45.19,3000 -111.08,45.16,3000 -111.08,45.14,3000 -111.08,45.11,3000 -111.08,45.09,3000 -111.09,45.06,3000 -111.09,45.04,3000 -111.09,45.01,3000 -111.10,44.99,3000 -111.10,44.96,3000 -111.11,44.93,3000 -111.11,44.90,3000 -111.12,44.88,3000 -111.13,44.86,3000 -111.15,44.83,3000 -111.17,44.82,3000 -111.21,44.81,3000 -111.23,44.80,3000 -111.26,44.79,3000 -111.30,44.78,3000 -111.33,44.77,3000 -111.37,44.76,3000 -111.41,44.75,3000 -111.44,44.74,3000 -111.47,44.74,3000 -111.51,44.73,3000 -111.54,44.73,3000 -111.58,44.73,3000 -111.61,44.74,3000 -111.65,44.74,3000 -111.68,44.74,3000 -111.72,44.74,3000 -111.76,44.75,3000 -111.79,44.75,3000 -111.83,44.76,3000 -111.87,44.76,3000 -111.90,44.77,3000 -111.93,44.77,3000 -111.98,44.77,3000 -112.01,44.77,3000 -112.02,44.78,3000 -112.02,44.80,3000 -112.00,44.82,3000 -111.98,44.85,3000 -111.96,44.88,3000 -111.95,44.90,3000 -111.95,44.92,3000 -111.96,44.93,3000 -111.95,44.96,3000 -111.94,44.98,3000 -111.92,45.00,3000 -111.90,45.03,3000 -111.88,45.05,3000 -111.86,45.08,3000 -111.84,45.11,3000 -111.82,45.13,3000 -111.81,45.15,3000 -111.79,45.18,3000 -111.78,45.20,3000 -111.77,45.22,3000 -111.75,45.24,3000 -111.74,45.26,3000 -111.72,45.28,3000 -111.69,45.31,3000 -111.67,45.33,3000 -111.55,45.40,3000 
          </coordinates>
        </LinearRing>
      </outerBoundaryIs>
      <innerBoundaryIs>
        <LinearRing>
          <coordinates>
-111.30,45.37,4000 -111.29,45.36,4000 -111.28,45.35,4000 -111.28,45.33,4000 -111.27,45.31,4000 -111.26,45.29,4000 -111.25,45.27,4000 -111.24,45.24,4000 -111.23,45.22,4000 -111.23,45.20,4000 -111.23,45.18,4000 -111.23,45.16,4000 -111.23,45.14,4000 -111.23,45.11,4000 -111.23,45.09,4000 -111.23,45.07,4000 -111.23,45.05,4000 -111.23,45.03,4000 -111.23,45.02,4000 -111.23,45.00,4000 -111.24,44.99,4000 -111.25,44.98,4000 -111.26,44.96,4000 -111.28,44.94,4000 -111.29,44.92,4000 -111.31,44.91,4000 -111.33,44.89,4000 -111.34,44.87,4000 -111.36,44.85,4000 -111.37,44.84,4000 -111.39,44.82,4000 -111.41,44.81,4000 -111.43,44.81,4000 -111.45,44.81,4000 -111.47,44.81,4000 -111.50,44.81,4000 -111.52,44.81,4000 -111.55,44.81,4000 -111.58,44.82,4000 -111.60,44.82,4000 -111.63,44.83,4000 -111.65,44.83,4000 -111.68,44.84,4000 -111.70,44.86,4000 -111.72,44.87,4000 -111.73,44.89,4000 -111.75,44.91,4000 -111.77,44.93,4000 -111.78,44.95,4000 -111.79,44.96,4000 -111.80,44.98,4000 -111.80,45.00,4000 -111.79,45.01,4000 -111.77,45.03,4000 -111.76,45.04,4000 -111.74,45.06,4000 -111.73,45.08,4000 -111.72,45.09,4000 -111.70,45.11,4000 -111.69,45.12,4000 -111.68,45.14,4000 -111.66,45.16,4000 -111.65,45.18,4000 -111.63,45.19,4000 -111.62,45.21,4000 -111.61,45.23,4000 -111.59,45.24,4000 -111.58,45.26,4000 -111.56,45.28,4000 -111.54,45.29,4000 -111.52,45.30,4000 -111.49,45.31,4000 -111.47,45.32,4000 -111.44,45.33,4000 -111.42,45.34,4000 -111.39,45.35,4000 -111.36,45.35,4000 -111.33,45.36,4000 -111.30,45.37,4000 
          </coordinates>
        </LinearRing>
      </innerBoundaryIs>
  </Polygon>
 </MultiGeometry>
</Placemark>
<Placemark>
  <name>20%</name>
  <visibility>1</visibility>
  <styleUrl>#poly_20</styleUrl>
  <MultiGeometry>
    <Polygon>
      <outerBoundaryIs>
        <LinearRing>
          <coordinates>
-114.73,44.18,3000 -114.72,44.17,3000 -114.71,44.17,3000 -114.69,44.16,3000 -114.67,44.16,3000 -114.65,44.16,3000 -114.63,44.15,3000 -114.61,44.15,3000 -114.59,44.15,3000 -114.56,44.14,3000 -114.54,44.14,3000 -114.52,44.13,3000 -114.50,44.13,3000 -114.48,44.12,3000 -114.46,44.11,3000 -114.44,44.11,3000 -114.42,44.10,3000 -114.40,44.09,3000 -114.38,44.08,3000 -114.37,44.07,3000 -114.35,44.06,3000 -114.34,44.05,3000 -114.32,44.04,3000 -114.31,44.03,3000 -114.29,44.02,3000 -114.28,44.00,3000 -114.27,43.98,3000 -114.25,43.97,3000 -114.24,43.95,3000 -114.23,43.94,3000 -114.22,43.92,3000 -114.21,43.91,3000 -114.20,43.90,3000 -114.19,43.89,3000 -114.17,43.88,3000 -114.17,43.88,3000 -114.16,43.88,3000 -114.19,43.87,3000 -114.20,43.86,3000 -114.21,43.86,3000 -114.23,43.85,3000 -114.25,43.84,3000 -114.27,43.83,3000 -114.29,43.82,3000 -114.31,43.81,3000 -114.33,43.80,3000 -114.35,43.80,3000 -114.37,43.79,3000 -114.39,43.78,3000 -114.41,43.78,3000 -114.43,43.78,3000 -114.45,43.78,3000 -114.47,43.78,3000 -114.50,43.78,3000 -114.52,43.78,3000 -114.54,43.79,3000 -114.57,43.79,3000 -114.59,43.80,3000 -114.61,43.80,3000 -114.63,43.80,3000 -114.65,43.81,3000 -114.66,43.81,3000 -114.69,43.81,3000 -114.70,43.81,3000 -114.72,43.83,3000 -114.73,43.84,3000 -114.75,43.85,3000 -114.76,43.85,3000 -114.78,43.87,3000 -114.80,43.88,3000 -114.82,43.89,3000 -114.84,43.90,3000 -114.86,43.91,3000 -114.88,43.93,3000 -114.90,43.94,3000 -114.91,43.95,3000 -114.92,43.97,3000 -114.92,43.98,3000 -114.92,43.99,3000 -114.92,44.00,3000 -114.91,44.02,3000 -114.90,44.03,3000 -114.89,44.04,3000 -114.88,44.06,3000 -114.87,44.07,3000 -114.86,44.09,3000 -114.84,44.10,3000 -114.82,44.11,3000 -114.81,44.13,3000 -114.79,44.14,3000 -114.77,44.16,3000 -114.75,44.17,3000 -114.73,44.18,3000 
          </coordinates>
        </LinearRing>
      </outerBoundaryIs>
  </Polygon>
 </MultiGeometry>
</Placemark>
<Placemark>
  <name>30%</name>
  <visibility>1</visibility>
  <styleUrl>#poly_30</styleUrl>
  <MultiGeometry>
    <Polygon>
      <outerBoundaryIs>
        <LinearRing>
          <coordinates>
-110.32,45.35,4000 -110.30,45.35,4000 -110.27,45.36,4000 -110.25,45.36,4000 -110.22,45.36,4000 -110.20,45.37,4000 -110.18,45.37,4000 -110.15,45.37,4000 -110.13,45.37,4000 -110.10,45.37,4000 -110.08,45.37,4000 -110.06,45.37,4000 -110.04,45.36,4000 -110.01,45.36,4000 -109.99,45.36,4000 -109.97,45.35,4000 -109.94,45.35,4000 -109.92,45.34,4000 -109.90,45.33,4000 -109.88,45.33,4000 -109.85,45.32,4000 -109.83,45.31,4000 -109.81,45.30,4000 -109.79,45.29,4000 -109.77,45.28,4000 -109.74,45.27,4000 -109.72,45.26,4000 -109.70,45.25,4000 -109.68,45.24,4000 -109.66,45.23,4000 -109.63,45.22,4000 -109.62,45.21,4000 -109.60,45.20,4000 -109.58,45.20,4000 -109.57,45.19,4000 -109.54,45.18,4000 -109.53,45.18,4000 -109.52,45.16,4000 -109.52,45.15,4000 -109.52,45.13,4000 -109.52,45.11,4000 -109.52,45.09,4000 -109.52,45.07,4000 -109.52,45.05,4000 -109.52,45.03,4000 -109.52,45.02,4000 -109.52,45.00,4000 -109.52,44.99,4000 -109.53,44.98,4000 -109.55,44.98,4000 -109.57,44.97,4000 -109.59,44.97,4000 -109.62,44.97,4000 -109.65,44.96,4000 -109.68,44.96,4000 -109.70,44.96,4000 -109.73,44.95,4000 -109.75,44.95,4000 -109.77,44.95,4000 -109.80,44.95,4000 -109.81,44.96,4000 -109.83,44.97,4000 -109.85,44.97,4000 -109.86,44.98,4000 -109.88,44.98,4000 -109.91,44.99,4000 -109.93,44.99,4000 -109.96,45.00,4000 -109.98,45.01,4000 -110.01,45.01,4000 -110.03,45.02,4000 -110.05,45.03,4000 -110.07,45.03,4000 -110.10,45.04,4000 -110.12,45.05,4000 -110.15,45.06,4000 -110.17,45.07,4000 -110.20,45.07,4000 -110.22,45.08,4000 -110.24,45.09,4000 -110.26,45.09,4000 -110.27,45.10,4000 -110.29,45.11,4000 -110.29,45.12,4000 -110.30,45.13,4000 -110.30,45.14,4000 -110.31,45.16,4000 -110.32,45.17,4000 -110.33,45.19,4000 -110.34,45.21,4000 -110.35,45.23,4000 -110.36,45.25,4000 -110.37,45.27,4000 -110.32,45.35,4000 
          </coordinates>
        </LinearRing>
      </outerBoundaryIs>
      <innerBoundaryIs>
        <LinearRing>
          <coordinates>
-110.07,45.26,5000 -110.06,45.26,5000 -110.04,45.26,5000 -110.03,45.25,5000 -110.02,45.25,5000 -110.01,45.25,5000 -109.99,45.25,5000 -109.98,45.25,5000 -109.97,45.24,5000 -109.96,45.24,5000 -109.95,45.24,5000 -109.93,45.24,5000 -109.92,45.23,5000 -109.91,45.23,5000 -109.90,45.23,5000 -109.89,45.23,5000 -109.88,45.23,5000 -109.87,45.22,5000 -109.86,45.22,5000 -109.85,45.22,5000 -109.84,45.22,5000 -109.83,45.21,5000 -109.82,45.21,5000 -109.81,45.21,5000 -109.80,45.21,5000 -109.78,45.20,5000 -109.77,45.20,5000 -109.75,45.19,5000 -109.74,45.19,5000 -109.73,45.19,5000 -109.72,45.18,5000 -109.71,45.18,5000 -109.70,45.17,5000 -109.69,45.17,5000 -109.68,45.17,5000 -109.68,45.16,5000 -109.67,45.16,5000 -109.67,45.15,5000 -109.67,45.14,5000 -109.67,45.14,5000 -109.68,45.13,5000 -109.68,45.12,5000 -109.69,45.12,5000 -109.69,45.11,5000 -109.70,45.10,5000 -109.71,45.09,5000 -109.72,45.09,5000 -109.73,45.08,5000 -109.74,45.07,5000 -109.75,45.07,5000 -109.77,45.07,5000 -109.78,45.06,5000 -109.79,45.06,5000 -109.80,45.06,5000 -109.81,45.06,5000 -109.82,45.06,5000 -109.83,45.06,5000 -109.84,45.06,5000 -109.85,45.06,5000 -109.87,45.07,5000 -109.88,45.07,5000 -109.89,45.07,5000 -109.91,45.08,5000 -109.92,45.08,5000 -109.93,45.08,5000 -109.95,45.09,5000 -109.96,45.09,5000 -109.97,45.09,5000 -109.98,45.10,5000 -110.00,45.10,5000 -110.01,45.10,5000 -110.02,45.10,5000 -110.03,45.11,5000 -110.03,45.11,5000 -110.04,45.11,5000 -110.07,45.12,5000 -110.08,45.12,5000 -110.07,45.12,5000 -110.07,45.26,5000 
          </coordinates>
        </LinearRing>
      </innerBoundaryIs>
  </Polygon>
 </MultiGeometry>
</Placemark>
<Placemark>
  <name>30%</name>
  <visibility>1</visibility>
  <styleUrl>#poly_30</styleUrl>
  <MultiGeometry>
    <Polygon>
      <outerBoundaryIs>
        <LinearRing>
          <coordinates>
-113.41,46.10,4000 -113.36,46.10,4000 -113.31,46.10,4000 -113.27,46.10,4000 -113.22,46.10,4000 -113.19,46.09,4000 -113.16,46.09,4000 -113.12,46.08,4000 -113.11,46.06,4000 -113.11,46.04,4000 -113.11,46.01,4000 -113.11,45.97,4000 -113.12,45.94,4000 -113.12,45.92,4000 -113.14,45.89,4000 -113.16,45.88,4000 -113.15,45.88,4000 -113.11,45.87,4000 -113.09,45.85,4000 -113.06,45.82,4000 -113.04,45.79,4000 -113.01,45.76,4000 -112.98,45.73,4000 -112.96,45.70,4000 -112.93,45.68,4000 -112.91,45.65,4000 -112.89,45.63,4000 -112.87,45.60,4000 -112.86,45.57,4000 -112.86,45.54,4000 -112.87,45.51,4000 -112.88,45.47,4000 -112.89,45.44,4000 -112.91,45.41,4000 -112.92,45.39,4000 -112.94,45.36,4000 -112.97,45.34,4000 -113.01,45.32,4000 -113.04,45.31,4000 -113.08,45.30,4000 -113.12,45.28,4000 -113.16,45.27,4000 -113.20,45.26,4000 -113.24,45.25,4000 -113.28,45.24,4000 -113.32,45.23,4000 -113.35,45.21,4000 -113.39,45.20,4000 -113.43,45.20,4000 -113.47,45.20,4000 -113.51,45.21,4000 -113.55,45.22,4000 -113.60,45.24,4000 -113.64,45.26,4000 -113.68,45.28,4000 -113.72,45.30,4000 -113.74,45.31,4000 -113.74,45.32,4000 -113.71,45.33,4000 -113.67,45.33,4000 -113.63,45.34,4000 -113.58,45.35,4000 -113.54,45.37,4000 -113.51,45.38,4000 -113.49,45.41,4000 -113.48,45.44,4000 -113.48,45.47,4000 -113.47,45.51,4000 -113.46,45.54,4000 -113.45,45.57,4000 -113.44,45.60,4000 -113.43,45.63,4000 -113.42,45.66,4000 -113.42,45.69,4000 -113.42,45.72,4000 -113.42,45.75,4000 -113.43,45.78,4000 -113.44,45.80,4000 -113.44,45.83,4000 -113.45,45.86,4000 -113.46,45.89,4000 -113.47,45.92,4000 -113.48,45.96,4000 -113.49,45.99,4000 -113.50,46.02,4000 -113.41,46.10,4000 
          </coordinates>
        </LinearRing>
      </outerBoundaryIs>
      <innerBoundaryIs>
        <LinearRing>
          <coordinates>
-113.31,45.62,5000 -113.29,45.63,5000 -113.28,45.64,5000 -113.26,45.64,5000 -113.25,45.65,5000 -113.23,45.66,5000 -113.22,45.67,5000 -113.20,45.67,5000 -113.19,45.68,5000 -113.17,45.69,5000 -113.16,45.69,5000 -113.14,45.69,5000 -113.13,45.70,5000 -113.12,45.70,5000 -113.10,45.70,5000 -113.09,45.70,5000 -113.08,45.70,5000 -113.07,45.70,5000 -113.06,45.69,5000 -113.04,45.69,5000 -113.03,45.68,5000 -113.02,45.67,5000 -113.01,45.66,5000 -113.00,45.65,5000 -112.99,45.64,5000 -112.98,45.63,5000 -112.97,45.62,5000 -112.96,45.61,5000 -112.95,45.59,5000 -112.95,45.58,5000 -112.94,45.57,5000 -112.94,45.56,5000 -112.94,45.55,5000 -112.94,45.54,5000 -112.94,45.53,5000 -112.94,45.52,5000 -112.94,45.50,5000 -112.95,45.49,5000 -112.95,45.48,5000 -112.96,45.47,5000 -112.96,45.45,5000 -112.97,45.44,5000 -112.98,45.43,5000 -112.98,45.42,5000 -112.99,45.41,5000 -113.00,45.40,5000 -113.01,45.40,5000 -113.02,45.39,5000 -113.03,45.39,5000 -113.04,45.38,5000 -113.06,45.38,5000 -113.07,45.38,5000 -113.09,45.38,5000 -113.11,45.38,5000 -113.13,45.38,5000 -113.14,45.38,5000 -113.16,45.38,5000 -113.18,45.38,5000 -113.20,45.38,5000 -113.22,45.39,5000 -113.23,45.39,5000 -113.25,45.39,5000 -113.26,45.40,5000 -113.27,45.40,5000 -113.28,45.41,5000 -113.29,45.41,5000 -113.30,45.42,5000 -113.31,45.43,5000 -113.32,45.44,5000 -113.33,45.45,5000 -113.33,45.46,5000 -113.34,45.47,5000 -113.34,45.48,5000 -113.34,45.50,5000 -113.35,45.51,5000 -113.35,45.52,5000 -113.31,45.62,5000 
          </coordinates>
        </LinearRing>
      </innerBoundaryIs>
  </Polygon>
 </MultiGeometry>
</Placemark>
<Placemark>
  <name>30%</name>
  <visibility>1</visibility>
  <styleUrl>#poly_30</styleUrl>
  <MultiGeometry>
    <Polygon>
      <outerBoundaryIs>
        <LinearRing>
          <coordinates>
-113.64,44.79,4000 -113.62,44.79,4000 -113.59,44.79,4000 -113.57,44.79,4000 -113.55,44.79,4000 -113.53,44.79,4000 -113.51,44.79,4000 -113.48,44.79,4000 -113.46,44.78,4000 -113.44,44.78,4000 -113.43,44.78,4000 -113.41,44.77,4000 -113.39,44.77,4000 -113.37,44.76,4000 -113.35,44.76,4000 -113.34,44.75,4000 -113.32,44.74,4000 -113.30,44.73,4000 -113.29,44.72,4000 -113.28,44.71,4000 -113.26,44.70,4000 -113.25,44.68,4000 -113.24,44.67,4000 -113.23,44.66,4000 -113.22,44.64,4000 -113.20,44.63,4000 -113.19,44.61,4000 -113.18,44.60,4000 -113.17,44.58,4000 -113.16,44.57,4000 -113.15,44.55,4000 -113.15,44.54,4000 -113.15,44.52,4000 -113.15,44.51,4000 -113.16,44.50,4000 -113.16,44.48,4000 -113.18,44.47,4000 -113.19,44.46,4000 -113.21,44.45,4000 -113.22,44.44,4000 -113.24,44.43,4000 -113.26,44.42,4000 -113.28,44.41,4000 -113.30,44.40,4000 -113.32,44.39,4000 -113.34,44.38,4000 -113.36,44.38,4000 -113.38,44.37,4000 -113.41,44.37,4000 -113.43,44.36,4000 -113.46,44.36,4000 -113.48,44.36,4000 -113.50,44.36,4000 -113.52,44.36,4000 -113.54,44.36,4000 -113.56,44.36,4000 -113.58,44.36,4000 -113.60,44.37,4000 -113.61,44.38,4000 -113.62,44.39,4000 -113.63,44.41,4000 -113.64,44.42,4000 -113.66,44.43,4000 -113.67,44.45,4000 -113.68,44.46,4000 -113.69,44.47,4000 -113.70,44.49,4000 -113.71,44.50,4000 -113.72,44.51,4000 -113.73,44.53,4000 -113.74,44.54,4000 -113.75,44.56,4000 -113.76,44.57,4000 -113.77,44.59,4000 -113.78,44.60,4000 -113.79,44.62,4000 -113.64,44.79,4000 
          </coordinates>
        </LinearRing>
      </outerBoundaryIs>
  </Polygon>
 </MultiGeometry>
</Placemark>
<Placemark>
  <name>30%</name>
  <visibility>1</visibility>
  <styleUrl>#poly_30</styleUrl>
  <MultiGeometry>
    <Polygon>
      <outerBoundaryIs>
        <LinearRing>
          <coordinates>
-111.30,45.37,4000 -111.29,45.36,4000 -111.28,45.35,4000 -111.28,45.33,4000 -111.27,45.31,4000 -111.26,45.29,4000 -111.25,45.27,4000 -111.24,45.24,4000 -111.23,45.22,4000 -111.23,45.20,4000 -111.23,45.18,4000 -111.23,45.16,4000 -111.23,45.14,4000 -111.23,45.11,4000 -111.23,45.09,4000 -111.23,45.07,4000 -111.23,45.05,4000 -111.23,45.03,4000 -111.23,45.02,4000 -111.23,45.00,4000 -111.24,44.99,4000 -111.25,44.98,4000 -111.26,44.96,4000 -111.28,44.94,4000 -111.29,44.92,4000 -111.31,44.91,4000 -111.33,44.89,4000 -111.34,44.87,4000 -111.36,44.85,4000 -111.37,44.84,4000 -111.39,44.82,4000 -111.41,44.81,4000 -111.43,44.81,4000 -111.45,44.81,4000 -111.47,44.81,4000 -111.50,44.81,4000 -111.52,44.81,4000 -111.55,44.81,4000 -111.58,44.82,4000 -111.60,44.82,4000 -111.63,44.83,4000 -111.65,44.83,4000 -111.68,44.84,4000 -111.70,44.86,4000 -111.72,44.87,4000 -111.73,44.89,4000 -111.75,44.91,4000 -111.77,44.93,4000 -111.78,44.95,4000 -111.79,44.96,4000 -111.80,44.98,4000 -111.80,45.00,4000 -111.79,45.01,4000 -111.77,45.03,4000 -111.76,45.04,4000 -111.74,45.06,4000 -111.73,45.08,4000 -111.72,45.09,4000 -111.70,45.11,4000 -111.69,45.12,4000 -111.68,45.14,4000 -111.66,45.16,4000 -111.65,45.18,4000 -111.63,45.19,4000 -111.62,45.21,4000 -111.61,45.23,4000 -111.59,45.24,4000 -111.58,45.26,4000 -111.56,45.28,4000 -111.54,45.29,4000 -111.52,45.30,4000 -111.49,45.31,4000 -111.47,45.32,4000 -111.44,45.33,4000 -111.42,45.34,4000 -111.39,45.35,4000 -111.36,45.35,4000 -111.33,45.36,4000 -111.30,45.37,4000 
          </coordinates>
        </LinearRing>
      </outerBoundaryIs>
      <innerBoundaryIs>
        <LinearRing>
          <coordinates>
-111.52,45.17,5000 -111.51,45.17,5000 -111.51,45.17,5000 -111.50,45.16,5000 -111.49,45.15,5000 -111.49,45.15,5000 -111.48,45.14,5000 -111.47,45.13,5000 -111.46,45.12,5000 -111.46,45.11,5000 -111.45,45.11,5000 -111.44,45.10,5000 -111.43,45.09,5000 -111.42,45.08,5000 -111.41,45.07,5000 -111.41,45.06,5000 -111.40,45.05,5000 -111.39,45.04,5000 -111.39,45.03,5000 -111.38,45.02,5000 -111.38,45.02,5000 -111.38,45.01,5000 -111.38,45.00,5000 -111.38,44.99,5000 -111.39,44.98,5000 -111.39,44.97,5000 -111.40,44.96,5000 -111.41,44.95,5000 -111.42,44.94,5000 -111.43,44.94,5000 -111.44,44.93,5000 -111.45,44.92,5000 -111.46,44.92,5000 -111.47,44.92,5000 -111.48,44.92,5000 -111.49,44.92,5000 -111.50,44.92,5000 -111.51,44.92,5000 -111.53,44.93,5000 -111.54,44.93,5000 -111.56,44.94,5000 -111.57,44.94,5000 -111.58,44.95,5000 -111.59,44.95,5000 -111.60,44.96,5000 -111.61,44.97,5000 -111.62,44.97,5000 -111.63,44.98,5000 -111.63,44.99,5000 -111.63,45.00,5000 -111.63,45.00,5000 -111.63,45.01,5000 -111.62,45.02,5000 -111.62,45.03,5000 -111.62,45.04,5000 -111.61,45.05,5000 -111.60,45.06,5000 -111.60,45.07,5000 -111.59,45.08,5000 -111.58,45.09,5000 -111.57,45.10,5000 -111.57,45.11,5000 -111.56,45.12,5000 -111.55,45.13,5000 -111.55,45.14,5000 -111.54,45.15,5000 -111.53,45.15,5000 -111.53,45.16,5000 -111.52,45.17,5000 -111.52,45.17,5000 -111.52,45.17,5000 
          </coordinates>
        </LinearRing>
      </innerBoundaryIs>
  </Polygon>
 </MultiGeometry>
</Placemark>
<Placemark>
  <name>40%</name>
  <visibility>1</visibility>
  <styleUrl>#poly_40</styleUrl>
  <MultiGeometry>
    <Polygon>
      <outerBoundaryIs>
        <LinearRing>
          <coordinates>
-111.52,45.17,5000 -111.51,45.17,5000 -111.51,45.17,5000 -111.50,45.16,5000 -111.49,45.15,5000 -111.49,45.15,5000 -111.48,45.14,5000 -111.47,45.13,5000 -111.46,45.12,5000 -111.46,45.11,5000 -111.45,45.11,5000 -111.44,45.10,5000 -111.43,45.09,5000 -111.42,45.08,5000 -111.41,45.07,5000 -111.41,45.06,5000 -111.40,45.05,5000 -111.39,45.04,5000 -111.39,45.03,5000 -111.38,45.02,5000 -111.38,45.02,5000 -111.38,45.01,5000 -111.38,45.00,5000 -111.38,44.99,5000 -111.39,44.98,5000 -111.39,44.97,5000 -111.40,44.96,5000 -111.41,44.95,5000 -111.42,44.94,5000 -111.43,44.94,5000 -111.44,44.93,5000 -111.45,44.92,5000 -111.46,44.92,5000 -111.47,44.92,5000 -111.48,44.92,5000 -111.49,44.92,5000 -111.50,44.92,5000 -111.51,44.92,5000 -111.53,44.93,5000 -111.54,44.93,5000 -111.56,44.94,5000 -111.57,44.94,5000 -111.58,44.95,5000 -111.59,44.95,5000 -111.60,44.96,5000 -111.61,44.97,5000 -111.62,44.97,5000 -111.63,44.98,5000 -111.63,44.99,5000 -111.63,45.00,5000 -111.63,45.00,5000 -111.63,45.01,5000 -111.62,45.02,5000 -111.62,45.03,5000 -111.62,45.04,5000 -111.61,45.05,5000 -111.60,45.06,5000 -111.60,45.07,5000 -111.59,45.08,5000 -111.58,45.09,5000 -111.57,45.10,5000 -111.57,45.11,5000 -111.56,45.12,5000 -111.55,45.13,5000 -111.55,45.14,5000 -111.54,45.15,5000 -111.53,45.15,5000 -111.53,45.16,5000 -111.52,45.17,5000 -111.52,45.17,5000 -111.52,45.17,5000 
          </coordinates>
        </LinearRing>
      </outerBoundaryIs>
  </Polygon>
 </MultiGeometry>
</Placemark>
<Placemark>
  <name>40%</name>
  <visibility>1</visibility>
  <styleUrl>#poly_40</styleUrl>
  <MultiGeometry>
    <Polygon>
      <outerBoundaryIs>
        <LinearRing>
          <coordinates>
-110.07,45.26,5000 -110.06,45.26,5000 -110.04,45.26,5000 -110.03,45.25,5000 -110.02,45.25,5000 -110.01,45.25,5000 -109.99,45.25,5000 -109.98,45.25,5000 -109.97,45.24,5000 -109.96,45.24,5000 -109.95,45.24,5000 -109.93,45.24,5000 -109.92,45.23,5000 -109.91,45.23,5000 -109.90,45.23,5000 -109.89,45.23,5000 -109.88,45.23,5000 -109.87,45.22,5000 -109.86,45.22,5000 -109.85,45.22,5000 -109.84,45.22,5000 -109.83,45.21,5000 -109.82,45.21,5000 -109.81,45.21,5000 -109.80,45.21,5000 -109.78,45.20,5000 -109.77,45.20,5000 -109.75,45.19,5000 -109.74,45.19,5000 -109.73,45.19,5000 -109.72,45.18,5000 -109.71,45.18,5000 -109.70,45.17,5000 -109.69,45.17,5000 -109.68,45.17,5000 -109.68,45.16,5000 -109.67,45.16,5000 -109.67,45.15,5000 -109.67,45.14,5000 -109.67,45.14,5000 -109.68,45.13,5000 -109.68,45.12,5000 -109.69,45.12,5000 -109.69,45.11,5000 -109.70,45.10,5000 -109.71,45.09,5000 -109.72,45.09,5000 -109.73,45.08,5000 -109.74,45.07,5000 -109.75,45.07,5000 -109.77,45.07,5000 -109.78,45.06,5000 -109.79,45.06,5000 -109.80,45.06,5000 -109.81,45.06,5000 -109.82,45.06,5000 -109.83,45.06,5000 -109.84,45.06,5000 -109.85,45.06,5000 -109.87,45.07,5000 -109.88,45.07,5000 -109.89,45.07,5000 -109.91,45.08,5000 -109.92,45.08,5000 -109.93,45.08,5000 -109.95,45.09,5000 -109.96,45.09,5000 -109.97,45.09,5000 -109.98,45.10,5000 -110.00,45.10,5000 -110.01,45.10,5000 -110.02,45.10,5000 -110.03,45.11,5000 -110.03,45.11,5000 -110.04,45.11,5000 -110.07,45.12,5000 -110.08,45.12,5000 -110.07,45.12,5000 -110.07,45.26,5000 
          </coordinates>
        </LinearRing>
      </outerBoundaryIs>
  </Polygon>
 </MultiGeometry>
</Placemark>
<Placemark>
  <name>40%</name>
  <visibility>1</visibility>
  <styleUrl>#poly_40</styleUrl>
  <MultiGeometry>
    <Polygon>
      <outerBoundaryIs>
        <LinearRing>
          <coordinates>
-113.31,45.62,5000 -113.29,45.63,5000 -113.28,45.64,5000 -113.26,45.64,5000 -113.25,45.65,5000 -113.23,45.66,5000 -113.22,45.67,5000 -113.20,45.67,5000 -113.19,45.68,5000 -113.17,45.69,5000 -113.16,45.69,5000 -113.14,45.69,5000 -113.13,45.70,5000 -113.12,45.70,5000 -113.10,45.70,5000 -113.09,45.70,5000 -113.08,45.70,5000 -113.07,45.70,5000 -113.06,45.69,5000 -113.04,45.69,5000 -113.03,45.68,5000 -113.02,45.67,5000 -113.01,45.66,5000 -113.00,45.65,5000 -112.99,45.64,5000 -112.98,45.63,5000 -112.97,45.62,5000 -112.96,45.61,5000 -112.95,45.59,5000 -112.95,45.58,5000 -112.94,45.57,5000 -112.94,45.56,5000 -112.94,45.55,5000 -112.94,45.54,5000 -112.94,45.53,5000 -112.94,45.52,5000 -112.94,45.50,5000 -112.95,45.49,5000 -112.95,45.48,5000 -112.96,45.47,5000 -112.96,45.45,5000 -112.97,45.44,5000 -112.98,45.43,5000 -112.98,45.42,5000 -112.99,45.41,5000 -113.00,45.40,5000 -113.01,45.40,5000 -113.02,45.39,5000 -113.03,45.39,5000 -113.04,45.38,5000 -113.06,45.38,5000 -113.07,45.38,5000 -113.09,45.38,5000 -113.11,45.38,5000 -113.13,45.38,5000 -113.14,45.38,5000 -113.16,45.38,5000 -113.18,45.38,5000 -113.20,45.38,5000 -113.22,45.39,5000 -113.23,45.39,5000 -113.25,45.39,5000 -113.26,45.40,5000 -113.27,45.40,5000 -113.28,45.41,5000 -113.29,45.41,5000 -113.30,45.42,5000 -113.31,45.43,5000 -113.32,45.44,5000 -113.33,45.45,5000 -113.33,45.46,5000 -113.34,45.47,5000 -113.34,45.48,5000 -113.34,45.50,5000 -113.35,45.51,5000 -113.35,45.52,5000 -113.31,45.62,5000 
          </coordinates>
        </LinearRing>
      </outerBoundaryIs>
  </Polygon>
 </MultiGeometry>
</Placemark>
    </Folder>
  </Document>
</kml>
