<?xml version="1.0" encoding="UTF-8"?>
<kml xmlns="http://www.opengis.net/kml/2.2">
<Document id="prb_72hsnow_ge02_f072">
<name>WPC 72-Hr Prob of Snow > 2"</name>
  <open>1</open>
  <snippet>Valid 12Z 05/22/2026 - 12Z 05/25/2026</snippet>
  <description></description>
    <Style id="poly_1">
        <IconStyle>
           <color>00000000</color>
           <scale>1</scale>
        </IconStyle>
        <LabelStyle>
            <color>ff26478b</color>
            <scale>0.8</scale>
        </LabelStyle>
        <LineStyle>
            <color>6626478b</color>
            <width>0</width>
        </LineStyle>
	<PolyStyle>
            <color>6626478b</color>
	</PolyStyle>
        <BalloonStyle>
            <text>
                <![CDATA[ <table border=0 width="300"><tr><td style="font-size:10pt;">
                During this forecast period, there is a <b>1-5%</b> probability of snowfall exceeding the depicted amount in the enclosed area.
                <br/><br/>
                *<span style="font-size:8pt;">Note that in cases where this contour is embedded within a 5% contour, 
                the probability of snowfall exceeding the depicted amount is &lt;1%.</span>
                </td></tr></table>]]>
            </text>
        </BalloonStyle>
    </Style>

    <Style id="poly_5">
        <IconStyle>
           <color>00000000</color>
           <scale>1</scale>
        </IconStyle>
        <LabelStyle>
            <color>ff00eeee</color>
            <scale>0.8</scale>
        </LabelStyle>
        <LineStyle>
            <color>6600eeee</color>
            <width>0.4</width>
        </LineStyle>
	<PolyStyle>
	    <color>6600eeee</color>
	</PolyStyle>
        <BalloonStyle>
            <text>
                <![CDATA[ <table border=0 width="300"><tr><td style="font-size:10pt;">
                During this forecast period, there is a <b>5-10%</b> probability of snowfall exceeding the depicted amount in the enclosed area.
                <br/><br/>
                *<span style="font-size:8pt;">Note that in cases where this contour is embedded within a 10% contour, 
                the probability of snowfall exceeding the depicted amount is &lt;5%.</span>
                </td></tr></table>]]>
            </text>
        </BalloonStyle>
    </Style>

    <Style id="poly_10">
        <IconStyle>
           <color>00000000</color>
           <scale>1</scale>
        </IconStyle>
        <LabelStyle>
            <color>ff00ff7f</color>
            <scale>0.8</scale>
        </LabelStyle>
        <LineStyle>
            <color>6600ff7f</color>
            <width>0.4</width>
        </LineStyle>
	<PolyStyle>
	    <color>6600ff7f</color>
	</PolyStyle>
        <BalloonStyle>
            <text>
                <![CDATA[ <table border=0 width="300"><tr><td style="font-size:10pt;">
                During this forecast period, there is a <b>10-20%</b> probability of snowfall exceeding the depicted amount in the enclosed area.
                <br/><br/>
                *<span style="font-size:8pt;">Note that in cases where this contour is embedded within a 20% contour, 
                the probability of snowfall exceeding the depicted amount is &lt;10%.</span>
                </td></tr></table>]]>
            </text>
        </BalloonStyle>
    </Style>
    
    <Style id="poly_20">
        <IconStyle>
            <color>00000000</color>
            <scale>1</scale>
        </IconStyle>
        <LabelStyle>
            <color>ff00cd00</color>
            <scale>0.8</scale>
        </LabelStyle>
        <LineStyle>
            <color>6600cd00</color>
	    <width>0.4</width>
	</LineStyle>
	<PolyStyle>
	    <color>6600cd00</color>
	</PolyStyle>
        <BalloonStyle>
            <text>
                <![CDATA[ <table border=0 width="300"><tr><td style="font-size:10pt;">
                During this forecast period, there is a <b>20-30%</b> probability of snowfall exceeding the depicted amount in the enclosed area.
                <br/><br/>
                *<span style="font-size:8pt;">Note that in cases where this contour is embedded within a 30% contour, 
                the probability of snowfall exceeding the depicted amount is &lt;20%.</span>
                </td></tr></table>]]>
            </text>
        </BalloonStyle>
    </Style>

    <Style id="poly_30">
        <IconStyle>
            <color>00000000</color>
            <scale>1</scale>
        </IconStyle>
        <LabelStyle>
            <color>ff008b00</color>
            <scale>0.8</scale>
        </LabelStyle>
        <LineStyle>
            <color>66008b00</color>
	    <width>0.4</width>
	</LineStyle>
	<PolyStyle>
	    <color>66008b00</color>
	</PolyStyle>
        <BalloonStyle>
            <text>
                <![CDATA[ <table border=0 width="300"><tr><td style="font-size:10pt;">
                During this forecast period, there is a <b>30-40%</b> probability of snowfall exceeding the depicted amount in the enclosed area.
                <br/><br/>
                *<span style="font-size:8pt;">Note that in cases where this contour is embedded within a 40% contour, 
                the probability of snowfall exceeding the depicted amount is &lt;30%.</span>
                </td></tr></table>]]>
            </text>
        </BalloonStyle>
    </Style>

    <Style id="poly_40">
        <IconStyle>
            <color>00000000</color>
            <scale>1</scale>
        </IconStyle>
        <LabelStyle>
            <color>ff8b4e10</color>
            <scale>0.8</scale>
        </LabelStyle>
        <LineStyle>
            <color>668b4e10</color>
	    <width>0.4</width>
	</LineStyle>
	<PolyStyle>
	    <color>668b4e10</color>
	</PolyStyle>
        <BalloonStyle>
            <text>
                <![CDATA[ <table border=0 width="300"><tr><td style="font-size:10pt;">
                During this forecast period, there is a <b>40-50%</b> probability of snowfall exceeding the depicted amount in the enclosed area.
                <br/><br/>
                *<span style="font-size:8pt;">Note that in cases where this contour is embedded within a 50% contour, 
                the probability of snowfall exceeding the depicted amount is &lt;40%.</span>
                </td></tr></table>]]>
            </text>
        </BalloonStyle>
    </Style>

    <Style id="poly_50">
        <IconStyle>
            <color>00000000</color>
            <scale>1</scale>
        </IconStyle>
        <LabelStyle>
            <color>ffff901e</color>
            <scale>0.8</scale>
        </LabelStyle>
        <LineStyle>
            <color>66ff901e</color>
	    <width>0.4</width>
	</LineStyle>
	<PolyStyle>
	    <color>66ff901e</color>
	</PolyStyle>
        <BalloonStyle>
            <text>
                <![CDATA[ <table border=0 width="300"><tr><td style="font-size:10pt;">
                During this forecast period, there is a <b>50-60%</b> probability of snowfall exceeding the depicted amount in the enclosed area.
                <br/><br/>
                *<span style="font-size:8pt;">Note that in cases where this contour is embedded within a 60% contour, 
                the probability of snowfall exceeding the depicted amount is &lt;50%.</span>
                </td></tr></table>]]>
            </text>
        </BalloonStyle>
    </Style>

    <Style id="poly_60">
        <IconStyle>
            <color>00000000</color>
            <scale>1</scale>
        </IconStyle>
        <LabelStyle>
            <color>ffeeb200</color>
            <scale>0.8</scale>
        </LabelStyle>
        <LineStyle>
            <color>66eeb200</color>
	    <width>0.4</width>
	</LineStyle>
	<PolyStyle>
	    <color>66eeb200</color>
	</PolyStyle>
        <BalloonStyle>
            <text>
                <![CDATA[ <table border=0 width="300"><tr><td style="font-size:10pt;">
                During this forecast period, there is a <b>60-70%</b> probability of snowfall exceeding the depicted amount in the enclosed area.
                <br/><br/>
                *<span style="font-size:8pt;">Note that in cases where this contour is embedded within a 70% contour, 
                the probability of snowfall exceeding the depicted amount is &lt;60%.</span>
                </td></tr></table>]]>
            </text>
        </BalloonStyle>
    </Style>
    
    <Style id="poly_70">
        <IconStyle>
            <color>00000000</color>
            <scale>1</scale>
        </IconStyle>
        <LabelStyle>
            <color>ffeeee00</color>
            <scale>0.8</scale>
        </LabelStyle>
        <LineStyle>
            <color>66eeee00</color>
	    <width>0.4</width>
	</LineStyle>
	<PolyStyle>
	    <color>66eeee00</color>
	</PolyStyle>
        <BalloonStyle>
            <text>
                <![CDATA[ <table border=0 width="300"><tr><td style="font-size:10pt;">
                During this forecast period, there is a <b>70-80%</b> probability of snowfall exceeding the depicted amount in the enclosed area.
                <br/><br/>
                *<span style="font-size:8pt;">Note that in cases where this contour is embedded within a 80% contour, 
                the probability of snowfall exceeding the depicted amount is &lt;70%.</span>
                </td></tr></table>]]>
            </text>
        </BalloonStyle>
    </Style>

    <Style id="poly_80">
        <IconStyle>
            <color>00000000</color>
            <scale>1</scale>
        </IconStyle>
        <LabelStyle>
            <color>ff4782ff</color>
            <scale>0.8</scale>
        </LabelStyle>
        <LineStyle>
            <color>664782ff</color>
	    <width>0.4</width>
	</LineStyle>
	<PolyStyle>
	    <color>664782ff</color>
	</PolyStyle>
        <BalloonStyle>
            <text>
                <![CDATA[ <table border=0 width="300"><tr><td style="font-size:10pt;">
                During this forecast period, there is a <b>80-90%</b> probability of snowfall exceeding the depicted amount in the enclosed area.
                <br/><br/>
                *<span style="font-size:8pt;">Note that in cases where this contour is embedded within a 90% contour, 
                the probability of snowfall exceeding the depicted amount is &lt;80%.</span>
                </td></tr></table>]]>
            </text>
        </BalloonStyle>
    </Style>

    <Style id="poly_90">
        <IconStyle>
            <color>00000000</color>
            <scale>1</scale>
        </IconStyle>
        <LabelStyle>
            <color>ff2c2cee</color>
            <scale>0.8</scale>
        </LabelStyle>
        <LineStyle>
            <color>662c2cee</color>
            <width>0.4</width>
        </LineStyle>
        <PolyStyle>
            <color>662c2cee</color>
        </PolyStyle>
        <BalloonStyle>
            <text>
                <![CDATA[ <table border=0 width="300"><tr><td style="font-size:10pt;">
                During this forecast period, there is a <b>90-95%</b> probability of snowfall exceeding the depicted amount in the enclosed area.
                <br/><br/>
                *<span style="font-size:8pt;">Note that in cases where this contour is embedded within a 95% contour, 
                the probability of snowfall exceeding the depicted amount is &lt;90%.</span>
                </td></tr></table>]]>
            </text>
        </BalloonStyle>
    </Style>

    <Style id="poly_95">
        <IconStyle>
            <color>00000000</color>
            <scale>1</scale>
        </IconStyle>
        <LabelStyle>
            <color>ff00008b</color>
            <scale>0.8</scale>
        </LabelStyle>
        <LineStyle>
            <color>6600008b</color>
	    <width>0.4</width>
	</LineStyle>
	<PolyStyle>
	    <color>6600008b</color>
	</PolyStyle>
        <BalloonStyle>
            <text>
                <![CDATA[ <table border=0 width="300"><tr><td style="font-size:10pt;">
                The probability of snowfall exceeding the depicted amount is <b>&ge;95%</b> in the enclosed area during this forecast period.
                </td></tr></table>]]>
            </text>
        </BalloonStyle>
    </Style>

  <ScreenOverlay>
    <name>Logos</name>
    <description></description>
    <Icon>
      <href>https://www.wpc.ncep.noaa.gov/images/noaa_and_nws_logo.png</href>
    </Icon>
   <overlayXY x=".01" y=".01" xunits="fraction" yunits="fraction" />
   <screenXY x=".01" y=".01" xunits="fraction" yunits="fraction" />
   <rotationXY x="0" y="0" xunits="fraction" yunits="fraction" />
   <size x="-1" y="-1" xunits="fraction" yunits="fraction" />
  </ScreenOverlay>
    <Folder>
      <name>Snow Probabilities</name>
      <open>0</open>
<Placemark>
  <name>1%</name>
  <visibility>1</visibility>
  <styleUrl>#poly_1</styleUrl>
  <MultiGeometry>
    <Polygon>
      <outerBoundaryIs>
        <LinearRing>
          <coordinates>
-124.92,50.89,0 -124.84,50.91,0 -124.75,50.92,0 -124.67,50.94,0 -124.59,50.95,0 -124.50,50.97,0 -124.42,50.98,0 -124.34,50.99,0 -124.25,51.01,0 -124.17,51.02,0 -124.09,51.03,0 -124.00,51.04,0 -123.92,51.05,0 -123.83,51.06,0 -123.74,51.07,0 -123.65,51.08,0 -123.56,51.09,0 -123.48,51.10,0 -123.41,51.11,0 -123.31,51.12,0 -123.24,51.13,0 -123.16,51.13,0 -123.09,51.12,0 -123.02,51.10,0 -122.95,51.07,0 -122.89,51.03,0 -122.86,50.99,0 -122.84,50.93,0 -122.82,50.87,0 -122.81,50.81,0 -122.80,50.76,0 -122.79,50.71,0 -122.79,50.64,0 -122.80,50.60,0 -122.80,50.55,0 -122.78,50.51,0 -122.76,50.47,0 -122.72,50.43,0 -122.68,50.39,0 -122.62,50.35,0 -122.55,50.32,0 -122.48,50.28,0 -122.42,50.25,0 -122.37,50.20,0 -122.35,50.16,0 -122.33,50.11,0 -122.32,50.07,0 -122.32,50.02,0 -122.33,49.98,0 -122.35,49.93,0 -122.39,49.89,0 -122.43,49.85,0 -122.49,49.80,0 -122.55,49.76,0 -122.61,49.73,0 -122.68,49.69,0 -122.76,49.66,0 -122.84,49.64,0 -122.92,49.63,0 -122.99,49.64,0 -123.07,49.67,0 -123.14,49.70,0 -123.21,49.73,0 -123.28,49.75,0 -123.34,49.76,0 -123.41,49.77,0 -123.49,49.79,0 -123.55,49.80,0 -123.62,49.82,0 -123.70,49.83,0 -123.77,49.85,0 -123.84,49.87,0 -123.90,49.89,0 -123.96,49.93,0 -124.01,49.97,0 -124.05,50.01,0 -124.10,50.05,0 -124.16,50.08,0 -124.23,50.10,0 -124.30,50.12,0 -124.35,50.15,0 -124.38,50.19,0 -124.39,50.24,0 -124.41,50.28,0 -124.44,50.31,0 -124.50,50.32,0 -124.57,50.31,0 -124.64,50.30,0 -124.71,50.30,0 -124.78,50.32,0 -124.85,50.34,0 -124.91,50.37,0 -124.96,50.40,0 -125.00,50.44,0 -125.02,50.48,0 -125.04,50.52,0 -125.05,50.56,0 -125.07,50.61,0 -125.07,50.67,0 -125.08,50.72,0 -124.92,50.89,0 
          </coordinates>
        </LinearRing>
      </outerBoundaryIs>
      <innerBoundaryIs>
        <LinearRing>
          <coordinates>
-124.88,50.79,1000 -124.83,50.82,1000 -124.78,50.85,1000 -124.73,50.88,1000 -124.67,50.90,1000 -124.61,50.92,1000 -124.56,50.93,1000 -124.49,50.94,1000 -124.41,50.95,1000 -124.36,50.96,1000 -124.30,50.97,1000 -124.24,50.98,1000 -124.18,50.98,1000 -124.11,50.99,1000 -124.04,51.00,1000 -123.97,51.01,1000 -123.91,51.02,1000 -123.85,51.03,1000 -123.78,51.04,1000 -123.71,51.05,1000 -123.65,51.06,1000 -123.58,51.07,1000 -123.52,51.08,1000 -123.46,51.08,1000 -123.40,51.08,1000 -123.33,51.08,1000 -123.27,51.07,1000 -123.21,51.05,1000 -123.15,51.04,1000 -123.10,51.02,1000 -123.06,51.00,1000 -123.00,50.97,1000 -122.96,50.94,1000 -122.93,50.91,1000 -122.91,50.87,1000 -122.91,50.84,1000 -122.91,50.80,1000 -122.93,50.76,1000 -122.94,50.73,1000 -122.95,50.69,1000 -122.96,50.64,1000 -122.97,50.60,1000 -122.98,50.55,1000 -122.98,50.51,1000 -122.97,50.47,1000 -122.95,50.44,1000 -122.93,50.41,1000 -122.89,50.36,1000 -122.86,50.33,1000 -122.83,50.29,1000 -122.80,50.25,1000 -122.76,50.21,1000 -122.72,50.17,1000 -122.69,50.13,1000 -122.67,50.09,1000 -122.65,50.06,1000 -122.64,50.01,1000 -122.65,49.97,1000 -122.68,49.92,1000 -122.71,49.89,1000 -122.74,49.87,1000 -122.79,49.86,1000 -122.86,49.87,1000 -122.94,49.89,1000 -123.01,49.91,1000 -123.07,49.92,1000 -123.12,49.94,1000 -123.18,49.95,1000 -123.24,49.96,1000 -123.29,49.97,1000 -123.35,49.97,1000 -123.41,49.95,1000 -123.47,49.94,1000 -123.53,49.94,1000 -123.58,49.96,1000 -123.63,49.98,1000 -123.69,50.01,1000 -123.74,50.04,1000 -123.80,50.07,1000 -123.85,50.09,1000 -123.91,50.10,1000 -123.97,50.11,1000 -124.03,50.13,1000 -124.09,50.14,1000 -124.14,50.16,1000 -124.19,50.19,1000 -124.24,50.22,1000 -124.29,50.26,1000 -124.33,50.29,1000 -124.39,50.32,1000 -124.45,50.34,1000 -124.51,50.35,1000 -124.57,50.36,1000 -124.64,50.38,1000 -124.70,50.39,1000 -124.75,50.41,1000 -124.80,50.44,1000 -124.85,50.47,1000 -124.89,50.51,1000 -124.93,50.54,1000 -124.97,50.58,1000 -124.88,50.79,1000 
          </coordinates>
        </LinearRing>
      </innerBoundaryIs>
  </Polygon>
 </MultiGeometry>
</Placemark>
<Placemark>
  <name>5%</name>
  <visibility>1</visibility>
  <styleUrl>#poly_5</styleUrl>
  <MultiGeometry>
    <Polygon>
      <outerBoundaryIs>
        <LinearRing>
          <coordinates>
-124.88,50.79,1000 -124.83,50.82,1000 -124.78,50.85,1000 -124.73,50.88,1000 -124.67,50.90,1000 -124.61,50.92,1000 -124.56,50.93,1000 -124.49,50.94,1000 -124.41,50.95,1000 -124.36,50.96,1000 -124.30,50.97,1000 -124.24,50.98,1000 -124.18,50.98,1000 -124.11,50.99,1000 -124.04,51.00,1000 -123.97,51.01,1000 -123.91,51.02,1000 -123.85,51.03,1000 -123.78,51.04,1000 -123.71,51.05,1000 -123.65,51.06,1000 -123.58,51.07,1000 -123.52,51.08,1000 -123.46,51.08,1000 -123.40,51.08,1000 -123.33,51.08,1000 -123.27,51.07,1000 -123.21,51.05,1000 -123.15,51.04,1000 -123.10,51.02,1000 -123.06,51.00,1000 -123.00,50.97,1000 -122.96,50.94,1000 -122.93,50.91,1000 -122.91,50.87,1000 -122.91,50.84,1000 -122.91,50.80,1000 -122.93,50.76,1000 -122.94,50.73,1000 -122.95,50.69,1000 -122.96,50.64,1000 -122.97,50.60,1000 -122.98,50.55,1000 -122.98,50.51,1000 -122.97,50.47,1000 -122.95,50.44,1000 -122.93,50.41,1000 -122.89,50.36,1000 -122.86,50.33,1000 -122.83,50.29,1000 -122.80,50.25,1000 -122.76,50.21,1000 -122.72,50.17,1000 -122.69,50.13,1000 -122.67,50.09,1000 -122.65,50.06,1000 -122.64,50.01,1000 -122.65,49.97,1000 -122.68,49.92,1000 -122.71,49.89,1000 -122.74,49.87,1000 -122.79,49.86,1000 -122.86,49.87,1000 -122.94,49.89,1000 -123.01,49.91,1000 -123.07,49.92,1000 -123.12,49.94,1000 -123.18,49.95,1000 -123.24,49.96,1000 -123.29,49.97,1000 -123.35,49.97,1000 -123.41,49.95,1000 -123.47,49.94,1000 -123.53,49.94,1000 -123.58,49.96,1000 -123.63,49.98,1000 -123.69,50.01,1000 -123.74,50.04,1000 -123.80,50.07,1000 -123.85,50.09,1000 -123.91,50.10,1000 -123.97,50.11,1000 -124.03,50.13,1000 -124.09,50.14,1000 -124.14,50.16,1000 -124.19,50.19,1000 -124.24,50.22,1000 -124.29,50.26,1000 -124.33,50.29,1000 -124.39,50.32,1000 -124.45,50.34,1000 -124.51,50.35,1000 -124.57,50.36,1000 -124.64,50.38,1000 -124.70,50.39,1000 -124.75,50.41,1000 -124.80,50.44,1000 -124.85,50.47,1000 -124.89,50.51,1000 -124.93,50.54,1000 -124.97,50.58,1000 -124.88,50.79,1000 
          </coordinates>
        </LinearRing>
      </outerBoundaryIs>
      <innerBoundaryIs>
        <LinearRing>
          <coordinates>
-124.65,50.87,2000 -124.59,50.88,2000 -124.54,50.89,2000 -124.48,50.90,2000 -124.43,50.91,2000 -124.37,50.92,2000 -124.32,50.93,2000 -124.26,50.94,2000 -124.21,50.95,2000 -124.15,50.96,2000 -124.09,50.97,2000 -124.04,50.98,2000 -123.98,50.99,2000 -123.92,51.00,2000 -123.86,51.01,2000 -123.81,51.02,2000 -123.75,51.02,2000 -123.69,51.03,2000 -123.64,51.03,2000 -123.58,51.03,2000 -123.51,51.03,2000 -123.45,51.03,2000 -123.39,51.02,2000 -123.33,51.02,2000 -123.27,51.01,2000 -123.22,51.00,2000 -123.18,50.99,2000 -123.12,50.97,2000 -123.08,50.94,2000 -123.04,50.91,2000 -123.02,50.88,2000 -123.00,50.85,2000 -123.00,50.82,2000 -123.01,50.79,2000 -123.03,50.75,2000 -123.05,50.72,2000 -123.05,50.67,2000 -123.04,50.64,2000 -123.03,50.61,2000 -123.02,50.57,2000 -123.00,50.53,2000 -122.99,50.50,2000 -122.97,50.46,2000 -122.96,50.42,2000 -122.95,50.38,2000 -122.95,50.35,2000 -122.95,50.31,2000 -122.96,50.28,2000 -122.97,50.24,2000 -122.99,50.20,2000 -123.01,50.17,2000 -123.03,50.14,2000 -123.05,50.11,2000 -123.07,50.09,2000 -123.11,50.06,2000 -123.15,50.05,2000 -123.20,50.04,2000 -123.25,50.03,2000 -123.30,50.03,2000 -123.35,50.03,2000 -123.41,50.03,2000 -123.46,50.03,2000 -123.52,50.03,2000 -123.58,50.04,2000 -123.63,50.05,2000 -123.68,50.06,2000 -123.72,50.08,2000 -123.77,50.10,2000 -123.82,50.11,2000 -123.87,50.13,2000 -123.92,50.15,2000 -123.97,50.16,2000 -124.02,50.18,2000 -124.07,50.20,2000 -124.12,50.22,2000 -124.17,50.24,2000 -124.21,50.26,2000 -124.26,50.28,2000 -124.30,50.31,2000 -124.35,50.33,2000 -124.39,50.36,2000 -124.44,50.38,2000 -124.48,50.40,2000 -124.53,50.42,2000 -124.58,50.44,2000 -124.63,50.46,2000 -124.68,50.48,2000 -124.72,50.49,2000 -124.76,50.51,2000 -124.79,50.53,2000 -124.82,50.56,2000 -124.84,50.59,2000 -124.84,50.63,2000 -124.84,50.66,2000 -124.65,50.87,2000 
          </coordinates>
        </LinearRing>
      </innerBoundaryIs>
  </Polygon>
 </MultiGeometry>
</Placemark>
<Placemark>
  <name>10%</name>
  <visibility>1</visibility>
  <styleUrl>#poly_10</styleUrl>
  <MultiGeometry>
    <Polygon>
      <outerBoundaryIs>
        <LinearRing>
          <coordinates>
-124.65,50.87,2000 -124.59,50.88,2000 -124.54,50.89,2000 -124.48,50.90,2000 -124.43,50.91,2000 -124.37,50.92,2000 -124.32,50.93,2000 -124.26,50.94,2000 -124.21,50.95,2000 -124.15,50.96,2000 -124.09,50.97,2000 -124.04,50.98,2000 -123.98,50.99,2000 -123.92,51.00,2000 -123.86,51.01,2000 -123.81,51.02,2000 -123.75,51.02,2000 -123.69,51.03,2000 -123.64,51.03,2000 -123.58,51.03,2000 -123.51,51.03,2000 -123.45,51.03,2000 -123.39,51.02,2000 -123.33,51.02,2000 -123.27,51.01,2000 -123.22,51.00,2000 -123.18,50.99,2000 -123.12,50.97,2000 -123.08,50.94,2000 -123.04,50.91,2000 -123.02,50.88,2000 -123.00,50.85,2000 -123.00,50.82,2000 -123.01,50.79,2000 -123.03,50.75,2000 -123.05,50.72,2000 -123.05,50.67,2000 -123.04,50.64,2000 -123.03,50.61,2000 -123.02,50.57,2000 -123.00,50.53,2000 -122.99,50.50,2000 -122.97,50.46,2000 -122.96,50.42,2000 -122.95,50.38,2000 -122.95,50.35,2000 -122.95,50.31,2000 -122.96,50.28,2000 -122.97,50.24,2000 -122.99,50.20,2000 -123.01,50.17,2000 -123.03,50.14,2000 -123.05,50.11,2000 -123.07,50.09,2000 -123.11,50.06,2000 -123.15,50.05,2000 -123.20,50.04,2000 -123.25,50.03,2000 -123.30,50.03,2000 -123.35,50.03,2000 -123.41,50.03,2000 -123.46,50.03,2000 -123.52,50.03,2000 -123.58,50.04,2000 -123.63,50.05,2000 -123.68,50.06,2000 -123.72,50.08,2000 -123.77,50.10,2000 -123.82,50.11,2000 -123.87,50.13,2000 -123.92,50.15,2000 -123.97,50.16,2000 -124.02,50.18,2000 -124.07,50.20,2000 -124.12,50.22,2000 -124.17,50.24,2000 -124.21,50.26,2000 -124.26,50.28,2000 -124.30,50.31,2000 -124.35,50.33,2000 -124.39,50.36,2000 -124.44,50.38,2000 -124.48,50.40,2000 -124.53,50.42,2000 -124.58,50.44,2000 -124.63,50.46,2000 -124.68,50.48,2000 -124.72,50.49,2000 -124.76,50.51,2000 -124.79,50.53,2000 -124.82,50.56,2000 -124.84,50.59,2000 -124.84,50.63,2000 -124.84,50.66,2000 -124.65,50.87,2000 
          </coordinates>
        </LinearRing>
      </outerBoundaryIs>
      <innerBoundaryIs>
        <LinearRing>
          <coordinates>
-124.38,50.86,3000 -124.34,50.86,3000 -124.30,50.87,3000 -124.25,50.87,3000 -124.21,50.88,3000 -124.17,50.88,3000 -124.13,50.89,3000 -124.09,50.90,3000 -124.05,50.90,3000 -124.01,50.91,3000 -123.96,50.92,3000 -123.92,50.92,3000 -123.88,50.93,3000 -123.84,50.94,3000 -123.79,50.94,3000 -123.75,50.95,3000 -123.70,50.95,3000 -123.66,50.96,3000 -123.62,50.96,3000 -123.57,50.96,3000 -123.52,50.96,3000 -123.48,50.96,3000 -123.44,50.96,3000 -123.41,50.96,3000 -123.39,50.96,3000 -123.36,50.95,3000 -123.33,50.94,3000 -123.29,50.92,3000 -123.24,50.90,3000 -123.19,50.88,3000 -123.15,50.85,3000 -123.13,50.83,3000 -123.12,50.80,3000 -123.13,50.77,3000 -123.15,50.74,3000 -123.16,50.71,3000 -123.18,50.68,3000 -123.19,50.65,3000 -123.19,50.62,3000 -123.20,50.60,3000 -123.20,50.57,3000 -123.19,50.54,3000 -123.19,50.52,3000 -123.18,50.49,3000 -123.17,50.46,3000 -123.15,50.43,3000 -123.13,50.41,3000 -123.11,50.38,3000 -123.09,50.35,3000 -123.08,50.33,3000 -123.08,50.30,3000 -123.09,50.28,3000 -123.12,50.25,3000 -123.15,50.23,3000 -123.18,50.21,3000 -123.22,50.19,3000 -123.26,50.17,3000 -123.31,50.15,3000 -123.35,50.14,3000 -123.39,50.13,3000 -123.43,50.13,3000 -123.48,50.13,3000 -123.52,50.13,3000 -123.56,50.13,3000 -123.61,50.14,3000 -123.65,50.15,3000 -123.70,50.16,3000 -123.75,50.17,3000 -123.79,50.19,3000 -123.84,50.20,3000 -123.87,50.21,3000 -123.90,50.22,3000 -123.91,50.22,3000 -123.93,50.23,3000 -123.97,50.25,3000 -124.01,50.26,3000 -124.05,50.28,3000 -124.10,50.30,3000 -124.14,50.32,3000 -124.18,50.34,3000 -124.20,50.35,3000 -124.21,50.36,3000 -124.24,50.37,3000 -124.28,50.39,3000 -124.33,50.41,3000 -124.38,50.42,3000 -124.43,50.44,3000 -124.47,50.46,3000 -124.50,50.47,3000 -124.51,50.48,3000 -124.53,50.49,3000 -124.57,50.51,3000 -124.61,50.53,3000 -124.65,50.55,3000 -124.69,50.57,3000 -124.72,50.59,3000 -124.74,50.61,3000 -124.74,50.64,3000 -124.72,50.67,3000 -124.70,50.70,3000 -124.67,50.73,3000 -124.64,50.76,3000 -124.62,50.78,3000 -124.59,50.80,3000 -124.57,50.80,3000 -124.38,50.86,3000 
          </coordinates>
        </LinearRing>
      </innerBoundaryIs>
  </Polygon>
 </MultiGeometry>
</Placemark>
<Placemark>
  <name>20%</name>
  <visibility>1</visibility>
  <styleUrl>#poly_20</styleUrl>
  <MultiGeometry>
    <Polygon>
      <outerBoundaryIs>
        <LinearRing>
          <coordinates>
-124.38,50.86,3000 -124.34,50.86,3000 -124.30,50.87,3000 -124.25,50.87,3000 -124.21,50.88,3000 -124.17,50.88,3000 -124.13,50.89,3000 -124.09,50.90,3000 -124.05,50.90,3000 -124.01,50.91,3000 -123.96,50.92,3000 -123.92,50.92,3000 -123.88,50.93,3000 -123.84,50.94,3000 -123.79,50.94,3000 -123.75,50.95,3000 -123.70,50.95,3000 -123.66,50.96,3000 -123.62,50.96,3000 -123.57,50.96,3000 -123.52,50.96,3000 -123.48,50.96,3000 -123.44,50.96,3000 -123.41,50.96,3000 -123.39,50.96,3000 -123.36,50.95,3000 -123.33,50.94,3000 -123.29,50.92,3000 -123.24,50.90,3000 -123.19,50.88,3000 -123.15,50.85,3000 -123.13,50.83,3000 -123.12,50.80,3000 -123.13,50.77,3000 -123.15,50.74,3000 -123.16,50.71,3000 -123.18,50.68,3000 -123.19,50.65,3000 -123.19,50.62,3000 -123.20,50.60,3000 -123.20,50.57,3000 -123.19,50.54,3000 -123.19,50.52,3000 -123.18,50.49,3000 -123.17,50.46,3000 -123.15,50.43,3000 -123.13,50.41,3000 -123.11,50.38,3000 -123.09,50.35,3000 -123.08,50.33,3000 -123.08,50.30,3000 -123.09,50.28,3000 -123.12,50.25,3000 -123.15,50.23,3000 -123.18,50.21,3000 -123.22,50.19,3000 -123.26,50.17,3000 -123.31,50.15,3000 -123.35,50.14,3000 -123.39,50.13,3000 -123.43,50.13,3000 -123.48,50.13,3000 -123.52,50.13,3000 -123.56,50.13,3000 -123.61,50.14,3000 -123.65,50.15,3000 -123.70,50.16,3000 -123.75,50.17,3000 -123.79,50.19,3000 -123.84,50.20,3000 -123.87,50.21,3000 -123.90,50.22,3000 -123.91,50.22,3000 -123.93,50.23,3000 -123.97,50.25,3000 -124.01,50.26,3000 -124.05,50.28,3000 -124.10,50.30,3000 -124.14,50.32,3000 -124.18,50.34,3000 -124.20,50.35,3000 -124.21,50.36,3000 -124.24,50.37,3000 -124.28,50.39,3000 -124.33,50.41,3000 -124.38,50.42,3000 -124.43,50.44,3000 -124.47,50.46,3000 -124.50,50.47,3000 -124.51,50.48,3000 -124.53,50.49,3000 -124.57,50.51,3000 -124.61,50.53,3000 -124.65,50.55,3000 -124.69,50.57,3000 -124.72,50.59,3000 -124.74,50.61,3000 -124.74,50.64,3000 -124.72,50.67,3000 -124.70,50.70,3000 -124.67,50.73,3000 -124.64,50.76,3000 -124.62,50.78,3000 -124.59,50.80,3000 -124.57,50.80,3000 -124.38,50.86,3000 
          </coordinates>
        </LinearRing>
      </outerBoundaryIs>
      <innerBoundaryIs>
        <LinearRing>
          <coordinates>
-124.59,50.70,4000 -124.56,50.72,4000 -124.53,50.73,4000 -124.49,50.75,4000 -124.46,50.76,4000 -124.43,50.78,4000 -124.39,50.79,4000 -124.36,50.80,4000 -124.32,50.81,4000 -124.28,50.82,4000 -124.24,50.82,4000 -124.19,50.83,4000 -124.15,50.83,4000 -124.11,50.84,4000 -124.07,50.85,4000 -124.03,50.85,4000 -123.99,50.86,4000 -123.94,50.87,4000 -123.90,50.87,4000 -123.86,50.88,4000 -123.82,50.88,4000 -123.79,50.89,4000 -123.75,50.89,4000 -123.71,50.90,4000 -123.68,50.90,4000 -123.64,50.90,4000 -123.60,50.90,4000 -123.56,50.90,4000 -123.52,50.90,4000 -123.48,50.89,4000 -123.43,50.89,4000 -123.40,50.88,4000 -123.36,50.88,4000 -123.33,50.87,4000 -123.29,50.86,4000 -123.26,50.84,4000 -123.24,50.83,4000 -123.23,50.81,4000 -123.23,50.79,4000 -123.24,50.76,4000 -123.26,50.73,4000 -123.27,50.71,4000 -123.28,50.69,4000 -123.29,50.67,4000 -123.29,50.64,4000 -123.29,50.62,4000 -123.28,50.59,4000 -123.28,50.57,4000 -123.27,50.54,4000 -123.27,50.51,4000 -123.26,50.48,4000 -123.25,50.45,4000 -123.23,50.43,4000 -123.22,50.40,4000 -123.20,50.37,4000 -123.20,50.34,4000 -123.20,50.32,4000 -123.21,50.30,4000 -123.24,50.27,4000 -123.27,50.25,4000 -123.30,50.23,4000 -123.33,50.21,4000 -123.37,50.20,4000 -123.40,50.19,4000 -123.44,50.19,4000 -123.48,50.19,4000 -123.52,50.19,4000 -123.56,50.19,4000 -123.60,50.20,4000 -123.63,50.20,4000 -123.67,50.21,4000 -123.71,50.22,4000 -123.74,50.23,4000 -123.77,50.24,4000 -123.80,50.24,4000 -123.84,50.25,4000 -123.87,50.25,4000 -123.91,50.26,4000 -123.94,50.27,4000 -123.97,50.28,4000 -124.00,50.30,4000 -124.04,50.32,4000 -124.07,50.33,4000 -124.10,50.35,4000 -124.13,50.36,4000 -124.16,50.38,4000 -124.18,50.39,4000 -124.20,50.41,4000 -124.23,50.42,4000 -124.26,50.43,4000 -124.29,50.45,4000 -124.33,50.46,4000 -124.37,50.48,4000 -124.40,50.49,4000 -124.43,50.51,4000 -124.46,50.52,4000 -124.49,50.54,4000 -124.52,50.56,4000 -124.54,50.57,4000 -124.58,50.59,4000 -124.61,50.61,4000 -124.64,50.62,4000 -124.59,50.70,4000 
          </coordinates>
        </LinearRing>
      </innerBoundaryIs>
  </Polygon>
 </MultiGeometry>
</Placemark>
<Placemark>
  <name>30%</name>
  <visibility>1</visibility>
  <styleUrl>#poly_30</styleUrl>
  <MultiGeometry>
    <Polygon>
      <outerBoundaryIs>
        <LinearRing>
          <coordinates>
-124.59,50.70,4000 -124.56,50.72,4000 -124.53,50.73,4000 -124.49,50.75,4000 -124.46,50.76,4000 -124.43,50.78,4000 -124.39,50.79,4000 -124.36,50.80,4000 -124.32,50.81,4000 -124.28,50.82,4000 -124.24,50.82,4000 -124.19,50.83,4000 -124.15,50.83,4000 -124.11,50.84,4000 -124.07,50.85,4000 -124.03,50.85,4000 -123.99,50.86,4000 -123.94,50.87,4000 -123.90,50.87,4000 -123.86,50.88,4000 -123.82,50.88,4000 -123.79,50.89,4000 -123.75,50.89,4000 -123.71,50.90,4000 -123.68,50.90,4000 -123.64,50.90,4000 -123.60,50.90,4000 -123.56,50.90,4000 -123.52,50.90,4000 -123.48,50.89,4000 -123.43,50.89,4000 -123.40,50.88,4000 -123.36,50.88,4000 -123.33,50.87,4000 -123.29,50.86,4000 -123.26,50.84,4000 -123.24,50.83,4000 -123.23,50.81,4000 -123.23,50.79,4000 -123.24,50.76,4000 -123.26,50.73,4000 -123.27,50.71,4000 -123.28,50.69,4000 -123.29,50.67,4000 -123.29,50.64,4000 -123.29,50.62,4000 -123.28,50.59,4000 -123.28,50.57,4000 -123.27,50.54,4000 -123.27,50.51,4000 -123.26,50.48,4000 -123.25,50.45,4000 -123.23,50.43,4000 -123.22,50.40,4000 -123.20,50.37,4000 -123.20,50.34,4000 -123.20,50.32,4000 -123.21,50.30,4000 -123.24,50.27,4000 -123.27,50.25,4000 -123.30,50.23,4000 -123.33,50.21,4000 -123.37,50.20,4000 -123.40,50.19,4000 -123.44,50.19,4000 -123.48,50.19,4000 -123.52,50.19,4000 -123.56,50.19,4000 -123.60,50.20,4000 -123.63,50.20,4000 -123.67,50.21,4000 -123.71,50.22,4000 -123.74,50.23,4000 -123.77,50.24,4000 -123.80,50.24,4000 -123.84,50.25,4000 -123.87,50.25,4000 -123.91,50.26,4000 -123.94,50.27,4000 -123.97,50.28,4000 -124.00,50.30,4000 -124.04,50.32,4000 -124.07,50.33,4000 -124.10,50.35,4000 -124.13,50.36,4000 -124.16,50.38,4000 -124.18,50.39,4000 -124.20,50.41,4000 -124.23,50.42,4000 -124.26,50.43,4000 -124.29,50.45,4000 -124.33,50.46,4000 -124.37,50.48,4000 -124.40,50.49,4000 -124.43,50.51,4000 -124.46,50.52,4000 -124.49,50.54,4000 -124.52,50.56,4000 -124.54,50.57,4000 -124.58,50.59,4000 -124.61,50.61,4000 -124.64,50.62,4000 -124.59,50.70,4000 
          </coordinates>
        </LinearRing>
      </outerBoundaryIs>
      <innerBoundaryIs>
        <LinearRing>
          <coordinates>
-124.34,50.75,5000 -124.31,50.76,5000 -124.28,50.77,5000 -124.25,50.77,5000 -124.22,50.78,5000 -124.19,50.79,5000 -124.16,50.80,5000 -124.13,50.80,5000 -124.10,50.81,5000 -124.07,50.82,5000 -124.04,50.82,5000 -124.01,50.82,5000 -123.98,50.83,5000 -123.94,50.83,5000 -123.91,50.83,5000 -123.88,50.84,5000 -123.85,50.84,5000 -123.82,50.84,5000 -123.79,50.85,5000 -123.75,50.85,5000 -123.72,50.85,5000 -123.69,50.85,5000 -123.65,50.85,5000 -123.62,50.85,5000 -123.59,50.85,5000 -123.56,50.85,5000 -123.52,50.84,5000 -123.48,50.84,5000 -123.45,50.84,5000 -123.41,50.83,5000 -123.38,50.82,5000 -123.36,50.81,5000 -123.34,50.80,5000 -123.33,50.78,5000 -123.33,50.77,5000 -123.33,50.74,5000 -123.34,50.72,5000 -123.35,50.70,5000 -123.36,50.67,5000 -123.37,50.65,5000 -123.37,50.63,5000 -123.37,50.61,5000 -123.37,50.59,5000 -123.36,50.57,5000 -123.36,50.55,5000 -123.35,50.53,5000 -123.35,50.51,5000 -123.34,50.49,5000 -123.34,50.47,5000 -123.34,50.45,5000 -123.33,50.43,5000 -123.33,50.40,5000 -123.33,50.38,5000 -123.33,50.35,5000 -123.33,50.33,5000 -123.33,50.32,5000 -123.33,50.30,5000 -123.34,50.28,5000 -123.36,50.27,5000 -123.39,50.26,5000 -123.42,50.26,5000 -123.45,50.26,5000 -123.50,50.26,5000 -123.54,50.26,5000 -123.57,50.26,5000 -123.60,50.26,5000 -123.62,50.26,5000 -123.65,50.26,5000 -123.67,50.26,5000 -123.70,50.27,5000 -123.73,50.27,5000 -123.77,50.28,5000 -123.80,50.28,5000 -123.84,50.29,5000 -123.87,50.30,5000 -123.90,50.30,5000 -123.93,50.31,5000 -123.96,50.32,5000 -123.99,50.33,5000 -124.01,50.34,5000 -124.03,50.35,5000 -124.06,50.37,5000 -124.08,50.38,5000 -124.11,50.40,5000 -124.13,50.41,5000 -124.16,50.43,5000 -124.19,50.44,5000 -124.21,50.46,5000 -124.23,50.47,5000 -124.25,50.48,5000 -124.27,50.49,5000 -124.30,50.50,5000 -124.32,50.51,5000 -124.34,50.52,5000 -124.36,50.54,5000 -124.38,50.55,5000 -124.41,50.57,5000 -124.44,50.58,5000 -124.47,50.60,5000 -124.50,50.62,5000 -124.53,50.64,5000 -124.34,50.75,5000 
          </coordinates>
        </LinearRing>
      </innerBoundaryIs>
  </Polygon>
 </MultiGeometry>
</Placemark>
<Placemark>
  <name>40%</name>
  <visibility>1</visibility>
  <styleUrl>#poly_40</styleUrl>
  <MultiGeometry>
    <Polygon>
      <outerBoundaryIs>
        <LinearRing>
          <coordinates>
-124.34,50.75,5000 -124.31,50.76,5000 -124.28,50.77,5000 -124.25,50.77,5000 -124.22,50.78,5000 -124.19,50.79,5000 -124.16,50.80,5000 -124.13,50.80,5000 -124.10,50.81,5000 -124.07,50.82,5000 -124.04,50.82,5000 -124.01,50.82,5000 -123.98,50.83,5000 -123.94,50.83,5000 -123.91,50.83,5000 -123.88,50.84,5000 -123.85,50.84,5000 -123.82,50.84,5000 -123.79,50.85,5000 -123.75,50.85,5000 -123.72,50.85,5000 -123.69,50.85,5000 -123.65,50.85,5000 -123.62,50.85,5000 -123.59,50.85,5000 -123.56,50.85,5000 -123.52,50.84,5000 -123.48,50.84,5000 -123.45,50.84,5000 -123.41,50.83,5000 -123.38,50.82,5000 -123.36,50.81,5000 -123.34,50.80,5000 -123.33,50.78,5000 -123.33,50.77,5000 -123.33,50.74,5000 -123.34,50.72,5000 -123.35,50.70,5000 -123.36,50.67,5000 -123.37,50.65,5000 -123.37,50.63,5000 -123.37,50.61,5000 -123.37,50.59,5000 -123.36,50.57,5000 -123.36,50.55,5000 -123.35,50.53,5000 -123.35,50.51,5000 -123.34,50.49,5000 -123.34,50.47,5000 -123.34,50.45,5000 -123.33,50.43,5000 -123.33,50.40,5000 -123.33,50.38,5000 -123.33,50.35,5000 -123.33,50.33,5000 -123.33,50.32,5000 -123.33,50.30,5000 -123.34,50.28,5000 -123.36,50.27,5000 -123.39,50.26,5000 -123.42,50.26,5000 -123.45,50.26,5000 -123.50,50.26,5000 -123.54,50.26,5000 -123.57,50.26,5000 -123.60,50.26,5000 -123.62,50.26,5000 -123.65,50.26,5000 -123.67,50.26,5000 -123.70,50.27,5000 -123.73,50.27,5000 -123.77,50.28,5000 -123.80,50.28,5000 -123.84,50.29,5000 -123.87,50.30,5000 -123.90,50.30,5000 -123.93,50.31,5000 -123.96,50.32,5000 -123.99,50.33,5000 -124.01,50.34,5000 -124.03,50.35,5000 -124.06,50.37,5000 -124.08,50.38,5000 -124.11,50.40,5000 -124.13,50.41,5000 -124.16,50.43,5000 -124.19,50.44,5000 -124.21,50.46,5000 -124.23,50.47,5000 -124.25,50.48,5000 -124.27,50.49,5000 -124.30,50.50,5000 -124.32,50.51,5000 -124.34,50.52,5000 -124.36,50.54,5000 -124.38,50.55,5000 -124.41,50.57,5000 -124.44,50.58,5000 -124.47,50.60,5000 -124.50,50.62,5000 -124.53,50.64,5000 -124.34,50.75,5000 
          </coordinates>
        </LinearRing>
      </outerBoundaryIs>
      <innerBoundaryIs>
        <LinearRing>
          <coordinates>
-124.32,50.70,6000 -124.30,50.71,6000 -124.27,50.72,6000 -124.25,50.73,6000 -124.22,50.73,6000 -124.20,50.74,6000 -124.17,50.75,6000 -124.14,50.76,6000 -124.12,50.76,6000 -124.09,50.77,6000 -124.06,50.78,6000 -124.03,50.78,6000 -124.01,50.78,6000 -123.98,50.79,6000 -123.95,50.79,6000 -123.92,50.79,6000 -123.89,50.80,6000 -123.86,50.80,6000 -123.83,50.80,6000 -123.80,50.80,6000 -123.77,50.80,6000 -123.74,50.80,6000 -123.71,50.80,6000 -123.67,50.80,6000 -123.64,50.80,6000 -123.62,50.80,6000 -123.59,50.80,6000 -123.57,50.80,6000 -123.53,50.80,6000 -123.50,50.80,6000 -123.49,50.80,6000 -123.47,50.78,6000 -123.46,50.77,6000 -123.46,50.75,6000 -123.46,50.74,6000 -123.46,50.72,6000 -123.46,50.70,6000 -123.46,50.68,6000 -123.45,50.66,6000 -123.45,50.64,6000 -123.45,50.62,6000 -123.45,50.60,6000 -123.44,50.58,6000 -123.44,50.56,6000 -123.43,50.55,6000 -123.43,50.53,6000 -123.42,50.51,6000 -123.42,50.49,6000 -123.41,50.47,6000 -123.41,50.46,6000 -123.40,50.44,6000 -123.40,50.42,6000 -123.40,50.40,6000 -123.40,50.38,6000 -123.42,50.37,6000 -123.44,50.36,6000 -123.45,50.35,6000 -123.48,50.35,6000 -123.50,50.34,6000 -123.53,50.33,6000 -123.56,50.33,6000 -123.59,50.32,6000 -123.61,50.32,6000 -123.64,50.31,6000 -123.67,50.31,6000 -123.70,50.31,6000 -123.73,50.31,6000 -123.76,50.31,6000 -123.79,50.32,6000 -123.82,50.32,6000 -123.85,50.33,6000 -123.87,50.34,6000 -123.90,50.34,6000 -123.92,50.35,6000 -123.94,50.35,6000 -123.97,50.36,6000 -123.98,50.36,6000 -124.00,50.38,6000 -124.01,50.39,6000 -124.03,50.40,6000 -124.05,50.41,6000 -124.07,50.42,6000 -124.10,50.44,6000 -124.12,50.45,6000 -124.14,50.46,6000 -124.17,50.48,6000 -124.19,50.49,6000 -124.20,50.50,6000 -124.22,50.51,6000 -124.24,50.53,6000 -124.26,50.55,6000 -124.27,50.56,6000 -124.28,50.58,6000 -124.29,50.59,6000 -124.31,50.60,6000 -124.32,50.61,6000 -124.34,50.63,6000 -124.36,50.64,6000 -124.38,50.65,6000 -124.40,50.66,6000 -124.32,50.70,6000 
          </coordinates>
        </LinearRing>
      </innerBoundaryIs>
  </Polygon>
 </MultiGeometry>
</Placemark>
<Placemark>
  <name>50%</name>
  <visibility>1</visibility>
  <styleUrl>#poly_50</styleUrl>
  <MultiGeometry>
    <Polygon>
      <outerBoundaryIs>
        <LinearRing>
          <coordinates>
-124.32,50.70,6000 -124.30,50.71,6000 -124.27,50.72,6000 -124.25,50.73,6000 -124.22,50.73,6000 -124.20,50.74,6000 -124.17,50.75,6000 -124.14,50.76,6000 -124.12,50.76,6000 -124.09,50.77,6000 -124.06,50.78,6000 -124.03,50.78,6000 -124.01,50.78,6000 -123.98,50.79,6000 -123.95,50.79,6000 -123.92,50.79,6000 -123.89,50.80,6000 -123.86,50.80,6000 -123.83,50.80,6000 -123.80,50.80,6000 -123.77,50.80,6000 -123.74,50.80,6000 -123.71,50.80,6000 -123.67,50.80,6000 -123.64,50.80,6000 -123.62,50.80,6000 -123.59,50.80,6000 -123.57,50.80,6000 -123.53,50.80,6000 -123.50,50.80,6000 -123.49,50.80,6000 -123.47,50.78,6000 -123.46,50.77,6000 -123.46,50.75,6000 -123.46,50.74,6000 -123.46,50.72,6000 -123.46,50.70,6000 -123.46,50.68,6000 -123.45,50.66,6000 -123.45,50.64,6000 -123.45,50.62,6000 -123.45,50.60,6000 -123.44,50.58,6000 -123.44,50.56,6000 -123.43,50.55,6000 -123.43,50.53,6000 -123.42,50.51,6000 -123.42,50.49,6000 -123.41,50.47,6000 -123.41,50.46,6000 -123.40,50.44,6000 -123.40,50.42,6000 -123.40,50.40,6000 -123.40,50.38,6000 -123.42,50.37,6000 -123.44,50.36,6000 -123.45,50.35,6000 -123.48,50.35,6000 -123.50,50.34,6000 -123.53,50.33,6000 -123.56,50.33,6000 -123.59,50.32,6000 -123.61,50.32,6000 -123.64,50.31,6000 -123.67,50.31,6000 -123.70,50.31,6000 -123.73,50.31,6000 -123.76,50.31,6000 -123.79,50.32,6000 -123.82,50.32,6000 -123.85,50.33,6000 -123.87,50.34,6000 -123.90,50.34,6000 -123.92,50.35,6000 -123.94,50.35,6000 -123.97,50.36,6000 -123.98,50.36,6000 -124.00,50.38,6000 -124.01,50.39,6000 -124.03,50.40,6000 -124.05,50.41,6000 -124.07,50.42,6000 -124.10,50.44,6000 -124.12,50.45,6000 -124.14,50.46,6000 -124.17,50.48,6000 -124.19,50.49,6000 -124.20,50.50,6000 -124.22,50.51,6000 -124.24,50.53,6000 -124.26,50.55,6000 -124.27,50.56,6000 -124.28,50.58,6000 -124.29,50.59,6000 -124.31,50.60,6000 -124.32,50.61,6000 -124.34,50.63,6000 -124.36,50.64,6000 -124.38,50.65,6000 -124.40,50.66,6000 -124.32,50.70,6000 
          </coordinates>
        </LinearRing>
      </outerBoundaryIs>
      <innerBoundaryIs>
        <LinearRing>
          <coordinates>
-124.07,50.73,7000 -124.05,50.73,7000 -124.02,50.74,7000 -124.00,50.74,7000 -123.97,50.75,7000 -123.95,50.75,7000 -123.93,50.76,7000 -123.91,50.76,7000 -123.88,50.76,7000 -123.86,50.77,7000 -123.84,50.77,7000 -123.82,50.77,7000 -123.79,50.77,7000 -123.77,50.77,7000 -123.74,50.78,7000 -123.72,50.78,7000 -123.69,50.78,7000 -123.67,50.77,7000 -123.65,50.77,7000 -123.63,50.76,7000 -123.62,50.75,7000 -123.61,50.74,7000 -123.59,50.73,7000 -123.58,50.72,7000 -123.57,50.70,7000 -123.56,50.69,7000 -123.56,50.67,7000 -123.55,50.66,7000 -123.54,50.64,7000 -123.54,50.62,7000 -123.53,50.61,7000 -123.53,50.59,7000 -123.52,50.58,7000 -123.52,50.56,7000 -123.51,50.55,7000 -123.51,50.53,7000 -123.51,50.51,7000 -123.51,50.50,7000 -123.51,50.48,7000 -123.51,50.47,7000 -123.51,50.45,7000 -123.52,50.44,7000 -123.53,50.43,7000 -123.54,50.41,7000 -123.56,50.40,7000 -123.58,50.39,7000 -123.60,50.38,7000 -123.62,50.37,7000 -123.64,50.36,7000 -123.66,50.35,7000 -123.68,50.35,7000 -123.70,50.35,7000 -123.72,50.35,7000 -123.75,50.35,7000 -123.77,50.36,7000 -123.80,50.36,7000 -123.82,50.37,7000 -123.84,50.38,7000 -123.87,50.38,7000 -123.88,50.39,7000 -123.90,50.39,7000 -123.93,50.39,7000 -123.94,50.39,7000 -123.96,50.40,7000 -123.97,50.41,7000 -123.99,50.41,7000 -124.01,50.42,7000 -124.02,50.43,7000 -124.04,50.44,7000 -124.06,50.46,7000 -124.08,50.47,7000 -124.10,50.48,7000 -124.12,50.49,7000 -124.14,50.51,7000 -124.15,50.52,7000 -124.16,50.53,7000 -124.17,50.55,7000 -124.18,50.56,7000 -124.19,50.57,7000 -124.20,50.59,7000 -124.21,50.60,7000 -124.22,50.62,7000 -124.22,50.63,7000 -124.23,50.65,7000 -124.23,50.66,7000 -124.24,50.68,7000 -124.07,50.73,7000 
          </coordinates>
        </LinearRing>
      </innerBoundaryIs>
  </Polygon>
 </MultiGeometry>
</Placemark>
<Placemark>
  <name>60%</name>
  <visibility>1</visibility>
  <styleUrl>#poly_60</styleUrl>
  <MultiGeometry>
    <Polygon>
      <outerBoundaryIs>
        <LinearRing>
          <coordinates>
-124.07,50.73,7000 -124.05,50.73,7000 -124.02,50.74,7000 -124.00,50.74,7000 -123.97,50.75,7000 -123.95,50.75,7000 -123.93,50.76,7000 -123.91,50.76,7000 -123.88,50.76,7000 -123.86,50.77,7000 -123.84,50.77,7000 -123.82,50.77,7000 -123.79,50.77,7000 -123.77,50.77,7000 -123.74,50.78,7000 -123.72,50.78,7000 -123.69,50.78,7000 -123.67,50.77,7000 -123.65,50.77,7000 -123.63,50.76,7000 -123.62,50.75,7000 -123.61,50.74,7000 -123.59,50.73,7000 -123.58,50.72,7000 -123.57,50.70,7000 -123.56,50.69,7000 -123.56,50.67,7000 -123.55,50.66,7000 -123.54,50.64,7000 -123.54,50.62,7000 -123.53,50.61,7000 -123.53,50.59,7000 -123.52,50.58,7000 -123.52,50.56,7000 -123.51,50.55,7000 -123.51,50.53,7000 -123.51,50.51,7000 -123.51,50.50,7000 -123.51,50.48,7000 -123.51,50.47,7000 -123.51,50.45,7000 -123.52,50.44,7000 -123.53,50.43,7000 -123.54,50.41,7000 -123.56,50.40,7000 -123.58,50.39,7000 -123.60,50.38,7000 -123.62,50.37,7000 -123.64,50.36,7000 -123.66,50.35,7000 -123.68,50.35,7000 -123.70,50.35,7000 -123.72,50.35,7000 -123.75,50.35,7000 -123.77,50.36,7000 -123.80,50.36,7000 -123.82,50.37,7000 -123.84,50.38,7000 -123.87,50.38,7000 -123.88,50.39,7000 -123.90,50.39,7000 -123.93,50.39,7000 -123.94,50.39,7000 -123.96,50.40,7000 -123.97,50.41,7000 -123.99,50.41,7000 -124.01,50.42,7000 -124.02,50.43,7000 -124.04,50.44,7000 -124.06,50.46,7000 -124.08,50.47,7000 -124.10,50.48,7000 -124.12,50.49,7000 -124.14,50.51,7000 -124.15,50.52,7000 -124.16,50.53,7000 -124.17,50.55,7000 -124.18,50.56,7000 -124.19,50.57,7000 -124.20,50.59,7000 -124.21,50.60,7000 -124.22,50.62,7000 -124.22,50.63,7000 -124.23,50.65,7000 -124.23,50.66,7000 -124.24,50.68,7000 -124.07,50.73,7000 
          </coordinates>
        </LinearRing>
      </outerBoundaryIs>
      <innerBoundaryIs>
        <LinearRing>
          <coordinates>
-124.06,50.69,8000 -124.04,50.70,8000 -124.02,50.70,8000 -124.00,50.71,8000 -123.98,50.71,8000 -123.97,50.72,8000 -123.95,50.72,8000 -123.93,50.73,8000 -123.91,50.73,8000 -123.89,50.73,8000 -123.88,50.73,8000 -123.86,50.73,8000 -123.84,50.73,8000 -123.83,50.73,8000 -123.81,50.73,8000 -123.80,50.73,8000 -123.78,50.72,8000 -123.76,50.72,8000 -123.75,50.71,8000 -123.73,50.70,8000 -123.72,50.69,8000 -123.70,50.68,8000 -123.69,50.67,8000 -123.68,50.66,8000 -123.66,50.65,8000 -123.65,50.64,8000 -123.64,50.63,8000 -123.63,50.62,8000 -123.63,50.61,8000 -123.62,50.60,8000 -123.62,50.59,8000 -123.61,50.58,8000 -123.61,50.56,8000 -123.61,50.55,8000 -123.61,50.54,8000 -123.62,50.52,8000 -123.62,50.51,8000 -123.62,50.50,8000 -123.63,50.48,8000 -123.63,50.47,8000 -123.63,50.46,8000 -123.64,50.45,8000 -123.64,50.44,8000 -123.65,50.43,8000 -123.65,50.42,8000 -123.66,50.40,8000 -123.67,50.40,8000 -123.69,50.40,8000 -123.70,50.40,8000 -123.71,50.40,8000 -123.72,50.40,8000 -123.73,50.40,8000 -123.76,50.41,8000 -123.77,50.41,8000 -123.79,50.42,8000 -123.80,50.42,8000 -123.82,50.42,8000 -123.84,50.43,8000 -123.86,50.43,8000 -123.88,50.44,8000 -123.90,50.44,8000 -123.92,50.45,8000 -123.93,50.46,8000 -123.95,50.46,8000 -123.97,50.47,8000 -123.98,50.47,8000 -124.00,50.48,8000 -124.01,50.48,8000 -124.03,50.49,8000 -124.04,50.50,8000 -124.05,50.51,8000 -124.06,50.51,8000 -124.07,50.52,8000 -124.08,50.53,8000 -124.06,50.69,8000 
          </coordinates>
        </LinearRing>
      </innerBoundaryIs>
  </Polygon>
 </MultiGeometry>
</Placemark>
<Placemark>
  <name>70%</name>
  <visibility>1</visibility>
  <styleUrl>#poly_70</styleUrl>
  <MultiGeometry>
    <Polygon>
      <outerBoundaryIs>
        <LinearRing>
          <coordinates>
-124.06,50.69,8000 -124.04,50.70,8000 -124.02,50.70,8000 -124.00,50.71,8000 -123.98,50.71,8000 -123.97,50.72,8000 -123.95,50.72,8000 -123.93,50.73,8000 -123.91,50.73,8000 -123.89,50.73,8000 -123.88,50.73,8000 -123.86,50.73,8000 -123.84,50.73,8000 -123.83,50.73,8000 -123.81,50.73,8000 -123.80,50.73,8000 -123.78,50.72,8000 -123.76,50.72,8000 -123.75,50.71,8000 -123.73,50.70,8000 -123.72,50.69,8000 -123.70,50.68,8000 -123.69,50.67,8000 -123.68,50.66,8000 -123.66,50.65,8000 -123.65,50.64,8000 -123.64,50.63,8000 -123.63,50.62,8000 -123.63,50.61,8000 -123.62,50.60,8000 -123.62,50.59,8000 -123.61,50.58,8000 -123.61,50.56,8000 -123.61,50.55,8000 -123.61,50.54,8000 -123.62,50.52,8000 -123.62,50.51,8000 -123.62,50.50,8000 -123.63,50.48,8000 -123.63,50.47,8000 -123.63,50.46,8000 -123.64,50.45,8000 -123.64,50.44,8000 -123.65,50.43,8000 -123.65,50.42,8000 -123.66,50.40,8000 -123.67,50.40,8000 -123.69,50.40,8000 -123.70,50.40,8000 -123.71,50.40,8000 -123.72,50.40,8000 -123.73,50.40,8000 -123.76,50.41,8000 -123.77,50.41,8000 -123.79,50.42,8000 -123.80,50.42,8000 -123.82,50.42,8000 -123.84,50.43,8000 -123.86,50.43,8000 -123.88,50.44,8000 -123.90,50.44,8000 -123.92,50.45,8000 -123.93,50.46,8000 -123.95,50.46,8000 -123.97,50.47,8000 -123.98,50.47,8000 -124.00,50.48,8000 -124.01,50.48,8000 -124.03,50.49,8000 -124.04,50.50,8000 -124.05,50.51,8000 -124.06,50.51,8000 -124.07,50.52,8000 -124.08,50.53,8000 -124.06,50.69,8000 
          </coordinates>
        </LinearRing>
      </outerBoundaryIs>
      <innerBoundaryIs>
        <LinearRing>
          <coordinates>
-124.01,50.56,9000 -124.00,50.56,9000 -123.99,50.57,9000 -123.98,50.57,9000 -123.97,50.58,9000 -123.96,50.58,9000 -123.95,50.58,9000 -123.94,50.59,9000 -123.93,50.59,9000 -123.93,50.60,9000 -123.92,50.60,9000 -123.91,50.60,9000 -123.90,50.61,9000 -123.89,50.61,9000 -123.88,50.61,9000 -123.87,50.62,9000 -123.86,50.62,9000 -123.86,50.62,9000 -123.85,50.62,9000 -123.84,50.63,9000 -123.83,50.63,9000 -123.83,50.63,9000 -123.82,50.63,9000 -123.81,50.63,9000 -123.80,50.64,9000 -123.80,50.64,9000 -123.79,50.64,9000 -123.79,50.64,9000 -123.78,50.64,9000 -123.77,50.64,9000 -123.76,50.64,9000 -123.75,50.64,9000 -123.74,50.63,9000 -123.73,50.63,9000 -123.72,50.63,9000 -123.72,50.62,9000 -123.71,50.62,9000 -123.71,50.61,9000 -123.71,50.60,9000 -123.70,50.60,9000 -123.70,50.59,9000 -123.70,50.59,9000 -123.70,50.58,9000 -123.70,50.57,9000 -123.69,50.57,9000 -123.69,50.56,9000 -123.69,50.55,9000 -123.69,50.55,9000 -123.69,50.54,9000 -123.69,50.53,9000 -123.70,50.52,9000 -123.70,50.52,9000 -123.70,50.51,9000 -123.70,50.50,9000 -123.71,50.50,9000 -123.71,50.50,9000 -123.72,50.49,9000 -123.73,50.49,9000 -123.74,50.49,9000 -123.74,50.49,9000 -123.75,50.49,9000 -123.76,50.49,9000 -123.77,50.49,9000 -123.77,50.49,9000 -123.78,50.49,9000 -123.79,50.49,9000 -123.80,50.49,9000 -123.82,50.49,9000 -123.83,50.50,9000 -123.84,50.50,9000 -123.85,50.50,9000 -123.86,50.50,9000 -123.87,50.50,9000 -123.88,50.51,9000 -123.89,50.51,9000 -123.91,50.51,9000 -123.92,50.51,9000 -123.93,50.52,9000 -123.94,50.52,9000 -123.95,50.52,9000 -123.96,50.52,9000 -123.97,50.52,9000 -123.97,50.52,9000 -123.98,50.53,9000 -123.99,50.53,9000 -123.99,50.53,9000 -124.00,50.53,9000 -124.03,50.54,9000 -124.03,50.54,9000 -124.02,50.54,9000 -124.01,50.56,9000 
          </coordinates>
        </LinearRing>
      </innerBoundaryIs>
  </Polygon>
 </MultiGeometry>
</Placemark>
<Placemark>
  <name>80%</name>
  <visibility>1</visibility>
  <styleUrl>#poly_80</styleUrl>
  <MultiGeometry>
    <Polygon>
      <outerBoundaryIs>
        <LinearRing>
          <coordinates>
-124.01,50.56,9000 -124.00,50.56,9000 -123.99,50.57,9000 -123.98,50.57,9000 -123.97,50.58,9000 -123.96,50.58,9000 -123.95,50.58,9000 -123.94,50.59,9000 -123.93,50.59,9000 -123.93,50.60,9000 -123.92,50.60,9000 -123.91,50.60,9000 -123.90,50.61,9000 -123.89,50.61,9000 -123.88,50.61,9000 -123.87,50.62,9000 -123.86,50.62,9000 -123.86,50.62,9000 -123.85,50.62,9000 -123.84,50.63,9000 -123.83,50.63,9000 -123.83,50.63,9000 -123.82,50.63,9000 -123.81,50.63,9000 -123.80,50.64,9000 -123.80,50.64,9000 -123.79,50.64,9000 -123.79,50.64,9000 -123.78,50.64,9000 -123.77,50.64,9000 -123.76,50.64,9000 -123.75,50.64,9000 -123.74,50.63,9000 -123.73,50.63,9000 -123.72,50.63,9000 -123.72,50.62,9000 -123.71,50.62,9000 -123.71,50.61,9000 -123.71,50.60,9000 -123.70,50.60,9000 -123.70,50.59,9000 -123.70,50.59,9000 -123.70,50.58,9000 -123.70,50.57,9000 -123.69,50.57,9000 -123.69,50.56,9000 -123.69,50.55,9000 -123.69,50.55,9000 -123.69,50.54,9000 -123.69,50.53,9000 -123.70,50.52,9000 -123.70,50.52,9000 -123.70,50.51,9000 -123.70,50.50,9000 -123.71,50.50,9000 -123.71,50.50,9000 -123.72,50.49,9000 -123.73,50.49,9000 -123.74,50.49,9000 -123.74,50.49,9000 -123.75,50.49,9000 -123.76,50.49,9000 -123.77,50.49,9000 -123.77,50.49,9000 -123.78,50.49,9000 -123.79,50.49,9000 -123.80,50.49,9000 -123.82,50.49,9000 -123.83,50.50,9000 -123.84,50.50,9000 -123.85,50.50,9000 -123.86,50.50,9000 -123.87,50.50,9000 -123.88,50.51,9000 -123.89,50.51,9000 -123.91,50.51,9000 -123.92,50.51,9000 -123.93,50.52,9000 -123.94,50.52,9000 -123.95,50.52,9000 -123.96,50.52,9000 -123.97,50.52,9000 -123.97,50.52,9000 -123.98,50.53,9000 -123.99,50.53,9000 -123.99,50.53,9000 -124.00,50.53,9000 -124.03,50.54,9000 -124.03,50.54,9000 -124.02,50.54,9000 -124.01,50.56,9000 
          </coordinates>
        </LinearRing>
      </outerBoundaryIs>
  </Polygon>
 </MultiGeometry>
</Placemark>
    </Folder>
  </Document>
</kml>
