<?xml version="1.0" encoding="UTF-8"?>
<kml xmlns="http://www.opengis.net/kml/2.2">
<Document id="prb_72hsnow_ge02_f072">
<name>WPC 72-Hr Prob of Snow > 2"</name>
  <open>1</open>
  <snippet>Valid 12Z 06/07/2026 - 12Z 06/10/2026</snippet>
  <description></description>
    <Style id="poly_1">
        <IconStyle>
           <color>00000000</color>
           <scale>1</scale>
        </IconStyle>
        <LabelStyle>
            <color>ff26478b</color>
            <scale>0.8</scale>
        </LabelStyle>
        <LineStyle>
            <color>6626478b</color>
            <width>0</width>
        </LineStyle>
	<PolyStyle>
            <color>6626478b</color>
	</PolyStyle>
        <BalloonStyle>
            <text>
                <![CDATA[ <table border=0 width="300"><tr><td style="font-size:10pt;">
                During this forecast period, there is a <b>1-5%</b> probability of snowfall exceeding the depicted amount in the enclosed area.
                <br/><br/>
                *<span style="font-size:8pt;">Note that in cases where this contour is embedded within a 5% contour, 
                the probability of snowfall exceeding the depicted amount is &lt;1%.</span>
                </td></tr></table>]]>
            </text>
        </BalloonStyle>
    </Style>

    <Style id="poly_5">
        <IconStyle>
           <color>00000000</color>
           <scale>1</scale>
        </IconStyle>
        <LabelStyle>
            <color>ff00eeee</color>
            <scale>0.8</scale>
        </LabelStyle>
        <LineStyle>
            <color>6600eeee</color>
            <width>0.4</width>
        </LineStyle>
	<PolyStyle>
	    <color>6600eeee</color>
	</PolyStyle>
        <BalloonStyle>
            <text>
                <![CDATA[ <table border=0 width="300"><tr><td style="font-size:10pt;">
                During this forecast period, there is a <b>5-10%</b> probability of snowfall exceeding the depicted amount in the enclosed area.
                <br/><br/>
                *<span style="font-size:8pt;">Note that in cases where this contour is embedded within a 10% contour, 
                the probability of snowfall exceeding the depicted amount is &lt;5%.</span>
                </td></tr></table>]]>
            </text>
        </BalloonStyle>
    </Style>

    <Style id="poly_10">
        <IconStyle>
           <color>00000000</color>
           <scale>1</scale>
        </IconStyle>
        <LabelStyle>
            <color>ff00ff7f</color>
            <scale>0.8</scale>
        </LabelStyle>
        <LineStyle>
            <color>6600ff7f</color>
            <width>0.4</width>
        </LineStyle>
	<PolyStyle>
	    <color>6600ff7f</color>
	</PolyStyle>
        <BalloonStyle>
            <text>
                <![CDATA[ <table border=0 width="300"><tr><td style="font-size:10pt;">
                During this forecast period, there is a <b>10-20%</b> probability of snowfall exceeding the depicted amount in the enclosed area.
                <br/><br/>
                *<span style="font-size:8pt;">Note that in cases where this contour is embedded within a 20% contour, 
                the probability of snowfall exceeding the depicted amount is &lt;10%.</span>
                </td></tr></table>]]>
            </text>
        </BalloonStyle>
    </Style>
    
    <Style id="poly_20">
        <IconStyle>
            <color>00000000</color>
            <scale>1</scale>
        </IconStyle>
        <LabelStyle>
            <color>ff00cd00</color>
            <scale>0.8</scale>
        </LabelStyle>
        <LineStyle>
            <color>6600cd00</color>
	    <width>0.4</width>
	</LineStyle>
	<PolyStyle>
	    <color>6600cd00</color>
	</PolyStyle>
        <BalloonStyle>
            <text>
                <![CDATA[ <table border=0 width="300"><tr><td style="font-size:10pt;">
                During this forecast period, there is a <b>20-30%</b> probability of snowfall exceeding the depicted amount in the enclosed area.
                <br/><br/>
                *<span style="font-size:8pt;">Note that in cases where this contour is embedded within a 30% contour, 
                the probability of snowfall exceeding the depicted amount is &lt;20%.</span>
                </td></tr></table>]]>
            </text>
        </BalloonStyle>
    </Style>

    <Style id="poly_30">
        <IconStyle>
            <color>00000000</color>
            <scale>1</scale>
        </IconStyle>
        <LabelStyle>
            <color>ff008b00</color>
            <scale>0.8</scale>
        </LabelStyle>
        <LineStyle>
            <color>66008b00</color>
	    <width>0.4</width>
	</LineStyle>
	<PolyStyle>
	    <color>66008b00</color>
	</PolyStyle>
        <BalloonStyle>
            <text>
                <![CDATA[ <table border=0 width="300"><tr><td style="font-size:10pt;">
                During this forecast period, there is a <b>30-40%</b> probability of snowfall exceeding the depicted amount in the enclosed area.
                <br/><br/>
                *<span style="font-size:8pt;">Note that in cases where this contour is embedded within a 40% contour, 
                the probability of snowfall exceeding the depicted amount is &lt;30%.</span>
                </td></tr></table>]]>
            </text>
        </BalloonStyle>
    </Style>

    <Style id="poly_40">
        <IconStyle>
            <color>00000000</color>
            <scale>1</scale>
        </IconStyle>
        <LabelStyle>
            <color>ff8b4e10</color>
            <scale>0.8</scale>
        </LabelStyle>
        <LineStyle>
            <color>668b4e10</color>
	    <width>0.4</width>
	</LineStyle>
	<PolyStyle>
	    <color>668b4e10</color>
	</PolyStyle>
        <BalloonStyle>
            <text>
                <![CDATA[ <table border=0 width="300"><tr><td style="font-size:10pt;">
                During this forecast period, there is a <b>40-50%</b> probability of snowfall exceeding the depicted amount in the enclosed area.
                <br/><br/>
                *<span style="font-size:8pt;">Note that in cases where this contour is embedded within a 50% contour, 
                the probability of snowfall exceeding the depicted amount is &lt;40%.</span>
                </td></tr></table>]]>
            </text>
        </BalloonStyle>
    </Style>

    <Style id="poly_50">
        <IconStyle>
            <color>00000000</color>
            <scale>1</scale>
        </IconStyle>
        <LabelStyle>
            <color>ffff901e</color>
            <scale>0.8</scale>
        </LabelStyle>
        <LineStyle>
            <color>66ff901e</color>
	    <width>0.4</width>
	</LineStyle>
	<PolyStyle>
	    <color>66ff901e</color>
	</PolyStyle>
        <BalloonStyle>
            <text>
                <![CDATA[ <table border=0 width="300"><tr><td style="font-size:10pt;">
                During this forecast period, there is a <b>50-60%</b> probability of snowfall exceeding the depicted amount in the enclosed area.
                <br/><br/>
                *<span style="font-size:8pt;">Note that in cases where this contour is embedded within a 60% contour, 
                the probability of snowfall exceeding the depicted amount is &lt;50%.</span>
                </td></tr></table>]]>
            </text>
        </BalloonStyle>
    </Style>

    <Style id="poly_60">
        <IconStyle>
            <color>00000000</color>
            <scale>1</scale>
        </IconStyle>
        <LabelStyle>
            <color>ffeeb200</color>
            <scale>0.8</scale>
        </LabelStyle>
        <LineStyle>
            <color>66eeb200</color>
	    <width>0.4</width>
	</LineStyle>
	<PolyStyle>
	    <color>66eeb200</color>
	</PolyStyle>
        <BalloonStyle>
            <text>
                <![CDATA[ <table border=0 width="300"><tr><td style="font-size:10pt;">
                During this forecast period, there is a <b>60-70%</b> probability of snowfall exceeding the depicted amount in the enclosed area.
                <br/><br/>
                *<span style="font-size:8pt;">Note that in cases where this contour is embedded within a 70% contour, 
                the probability of snowfall exceeding the depicted amount is &lt;60%.</span>
                </td></tr></table>]]>
            </text>
        </BalloonStyle>
    </Style>
    
    <Style id="poly_70">
        <IconStyle>
            <color>00000000</color>
            <scale>1</scale>
        </IconStyle>
        <LabelStyle>
            <color>ffeeee00</color>
            <scale>0.8</scale>
        </LabelStyle>
        <LineStyle>
            <color>66eeee00</color>
	    <width>0.4</width>
	</LineStyle>
	<PolyStyle>
	    <color>66eeee00</color>
	</PolyStyle>
        <BalloonStyle>
            <text>
                <![CDATA[ <table border=0 width="300"><tr><td style="font-size:10pt;">
                During this forecast period, there is a <b>70-80%</b> probability of snowfall exceeding the depicted amount in the enclosed area.
                <br/><br/>
                *<span style="font-size:8pt;">Note that in cases where this contour is embedded within a 80% contour, 
                the probability of snowfall exceeding the depicted amount is &lt;70%.</span>
                </td></tr></table>]]>
            </text>
        </BalloonStyle>
    </Style>

    <Style id="poly_80">
        <IconStyle>
            <color>00000000</color>
            <scale>1</scale>
        </IconStyle>
        <LabelStyle>
            <color>ff4782ff</color>
            <scale>0.8</scale>
        </LabelStyle>
        <LineStyle>
            <color>664782ff</color>
	    <width>0.4</width>
	</LineStyle>
	<PolyStyle>
	    <color>664782ff</color>
	</PolyStyle>
        <BalloonStyle>
            <text>
                <![CDATA[ <table border=0 width="300"><tr><td style="font-size:10pt;">
                During this forecast period, there is a <b>80-90%</b> probability of snowfall exceeding the depicted amount in the enclosed area.
                <br/><br/>
                *<span style="font-size:8pt;">Note that in cases where this contour is embedded within a 90% contour, 
                the probability of snowfall exceeding the depicted amount is &lt;80%.</span>
                </td></tr></table>]]>
            </text>
        </BalloonStyle>
    </Style>

    <Style id="poly_90">
        <IconStyle>
            <color>00000000</color>
            <scale>1</scale>
        </IconStyle>
        <LabelStyle>
            <color>ff2c2cee</color>
            <scale>0.8</scale>
        </LabelStyle>
        <LineStyle>
            <color>662c2cee</color>
            <width>0.4</width>
        </LineStyle>
        <PolyStyle>
            <color>662c2cee</color>
        </PolyStyle>
        <BalloonStyle>
            <text>
                <![CDATA[ <table border=0 width="300"><tr><td style="font-size:10pt;">
                During this forecast period, there is a <b>90-95%</b> probability of snowfall exceeding the depicted amount in the enclosed area.
                <br/><br/>
                *<span style="font-size:8pt;">Note that in cases where this contour is embedded within a 95% contour, 
                the probability of snowfall exceeding the depicted amount is &lt;90%.</span>
                </td></tr></table>]]>
            </text>
        </BalloonStyle>
    </Style>

    <Style id="poly_95">
        <IconStyle>
            <color>00000000</color>
            <scale>1</scale>
        </IconStyle>
        <LabelStyle>
            <color>ff00008b</color>
            <scale>0.8</scale>
        </LabelStyle>
        <LineStyle>
            <color>6600008b</color>
	    <width>0.4</width>
	</LineStyle>
	<PolyStyle>
	    <color>6600008b</color>
	</PolyStyle>
        <BalloonStyle>
            <text>
                <![CDATA[ <table border=0 width="300"><tr><td style="font-size:10pt;">
                The probability of snowfall exceeding the depicted amount is <b>&ge;95%</b> in the enclosed area during this forecast period.
                </td></tr></table>]]>
            </text>
        </BalloonStyle>
    </Style>

  <ScreenOverlay>
    <name>Logos</name>
    <description></description>
    <Icon>
      <href>https://www.wpc.ncep.noaa.gov/images/noaa_and_nws_logo.png</href>
    </Icon>
   <overlayXY x=".01" y=".01" xunits="fraction" yunits="fraction" />
   <screenXY x=".01" y=".01" xunits="fraction" yunits="fraction" />
   <rotationXY x="0" y="0" xunits="fraction" yunits="fraction" />
   <size x="-1" y="-1" xunits="fraction" yunits="fraction" />
  </ScreenOverlay>
    <Folder>
      <name>Snow Probabilities</name>
      <open>0</open>
<Placemark>
  <name>1%</name>
  <visibility>1</visibility>
  <styleUrl>#poly_1</styleUrl>
  <MultiGeometry>
    <Polygon>
      <outerBoundaryIs>
        <LinearRing>
          <coordinates>
-110.07,45.30,0 -110.05,45.31,0 -110.03,45.32,0 -110.01,45.33,0 -109.98,45.34,0 -109.96,45.35,0 -109.94,45.36,0 -109.92,45.36,0 -109.90,45.37,0 -109.88,45.37,0 -109.86,45.38,0 -109.84,45.38,0 -109.82,45.38,0 -109.79,45.38,0 -109.77,45.37,0 -109.74,45.36,0 -109.72,45.35,0 -109.70,45.34,0 -109.67,45.33,0 -109.66,45.33,0 -109.64,45.32,0 -109.62,45.31,0 -109.60,45.30,0 -109.60,45.29,0 -109.58,45.28,0 -109.57,45.27,0 -109.55,45.26,0 -109.53,45.25,0 -109.52,45.23,0 -109.50,45.22,0 -109.49,45.20,0 -109.48,45.19,0 -109.47,45.17,0 -109.47,45.16,0 -109.47,45.14,0 -109.48,45.12,0 -109.49,45.10,0 -109.50,45.09,0 -109.51,45.07,0 -109.52,45.06,0 -109.53,45.04,0 -109.54,45.03,0 -109.55,45.01,0 -109.56,45.00,0 -109.58,44.99,0 -109.60,44.98,0 -109.62,44.97,0 -109.63,44.96,0 -109.66,44.95,0 -109.68,44.94,0 -109.70,44.93,0 -109.72,44.92,0 -109.75,44.91,0 -109.77,44.91,0 -109.79,44.91,0 -109.82,44.91,0 -109.84,44.92,0 -109.87,44.93,0 -109.89,44.94,0 -109.91,44.95,0 -109.93,44.95,0 -109.95,44.96,0 -109.97,44.97,0 -109.99,44.97,0 -110.00,44.98,0 -110.02,44.99,0 -110.03,45.00,0 -110.05,45.01,0 -110.07,45.02,0 -110.08,45.03,0 -110.10,45.05,0 -110.12,45.06,0 -110.13,45.08,0 -110.14,45.09,0 -110.15,45.11,0 -110.15,45.12,0 -110.15,45.14,0 -110.15,45.15,0 -110.14,45.17,0 -110.14,45.19,0 -110.13,45.20,0 -110.12,45.22,0 -110.11,45.24,0 -110.10,45.25,0 -110.09,45.27,0 -110.08,45.29,0 -110.07,45.30,0 
          </coordinates>
        </LinearRing>
      </outerBoundaryIs>
  </Polygon>
 </MultiGeometry>
</Placemark>
<Placemark>
  <name>1%</name>
  <visibility>1</visibility>
  <styleUrl>#poly_1</styleUrl>
  <MultiGeometry>
    <Polygon>
      <outerBoundaryIs>
        <LinearRing>
          <coordinates>
-122.20,49.00,0 -122.14,49.03,0 -122.09,49.06,0 -122.03,49.08,0 -121.97,49.09,0 -121.91,49.10,0 -121.84,49.10,0 -121.77,49.09,0 -121.71,49.07,0 -121.67,49.05,0 -121.62,49.02,0 -121.57,48.98,0 -121.53,48.94,0 -121.50,48.90,0 -121.47,48.87,0 -121.46,48.82,0 -121.47,48.77,0 -121.48,48.73,0 -121.47,48.69,0 -121.43,48.65,0 -121.37,48.61,0 -121.31,48.60,0 -121.26,48.62,0 -121.21,48.66,0 -121.15,48.70,0 -121.09,48.72,0 -121.02,48.72,0 -120.95,48.71,0 -120.88,48.69,0 -120.82,48.66,0 -120.78,48.63,0 -120.74,48.59,0 -120.71,48.55,0 -120.68,48.51,0 -120.66,48.46,0 -120.65,48.42,0 -120.65,48.37,0 -120.66,48.32,0 -120.66,48.26,0 -120.67,48.22,0 -120.67,48.17,0 -120.67,48.12,0 -120.66,48.07,0 -120.66,48.03,0 -120.66,47.99,0 -120.67,47.95,0 -120.70,47.91,0 -120.74,47.87,0 -120.78,47.84,0 -120.83,47.81,0 -120.88,47.79,0 -120.94,47.78,0 -121.00,47.77,0 -121.06,47.76,0 -121.12,47.75,0 -121.19,47.75,0 -121.26,47.75,0 -121.32,47.76,0 -121.39,47.77,0 -121.45,47.79,0 -121.50,47.84,0 -121.52,47.88,0 -121.54,47.92,0 -121.57,47.97,0 -121.59,48.02,0 -121.60,48.08,0 -121.61,48.13,0 -121.60,48.17,0 -121.57,48.21,0 -121.53,48.25,0 -121.48,48.28,0 -121.42,48.31,0 -121.37,48.34,0 -121.34,48.37,0 -121.32,48.42,0 -121.31,48.46,0 -121.33,48.50,0 -121.35,48.54,0 -121.39,48.57,0 -121.45,48.60,0 -121.51,48.61,0 -121.57,48.62,0 -121.63,48.61,0 -121.69,48.58,0 -121.75,48.56,0 -121.81,48.54,0 -121.87,48.53,0 -121.94,48.53,0 -122.01,48.53,0 -122.07,48.55,0 -122.11,48.57,0 -122.15,48.60,0 -122.19,48.63,0 -122.23,48.67,0 -122.27,48.71,0 -122.31,48.75,0 -122.20,49.00,0 
          </coordinates>
        </LinearRing>
      </outerBoundaryIs>
      <innerBoundaryIs>
        <LinearRing>
          <coordinates>
-121.22,48.28,1000 -121.19,48.28,1000 -121.17,48.28,1000 -121.14,48.28,1000 -121.12,48.28,1000 -121.09,48.28,1000 -121.07,48.28,1000 -121.05,48.27,1000 -121.02,48.27,1000 -121.01,48.27,1000 -120.99,48.27,1000 -120.97,48.27,1000 -120.96,48.27,1000 -120.94,48.27,1000 -120.94,48.26,1000 -120.93,48.25,1000 -120.92,48.24,1000 -120.91,48.23,1000 -120.90,48.22,1000 -120.89,48.20,1000 -120.87,48.19,1000 -120.86,48.17,1000 -120.85,48.15,1000 -120.84,48.14,1000 -120.83,48.12,1000 -120.82,48.11,1000 -120.82,48.10,1000 -120.82,48.08,1000 -120.82,48.07,1000 -120.83,48.05,1000 -120.84,48.04,1000 -120.85,48.03,1000 -120.87,48.01,1000 -120.88,48.00,1000 -120.89,47.99,1000 -120.91,47.98,1000 -120.92,47.97,1000 -120.94,47.96,1000 -120.96,47.95,1000 -120.97,47.94,1000 -120.99,47.93,1000 -121.01,47.92,1000 -121.02,47.91,1000 -121.04,47.90,1000 -121.06,47.89,1000 -121.07,47.88,1000 -121.09,47.87,1000 -121.10,47.87,1000 -121.11,47.87,1000 -121.13,47.87,1000 -121.14,47.88,1000 -121.17,47.89,1000 -121.18,47.90,1000 -121.20,47.90,1000 -121.22,47.91,1000 -121.24,47.92,1000 -121.26,47.93,1000 -121.28,47.95,1000 -121.30,47.96,1000 -121.33,47.97,1000 -121.34,47.98,1000 -121.36,47.99,1000 -121.38,47.99,1000 -121.39,48.00,1000 -121.42,48.01,1000 -121.42,48.02,1000 -121.42,48.02,1000 -121.41,48.03,1000 -121.40,48.05,1000 -121.39,48.06,1000 -121.39,48.07,1000 -121.38,48.08,1000 -121.37,48.09,1000 -121.37,48.10,1000 -121.36,48.12,1000 -121.35,48.13,1000 -121.34,48.15,1000 -121.33,48.16,1000 -121.32,48.18,1000 -121.31,48.19,1000 -121.30,48.21,1000 -121.22,48.28,1000 
          </coordinates>
        </LinearRing>
      </innerBoundaryIs>
  </Polygon>
 </MultiGeometry>
</Placemark>
<Placemark>
  <name>1%</name>
  <visibility>1</visibility>
  <styleUrl>#poly_1</styleUrl>
  <MultiGeometry>
    <Polygon>
      <outerBoundaryIs>
        <LinearRing>
          <coordinates>
-113.44,46.29,0 -113.41,46.29,0 -113.38,46.28,0 -113.35,46.28,0 -113.32,46.27,0 -113.30,46.27,0 -113.27,46.26,0 -113.25,46.26,0 -113.23,46.26,0 -113.21,46.25,0 -113.19,46.25,0 -113.16,46.25,0 -113.15,46.25,0 -113.13,46.23,0 -113.12,46.22,0 -113.10,46.21,0 -113.09,46.19,0 -113.07,46.18,0 -113.05,46.16,0 -113.03,46.14,0 -113.02,46.12,0 -113.01,46.11,0 -113.00,46.09,0 -112.99,46.07,0 -112.99,46.05,0 -112.99,46.03,0 -113.00,46.01,0 -113.01,45.99,0 -113.02,45.97,0 -113.03,45.95,0 -113.04,45.93,0 -113.05,45.92,0 -113.06,45.90,0 -113.07,45.89,0 -113.08,45.87,0 -113.08,45.87,0 -113.11,45.86,0 -113.13,45.85,0 -113.14,45.84,0 -113.16,45.84,0 -113.19,45.82,0 -113.21,45.81,0 -113.24,45.80,0 -113.26,45.80,0 -113.29,45.79,0 -113.32,45.78,0 -113.34,45.78,0 -113.37,45.78,0 -113.39,45.78,0 -113.42,45.79,0 -113.45,45.80,0 -113.48,45.80,0 -113.51,45.81,0 -113.53,45.82,0 -113.55,45.83,0 -113.57,45.84,0 -113.59,45.84,0 -113.60,45.85,0 -113.61,45.86,0 -113.62,45.87,0 -113.64,45.88,0 -113.66,45.90,0 -113.68,45.92,0 -113.70,45.93,0 -113.72,45.95,0 -113.73,45.97,0 -113.74,45.98,0 -113.75,46.00,0 -113.75,46.02,0 -113.75,46.04,0 -113.74,46.05,0 -113.73,46.07,0 -113.72,46.09,0 -113.71,46.11,0 -113.70,46.13,0 -113.69,46.15,0 -113.68,46.16,0 -113.67,46.17,0 -113.66,46.18,0 -113.44,46.29,0 
          </coordinates>
        </LinearRing>
      </outerBoundaryIs>
  </Polygon>
 </MultiGeometry>
</Placemark>
<Placemark>
  <name>1%</name>
  <visibility>1</visibility>
  <styleUrl>#poly_1</styleUrl>
  <MultiGeometry>
    <Polygon>
      <outerBoundaryIs>
        <LinearRing>
          <coordinates>
-114.19,47.52,0 -114.17,47.53,0 -114.15,47.54,0 -114.12,47.56,0 -114.10,47.57,0 -114.08,47.58,0 -114.05,47.59,0 -114.03,47.59,0 -114.01,47.60,0 -113.98,47.61,0 -113.96,47.61,0 -113.93,47.61,0 -113.90,47.61,0 -113.87,47.61,0 -113.84,47.61,0 -113.80,47.60,0 -113.77,47.60,0 -113.75,47.59,0 -113.72,47.58,0 -113.70,47.58,0 -113.67,47.57,0 -113.66,47.57,0 -113.65,47.56,0 -113.63,47.54,0 -113.62,47.53,0 -113.60,47.51,0 -113.58,47.50,0 -113.57,47.48,0 -113.55,47.46,0 -113.53,47.45,0 -113.52,47.43,0 -113.51,47.41,0 -113.50,47.39,0 -113.50,47.37,0 -113.50,47.35,0 -113.51,47.33,0 -113.51,47.31,0 -113.52,47.29,0 -113.53,47.27,0 -113.54,47.25,0 -113.55,47.24,0 -113.56,47.22,0 -113.57,47.21,0 -113.58,47.19,0 -113.59,47.18,0 -113.62,47.17,0 -113.64,47.16,0 -113.65,47.15,0 -113.67,47.14,0 -113.70,47.13,0 -113.72,47.12,0 -113.75,47.11,0 -113.77,47.10,0 -113.80,47.09,0 -113.82,47.08,0 -113.85,47.08,0 -113.88,47.08,0 -113.90,47.08,0 -113.93,47.09,0 -113.96,47.09,0 -113.99,47.10,0 -114.02,47.11,0 -114.05,47.11,0 -114.07,47.12,0 -114.09,47.13,0 -114.11,47.13,0 -114.14,47.13,0 -114.16,47.15,0 -114.17,47.16,0 -114.19,47.17,0 -114.20,47.19,0 -114.22,47.20,0 -114.24,47.22,0 -114.25,47.24,0 -114.27,47.26,0 -114.28,47.27,0 -114.29,47.29,0 -114.30,47.31,0 -114.30,47.33,0 -114.30,47.34,0 -114.30,47.36,0 -114.30,47.38,0 -114.29,47.40,0 -114.28,47.42,0 -114.27,47.43,0 -114.26,47.45,0 -114.25,47.47,0 -114.24,47.49,0 -114.19,47.52,0 
          </coordinates>
        </LinearRing>
      </outerBoundaryIs>
  </Polygon>
 </MultiGeometry>
</Placemark>
<Placemark>
  <name>1%</name>
  <visibility>1</visibility>
  <styleUrl>#poly_1</styleUrl>
  <MultiGeometry>
    <Polygon>
      <outerBoundaryIs>
        <LinearRing>
          <coordinates>
-118.31,51.71,0 -118.20,51.73,0 -118.10,51.74,0 -117.99,51.76,0 -117.89,51.77,0 -117.76,51.79,0 -117.63,51.80,0 -117.52,51.79,0 -117.42,51.74,0 -117.33,51.67,0 -117.26,51.61,0 -117.21,51.54,0 -117.19,51.50,0 -117.20,51.54,0 -117.19,51.63,0 -117.16,51.70,0 -117.12,51.78,0 -117.01,51.85,0 -116.91,51.87,0 -116.79,51.89,0 -116.65,51.91,0 -116.50,51.92,0 -116.36,51.93,0 -116.25,51.94,0 -116.08,51.96,0 -115.95,51.97,0 -115.83,51.97,0 -115.71,51.94,0 -115.59,51.90,0 -115.48,51.85,0 -115.39,51.80,0 -115.29,51.75,0 -115.20,51.69,0 -115.12,51.64,0 -115.03,51.59,0 -114.96,51.54,0 -114.90,51.48,0 -114.86,51.42,0 -114.84,51.34,0 -114.84,51.26,0 -114.86,51.18,0 -114.90,51.09,0 -114.94,51.00,0 -114.95,50.93,0 -114.90,50.87,0 -114.82,50.83,0 -114.76,50.77,0 -114.70,50.69,0 -114.66,50.61,0 -114.66,50.53,0 -114.67,50.45,0 -114.70,50.38,0 -114.72,50.33,0 -114.80,50.27,0 -114.87,50.21,0 -114.96,50.13,0 -115.06,50.05,0 -115.16,49.98,0 -115.25,49.95,0 -115.34,49.97,0 -115.43,50.03,0 -115.51,50.12,0 -115.59,50.20,0 -115.66,50.28,0 -115.73,50.37,0 -115.81,50.46,0 -115.87,50.53,0 -115.91,50.56,0 -115.93,50.53,0 -115.93,50.45,0 -115.92,50.35,0 -115.91,50.25,0 -115.90,50.17,0 -115.88,50.07,0 -115.85,49.98,0 -115.85,49.91,0 -115.87,49.85,0 -115.92,49.80,0 -115.98,49.75,0 -116.07,49.71,0 -116.19,49.68,0 -116.31,49.65,0 -116.45,49.63,0 -116.59,49.63,0 -116.71,49.63,0 -116.83,49.67,0 -116.92,49.72,0 -116.97,49.77,0 -117.01,49.83,0 -117.03,49.91,0 -117.04,50.00,0 -117.07,50.06,0 -117.14,50.05,0 -117.23,50.00,0 -117.31,49.95,0 -117.35,49.89,0 -117.39,49.83,0 -117.44,49.78,0 -117.54,49.73,0 -117.66,49.70,0 -117.77,49.69,0 -117.86,49.73,0 -117.93,49.79,0 -117.97,49.86,0 -117.97,49.93,0 -117.93,50.00,0 -117.86,50.07,0 -117.78,50.12,0 -117.67,50.17,0 -117.56,50.22,0 -117.46,50.27,0 -117.40,50.32,0 -117.40,50.38,0 -117.48,50.43,0 -117.57,50.50,0 -117.62,50.55,0 -117.68,50.61,0 -117.74,50.68,0 -117.81,50.74,0 -117.88,50.80,0 -117.97,50.86,0 -118.07,50.91,0 -118.18,50.96,0 -118.28,51.02,0 -118.35,51.08,0 -118.40,51.15,0 -118.43,51.23,0 -118.46,51.31,0 -118.47,51.39,0 -118.48,51.48,0 -118.31,51.71,0 
          </coordinates>
        </LinearRing>
      </outerBoundaryIs>
      <innerBoundaryIs>
        <LinearRing>
          <coordinates>
-118.28,51.61,1000 -118.18,51.65,1000 -118.08,51.69,1000 -117.98,51.72,1000 -117.88,51.74,1000 -117.75,51.75,1000 -117.62,51.73,1000 -117.50,51.69,1000 -117.43,51.63,1000 -117.35,51.55,1000 -117.28,51.47,1000 -117.22,51.40,1000 -117.16,51.38,1000 -117.12,51.41,1000 -117.09,51.49,1000 -117.06,51.59,1000 -117.03,51.68,1000 -116.98,51.75,1000 -116.90,51.80,1000 -116.81,51.84,1000 -116.71,51.86,1000 -116.61,51.88,1000 -116.49,51.90,1000 -116.38,51.92,1000 -116.25,51.92,1000 -116.14,51.92,1000 -116.02,51.91,1000 -115.90,51.90,1000 -115.81,51.89,1000 -115.72,51.88,1000 -115.63,51.84,1000 -115.56,51.80,1000 -115.46,51.74,1000 -115.36,51.68,1000 -115.27,51.62,1000 -115.20,51.56,1000 -115.14,51.50,1000 -115.09,51.43,1000 -115.06,51.37,1000 -115.06,51.31,1000 -115.09,51.25,1000 -115.16,51.18,1000 -115.22,51.12,1000 -115.25,51.07,1000 -115.23,51.02,1000 -115.18,50.97,1000 -115.11,50.91,1000 -115.06,50.85,1000 -115.01,50.79,1000 -114.95,50.72,1000 -114.89,50.65,1000 -114.86,50.60,1000 -114.84,50.54,1000 -114.87,50.49,1000 -114.91,50.42,1000 -114.98,50.35,1000 -115.06,50.30,1000 -115.18,50.29,1000 -115.31,50.31,1000 -115.43,50.34,1000 -115.51,50.39,1000 -115.57,50.46,1000 -115.64,50.53,1000 -115.71,50.58,1000 -115.79,50.63,1000 -115.87,50.69,1000 -115.95,50.73,1000 -116.04,50.78,1000 -116.12,50.83,1000 -116.19,50.85,1000 -116.27,50.79,1000 -116.24,50.75,1000 -116.18,50.69,1000 -116.11,50.62,1000 -116.05,50.56,1000 -116.02,50.49,1000 -116.01,50.42,1000 -116.03,50.35,1000 -116.05,50.28,1000 -116.07,50.21,1000 -116.09,50.15,1000 -116.09,50.08,1000 -116.09,50.01,1000 -116.09,49.94,1000 -116.10,49.89,1000 -116.14,49.81,1000 -116.23,49.76,1000 -116.31,49.75,1000 -116.42,49.74,1000 -116.53,49.74,1000 -116.61,49.74,1000 -116.70,49.75,1000 -116.76,49.78,1000 -116.83,49.83,1000 -116.90,49.90,1000 -116.97,49.97,1000 -117.01,50.03,1000 -117.04,50.10,1000 -117.07,50.16,1000 -117.09,50.22,1000 -117.11,50.28,1000 -117.13,50.33,1000 -117.16,50.38,1000 -117.21,50.43,1000 -117.27,50.47,1000 -117.35,50.53,1000 -117.41,50.58,1000 -117.49,50.64,1000 -117.58,50.70,1000 -117.65,50.76,1000 -117.71,50.81,1000 -117.76,50.88,1000 -117.78,50.94,1000 -117.82,50.99,1000 -117.91,51.02,1000 -118.03,51.03,1000 -118.13,51.05,1000 -118.21,51.09,1000 -118.27,51.16,1000 -118.30,51.21,1000 -118.34,51.27,1000 -118.37,51.33,1000 -118.41,51.40,1000 -118.28,51.61,1000 
          </coordinates>
        </LinearRing>
      </innerBoundaryIs>
  </Polygon>
 </MultiGeometry>
</Placemark>
<Placemark>
  <name>1%</name>
  <visibility>1</visibility>
  <styleUrl>#poly_1</styleUrl>
  <MultiGeometry>
    <Polygon>
      <outerBoundaryIs>
        <LinearRing>
          <coordinates>
-122.15,47.13,0 -122.12,47.15,0 -122.09,47.16,0 -122.05,47.18,0 -122.02,47.19,0 -121.99,47.20,0 -121.95,47.21,0 -121.92,47.22,0 -121.88,47.22,0 -121.84,47.22,0 -121.80,47.22,0 -121.76,47.22,0 -121.72,47.21,0 -121.69,47.21,0 -121.66,47.20,0 -121.62,47.19,0 -121.60,47.18,0 -121.58,47.17,0 -121.55,47.15,0 -121.53,47.13,0 -121.50,47.11,0 -121.47,47.09,0 -121.45,47.07,0 -121.42,47.05,0 -121.40,47.02,0 -121.38,47.00,0 -121.36,46.97,0 -121.35,46.95,0 -121.35,46.92,0 -121.34,46.89,0 -121.34,46.87,0 -121.33,46.84,0 -121.32,46.81,0 -121.31,46.78,0 -121.31,46.75,0 -121.30,46.73,0 -121.30,46.70,0 -121.31,46.67,0 -121.32,46.65,0 -121.34,46.62,0 -121.36,46.59,0 -121.38,46.57,0 -121.41,46.55,0 -121.43,46.53,0 -121.46,46.51,0 -121.49,46.49,0 -121.53,46.48,0 -121.57,46.48,0 -121.62,46.47,0 -121.66,46.46,0 -121.70,46.46,0 -121.74,46.45,0 -121.78,46.45,0 -121.82,46.45,0 -121.86,46.44,0 -121.90,46.44,0 -121.94,46.45,0 -121.97,46.46,0 -122.01,46.47,0 -122.05,46.48,0 -122.08,46.50,0 -122.12,46.51,0 -122.15,46.53,0 -122.17,46.55,0 -122.19,46.57,0 -122.21,46.60,0 -122.22,46.63,0 -122.23,46.65,0 -122.24,46.68,0 -122.25,46.71,0 -122.26,46.74,0 -122.27,46.77,0 -122.28,46.79,0 -122.29,46.82,0 -122.29,46.85,0 -122.29,46.88,0 -122.29,46.91,0 -122.28,46.93,0 -122.27,46.96,0 -122.26,46.98,0 -122.25,47.01,0 -122.23,47.03,0 -122.22,47.06,0 -122.15,47.13,0 
          </coordinates>
        </LinearRing>
      </outerBoundaryIs>
      <innerBoundaryIs>
        <LinearRing>
          <coordinates>
-122.10,46.98,1000 -122.08,46.99,1000 -122.05,47.01,1000 -122.03,47.02,1000 -122.01,47.04,1000 -121.98,47.05,1000 -121.96,47.06,1000 -121.93,47.07,1000 -121.91,47.07,1000 -121.88,47.08,1000 -121.85,47.08,1000 -121.82,47.08,1000 -121.79,47.08,1000 -121.76,47.08,1000 -121.73,47.07,1000 -121.70,47.07,1000 -121.67,47.06,1000 -121.64,47.06,1000 -121.62,47.05,1000 -121.59,47.04,1000 -121.56,47.03,1000 -121.55,47.02,1000 -121.53,47.01,1000 -121.51,46.99,1000 -121.50,46.98,1000 -121.49,46.96,1000 -121.47,46.94,1000 -121.46,46.93,1000 -121.45,46.91,1000 -121.44,46.89,1000 -121.43,46.87,1000 -121.42,46.85,1000 -121.42,46.83,1000 -121.42,46.81,1000 -121.43,46.79,1000 -121.44,46.77,1000 -121.45,46.75,1000 -121.46,46.73,1000 -121.47,46.71,1000 -121.48,46.69,1000 -121.49,46.67,1000 -121.50,46.66,1000 -121.50,46.65,1000 -121.52,46.64,1000 -121.53,46.63,1000 -121.55,46.62,1000 -121.57,46.61,1000 -121.59,46.59,1000 -121.62,46.58,1000 -121.64,46.57,1000 -121.67,46.55,1000 -121.70,46.55,1000 -121.72,46.54,1000 -121.75,46.54,1000 -121.77,46.54,1000 -121.80,46.54,1000 -121.83,46.55,1000 -121.86,46.56,1000 -121.89,46.56,1000 -121.91,46.57,1000 -121.93,46.58,1000 -121.95,46.58,1000 -121.97,46.58,1000 -121.99,46.59,1000 -122.00,46.60,1000 -122.02,46.61,1000 -122.04,46.62,1000 -122.07,46.64,1000 -122.09,46.65,1000 -122.11,46.67,1000 -122.13,46.69,1000 -122.15,46.70,1000 -122.16,46.72,1000 -122.17,46.74,1000 -122.17,46.76,1000 -122.18,46.78,1000 -122.18,46.80,1000 -122.18,46.82,1000 -122.17,46.84,1000 -122.17,46.86,1000 -122.16,46.88,1000 -122.16,46.90,1000 -122.10,46.98,1000 
          </coordinates>
        </LinearRing>
      </innerBoundaryIs>
  </Polygon>
 </MultiGeometry>
</Placemark>
<Placemark>
  <name>1%</name>
  <visibility>1</visibility>
  <styleUrl>#poly_1</styleUrl>
  <MultiGeometry>
    <Polygon>
      <outerBoundaryIs>
        <LinearRing>
          <coordinates>
-114.43,46.29,0 -114.41,46.28,0 -114.40,46.27,0 -114.39,46.26,0 -114.38,46.25,0 -114.37,46.23,0 -114.36,46.22,0 -114.34,46.20,0 -114.33,46.18,0 -114.32,46.17,0 -114.30,46.15,0 -114.29,46.14,0 -114.28,46.12,0 -114.27,46.10,0 -114.25,46.09,0 -114.24,46.07,0 -114.23,46.06,0 -114.21,46.04,0 -114.20,46.02,0 -114.19,46.01,0 -114.18,45.99,0 -114.18,45.98,0 -114.18,45.96,0 -114.18,45.95,0 -114.19,45.93,0 -114.20,45.91,0 -114.21,45.89,0 -114.23,45.88,0 -114.24,45.86,0 -114.26,45.84,0 -114.28,45.83,0 -114.30,45.82,0 -114.31,45.81,0 -114.33,45.81,0 -114.35,45.81,0 -114.37,45.81,0 -114.39,45.82,0 -114.41,45.83,0 -114.43,45.84,0 -114.46,45.85,0 -114.48,45.86,0 -114.50,45.88,0 -114.52,45.89,0 -114.53,45.91,0 -114.54,45.92,0 -114.55,45.93,0 -114.55,45.95,0 -114.55,45.97,0 -114.55,45.98,0 -114.54,46.00,0 -114.54,46.02,0 -114.53,46.04,0 -114.52,46.05,0 -114.52,46.07,0 -114.51,46.09,0 -114.51,46.11,0 -114.50,46.12,0 -114.50,46.14,0 -114.49,46.15,0 -114.49,46.17,0 -114.48,46.19,0 -114.47,46.20,0 -114.47,46.22,0 -114.46,46.24,0 -114.46,46.25,0 -114.45,46.27,0 -114.43,46.29,0 
          </coordinates>
        </LinearRing>
      </outerBoundaryIs>
  </Polygon>
 </MultiGeometry>
</Placemark>
<Placemark>
  <name>5%</name>
  <visibility>1</visibility>
  <styleUrl>#poly_5</styleUrl>
  <MultiGeometry>
    <Polygon>
      <outerBoundaryIs>
        <LinearRing>
          <coordinates>
-122.10,46.98,1000 -122.08,46.99,1000 -122.05,47.01,1000 -122.03,47.02,1000 -122.01,47.04,1000 -121.98,47.05,1000 -121.96,47.06,1000 -121.93,47.07,1000 -121.91,47.07,1000 -121.88,47.08,1000 -121.85,47.08,1000 -121.82,47.08,1000 -121.79,47.08,1000 -121.76,47.08,1000 -121.73,47.07,1000 -121.70,47.07,1000 -121.67,47.06,1000 -121.64,47.06,1000 -121.62,47.05,1000 -121.59,47.04,1000 -121.56,47.03,1000 -121.55,47.02,1000 -121.53,47.01,1000 -121.51,46.99,1000 -121.50,46.98,1000 -121.49,46.96,1000 -121.47,46.94,1000 -121.46,46.93,1000 -121.45,46.91,1000 -121.44,46.89,1000 -121.43,46.87,1000 -121.42,46.85,1000 -121.42,46.83,1000 -121.42,46.81,1000 -121.43,46.79,1000 -121.44,46.77,1000 -121.45,46.75,1000 -121.46,46.73,1000 -121.47,46.71,1000 -121.48,46.69,1000 -121.49,46.67,1000 -121.50,46.66,1000 -121.50,46.65,1000 -121.52,46.64,1000 -121.53,46.63,1000 -121.55,46.62,1000 -121.57,46.61,1000 -121.59,46.59,1000 -121.62,46.58,1000 -121.64,46.57,1000 -121.67,46.55,1000 -121.70,46.55,1000 -121.72,46.54,1000 -121.75,46.54,1000 -121.77,46.54,1000 -121.80,46.54,1000 -121.83,46.55,1000 -121.86,46.56,1000 -121.89,46.56,1000 -121.91,46.57,1000 -121.93,46.58,1000 -121.95,46.58,1000 -121.97,46.58,1000 -121.99,46.59,1000 -122.00,46.60,1000 -122.02,46.61,1000 -122.04,46.62,1000 -122.07,46.64,1000 -122.09,46.65,1000 -122.11,46.67,1000 -122.13,46.69,1000 -122.15,46.70,1000 -122.16,46.72,1000 -122.17,46.74,1000 -122.17,46.76,1000 -122.18,46.78,1000 -122.18,46.80,1000 -122.18,46.82,1000 -122.17,46.84,1000 -122.17,46.86,1000 -122.16,46.88,1000 -122.16,46.90,1000 -122.10,46.98,1000 
          </coordinates>
        </LinearRing>
      </outerBoundaryIs>
      <innerBoundaryIs>
        <LinearRing>
          <coordinates>
-121.86,47.01,2000 -121.84,47.01,2000 -121.82,47.00,2000 -121.80,47.00,2000 -121.78,47.00,2000 -121.76,46.99,2000 -121.74,46.99,2000 -121.72,46.98,2000 -121.70,46.98,2000 -121.69,46.97,2000 -121.67,46.96,2000 -121.66,46.95,2000 -121.64,46.94,2000 -121.63,46.93,2000 -121.62,46.91,2000 -121.60,46.90,2000 -121.59,46.88,2000 -121.58,46.87,2000 -121.58,46.86,2000 -121.57,46.85,2000 -121.56,46.84,2000 -121.54,46.82,2000 -121.53,46.82,2000 -121.53,46.81,2000 -121.52,46.81,2000 -121.54,46.79,2000 -121.55,46.78,2000 -121.56,46.77,2000 -121.57,46.76,2000 -121.58,46.75,2000 -121.59,46.73,2000 -121.60,46.72,2000 -121.62,46.70,2000 -121.63,46.69,2000 -121.64,46.68,2000 -121.66,46.66,2000 -121.68,46.65,2000 -121.69,46.64,2000 -121.71,46.63,2000 -121.72,46.62,2000 -121.74,46.62,2000 -121.76,46.62,2000 -121.77,46.62,2000 -121.79,46.62,2000 -121.81,46.63,2000 -121.83,46.64,2000 -121.85,46.65,2000 -121.88,46.65,2000 -121.90,46.66,2000 -121.92,46.67,2000 -121.94,46.68,2000 -121.96,46.69,2000 -121.97,46.70,2000 -121.99,46.71,2000 -122.01,46.72,2000 -122.02,46.73,2000 -122.03,46.73,2000 -122.04,46.74,2000 -122.04,46.75,2000 -122.04,46.76,2000 -122.04,46.78,2000 -122.04,46.79,2000 -122.04,46.80,2000 -122.03,46.81,2000 -122.03,46.83,2000 -122.03,46.84,2000 -122.02,46.86,2000 -122.02,46.87,2000 -122.02,46.89,2000 -122.01,46.90,2000 -122.01,46.92,2000 -121.86,47.01,2000 
          </coordinates>
        </LinearRing>
      </innerBoundaryIs>
  </Polygon>
 </MultiGeometry>
</Placemark>
<Placemark>
  <name>5%</name>
  <visibility>1</visibility>
  <styleUrl>#poly_5</styleUrl>
  <MultiGeometry>
    <Polygon>
      <outerBoundaryIs>
        <LinearRing>
          <coordinates>
-118.28,51.61,1000 -118.18,51.65,1000 -118.08,51.69,1000 -117.98,51.72,1000 -117.88,51.74,1000 -117.75,51.75,1000 -117.62,51.73,1000 -117.50,51.69,1000 -117.43,51.63,1000 -117.35,51.55,1000 -117.28,51.47,1000 -117.22,51.40,1000 -117.16,51.38,1000 -117.12,51.41,1000 -117.09,51.49,1000 -117.06,51.59,1000 -117.03,51.68,1000 -116.98,51.75,1000 -116.90,51.80,1000 -116.81,51.84,1000 -116.71,51.86,1000 -116.61,51.88,1000 -116.49,51.90,1000 -116.38,51.92,1000 -116.25,51.92,1000 -116.14,51.92,1000 -116.02,51.91,1000 -115.90,51.90,1000 -115.81,51.89,1000 -115.72,51.88,1000 -115.63,51.84,1000 -115.56,51.80,1000 -115.46,51.74,1000 -115.36,51.68,1000 -115.27,51.62,1000 -115.20,51.56,1000 -115.14,51.50,1000 -115.09,51.43,1000 -115.06,51.37,1000 -115.06,51.31,1000 -115.09,51.25,1000 -115.16,51.18,1000 -115.22,51.12,1000 -115.25,51.07,1000 -115.23,51.02,1000 -115.18,50.97,1000 -115.11,50.91,1000 -115.06,50.85,1000 -115.01,50.79,1000 -114.95,50.72,1000 -114.89,50.65,1000 -114.86,50.60,1000 -114.84,50.54,1000 -114.87,50.49,1000 -114.91,50.42,1000 -114.98,50.35,1000 -115.06,50.30,1000 -115.18,50.29,1000 -115.31,50.31,1000 -115.43,50.34,1000 -115.51,50.39,1000 -115.57,50.46,1000 -115.64,50.53,1000 -115.71,50.58,1000 -115.79,50.63,1000 -115.87,50.69,1000 -115.95,50.73,1000 -116.04,50.78,1000 -116.12,50.83,1000 -116.19,50.85,1000 -116.27,50.79,1000 -116.24,50.75,1000 -116.18,50.69,1000 -116.11,50.62,1000 -116.05,50.56,1000 -116.02,50.49,1000 -116.01,50.42,1000 -116.03,50.35,1000 -116.05,50.28,1000 -116.07,50.21,1000 -116.09,50.15,1000 -116.09,50.08,1000 -116.09,50.01,1000 -116.09,49.94,1000 -116.10,49.89,1000 -116.14,49.81,1000 -116.23,49.76,1000 -116.31,49.75,1000 -116.42,49.74,1000 -116.53,49.74,1000 -116.61,49.74,1000 -116.70,49.75,1000 -116.76,49.78,1000 -116.83,49.83,1000 -116.90,49.90,1000 -116.97,49.97,1000 -117.01,50.03,1000 -117.04,50.10,1000 -117.07,50.16,1000 -117.09,50.22,1000 -117.11,50.28,1000 -117.13,50.33,1000 -117.16,50.38,1000 -117.21,50.43,1000 -117.27,50.47,1000 -117.35,50.53,1000 -117.41,50.58,1000 -117.49,50.64,1000 -117.58,50.70,1000 -117.65,50.76,1000 -117.71,50.81,1000 -117.76,50.88,1000 -117.78,50.94,1000 -117.82,50.99,1000 -117.91,51.02,1000 -118.03,51.03,1000 -118.13,51.05,1000 -118.21,51.09,1000 -118.27,51.16,1000 -118.30,51.21,1000 -118.34,51.27,1000 -118.37,51.33,1000 -118.41,51.40,1000 -118.28,51.61,1000 
          </coordinates>
        </LinearRing>
      </outerBoundaryIs>
      <innerBoundaryIs>
        <LinearRing>
          <coordinates>
-118.03,51.68,2000 -117.92,51.68,2000 -117.82,51.68,2000 -117.73,51.68,2000 -117.65,51.67,2000 -117.56,51.63,2000 -117.47,51.56,2000 -117.41,51.52,2000 -117.35,51.47,2000 -117.27,51.41,2000 -117.20,51.36,2000 -117.14,51.31,2000 -117.04,51.24,2000 -116.96,51.19,2000 -116.88,51.16,2000 -116.77,51.18,2000 -116.73,51.25,2000 -116.76,51.30,2000 -116.82,51.36,2000 -116.89,51.43,2000 -116.95,51.50,2000 -116.99,51.55,2000 -116.99,51.62,2000 -116.93,51.68,2000 -116.88,51.73,2000 -116.81,51.78,2000 -116.73,51.82,2000 -116.63,51.84,2000 -116.51,51.86,2000 -116.38,51.87,2000 -116.28,51.88,2000 -116.18,51.90,2000 -116.08,51.90,2000 -115.97,51.89,2000 -115.88,51.87,2000 -115.78,51.83,2000 -115.68,51.79,2000 -115.59,51.74,2000 -115.50,51.69,2000 -115.42,51.64,2000 -115.33,51.58,2000 -115.26,51.53,2000 -115.20,51.46,2000 -115.17,51.40,2000 -115.19,51.33,2000 -115.24,51.26,2000 -115.31,51.18,2000 -115.36,51.11,2000 -115.38,51.04,2000 -115.35,50.98,2000 -115.29,50.92,2000 -115.21,50.87,2000 -115.14,50.81,2000 -115.09,50.75,2000 -115.07,50.68,2000 -115.06,50.60,2000 -115.06,50.52,2000 -115.07,50.46,2000 -115.09,50.41,2000 -115.16,50.39,2000 -115.26,50.42,2000 -115.33,50.45,2000 -115.41,50.48,2000 -115.51,50.54,2000 -115.57,50.58,2000 -115.65,50.63,2000 -115.73,50.68,2000 -115.80,50.74,2000 -115.88,50.79,2000 -115.95,50.83,2000 -116.04,50.88,2000 -116.12,50.93,2000 -116.20,50.96,2000 -116.27,50.98,2000 -116.37,50.98,2000 -116.47,50.96,2000 -116.51,50.92,2000 -116.48,50.88,2000 -116.42,50.82,2000 -116.34,50.76,2000 -116.28,50.70,2000 -116.22,50.63,2000 -116.18,50.56,2000 -116.15,50.49,2000 -116.14,50.43,2000 -116.15,50.37,2000 -116.15,50.31,2000 -116.15,50.25,2000 -116.14,50.19,2000 -116.13,50.12,2000 -116.14,50.06,2000 -116.16,49.98,2000 -116.20,49.91,2000 -116.25,49.85,2000 -116.34,49.81,2000 -116.45,49.80,2000 -116.56,49.81,2000 -116.67,49.84,2000 -116.75,49.85,2000 -116.84,49.92,2000 -116.87,49.97,2000 -116.91,50.03,2000 -116.96,50.11,2000 -117.00,50.18,2000 -117.04,50.26,2000 -117.08,50.33,2000 -117.11,50.38,2000 -117.15,50.46,2000 -117.17,50.50,2000 -117.20,50.54,2000 -117.27,50.58,2000 -117.35,50.62,2000 -117.44,50.68,2000 -117.49,50.73,2000 -117.53,50.79,2000 -117.57,50.86,2000 -117.63,50.93,2000 -117.69,50.98,2000 -117.77,51.02,2000 -117.88,51.06,2000 -117.98,51.09,2000 -118.08,51.12,2000 -118.16,51.15,2000 -118.24,51.21,2000 -118.29,51.28,2000 -118.32,51.34,2000 -118.32,51.40,2000 -118.30,51.47,2000 -118.26,51.53,2000 -118.03,51.68,2000 
          </coordinates>
        </LinearRing>
      </innerBoundaryIs>
  </Polygon>
 </MultiGeometry>
</Placemark>
<Placemark>
  <name>5%</name>
  <visibility>1</visibility>
  <styleUrl>#poly_5</styleUrl>
  <MultiGeometry>
    <Polygon>
      <outerBoundaryIs>
        <LinearRing>
          <coordinates>
-121.22,48.28,1000 -121.19,48.28,1000 -121.17,48.28,1000 -121.14,48.28,1000 -121.12,48.28,1000 -121.09,48.28,1000 -121.07,48.28,1000 -121.05,48.27,1000 -121.02,48.27,1000 -121.01,48.27,1000 -120.99,48.27,1000 -120.97,48.27,1000 -120.96,48.27,1000 -120.94,48.27,1000 -120.94,48.26,1000 -120.93,48.25,1000 -120.92,48.24,1000 -120.91,48.23,1000 -120.90,48.22,1000 -120.89,48.20,1000 -120.87,48.19,1000 -120.86,48.17,1000 -120.85,48.15,1000 -120.84,48.14,1000 -120.83,48.12,1000 -120.82,48.11,1000 -120.82,48.10,1000 -120.82,48.08,1000 -120.82,48.07,1000 -120.83,48.05,1000 -120.84,48.04,1000 -120.85,48.03,1000 -120.87,48.01,1000 -120.88,48.00,1000 -120.89,47.99,1000 -120.91,47.98,1000 -120.92,47.97,1000 -120.94,47.96,1000 -120.96,47.95,1000 -120.97,47.94,1000 -120.99,47.93,1000 -121.01,47.92,1000 -121.02,47.91,1000 -121.04,47.90,1000 -121.06,47.89,1000 -121.07,47.88,1000 -121.09,47.87,1000 -121.10,47.87,1000 -121.11,47.87,1000 -121.13,47.87,1000 -121.14,47.88,1000 -121.17,47.89,1000 -121.18,47.90,1000 -121.20,47.90,1000 -121.22,47.91,1000 -121.24,47.92,1000 -121.26,47.93,1000 -121.28,47.95,1000 -121.30,47.96,1000 -121.33,47.97,1000 -121.34,47.98,1000 -121.36,47.99,1000 -121.38,47.99,1000 -121.39,48.00,1000 -121.42,48.01,1000 -121.42,48.02,1000 -121.42,48.02,1000 -121.41,48.03,1000 -121.40,48.05,1000 -121.39,48.06,1000 -121.39,48.07,1000 -121.38,48.08,1000 -121.37,48.09,1000 -121.37,48.10,1000 -121.36,48.12,1000 -121.35,48.13,1000 -121.34,48.15,1000 -121.33,48.16,1000 -121.32,48.18,1000 -121.31,48.19,1000 -121.30,48.21,1000 -121.22,48.28,1000 
          </coordinates>
        </LinearRing>
      </outerBoundaryIs>
  </Polygon>
 </MultiGeometry>
</Placemark>
<Placemark>
  <name>10%</name>
  <visibility>1</visibility>
  <styleUrl>#poly_10</styleUrl>
  <MultiGeometry>
    <Polygon>
      <outerBoundaryIs>
        <LinearRing>
          <coordinates>
-118.03,51.68,2000 -117.92,51.68,2000 -117.82,51.68,2000 -117.73,51.68,2000 -117.65,51.67,2000 -117.56,51.63,2000 -117.47,51.56,2000 -117.41,51.52,2000 -117.35,51.47,2000 -117.27,51.41,2000 -117.20,51.36,2000 -117.14,51.31,2000 -117.04,51.24,2000 -116.96,51.19,2000 -116.88,51.16,2000 -116.77,51.18,2000 -116.73,51.25,2000 -116.76,51.30,2000 -116.82,51.36,2000 -116.89,51.43,2000 -116.95,51.50,2000 -116.99,51.55,2000 -116.99,51.62,2000 -116.93,51.68,2000 -116.88,51.73,2000 -116.81,51.78,2000 -116.73,51.82,2000 -116.63,51.84,2000 -116.51,51.86,2000 -116.38,51.87,2000 -116.28,51.88,2000 -116.18,51.90,2000 -116.08,51.90,2000 -115.97,51.89,2000 -115.88,51.87,2000 -115.78,51.83,2000 -115.68,51.79,2000 -115.59,51.74,2000 -115.50,51.69,2000 -115.42,51.64,2000 -115.33,51.58,2000 -115.26,51.53,2000 -115.20,51.46,2000 -115.17,51.40,2000 -115.19,51.33,2000 -115.24,51.26,2000 -115.31,51.18,2000 -115.36,51.11,2000 -115.38,51.04,2000 -115.35,50.98,2000 -115.29,50.92,2000 -115.21,50.87,2000 -115.14,50.81,2000 -115.09,50.75,2000 -115.07,50.68,2000 -115.06,50.60,2000 -115.06,50.52,2000 -115.07,50.46,2000 -115.09,50.41,2000 -115.16,50.39,2000 -115.26,50.42,2000 -115.33,50.45,2000 -115.41,50.48,2000 -115.51,50.54,2000 -115.57,50.58,2000 -115.65,50.63,2000 -115.73,50.68,2000 -115.80,50.74,2000 -115.88,50.79,2000 -115.95,50.83,2000 -116.04,50.88,2000 -116.12,50.93,2000 -116.20,50.96,2000 -116.27,50.98,2000 -116.37,50.98,2000 -116.47,50.96,2000 -116.51,50.92,2000 -116.48,50.88,2000 -116.42,50.82,2000 -116.34,50.76,2000 -116.28,50.70,2000 -116.22,50.63,2000 -116.18,50.56,2000 -116.15,50.49,2000 -116.14,50.43,2000 -116.15,50.37,2000 -116.15,50.31,2000 -116.15,50.25,2000 -116.14,50.19,2000 -116.13,50.12,2000 -116.14,50.06,2000 -116.16,49.98,2000 -116.20,49.91,2000 -116.25,49.85,2000 -116.34,49.81,2000 -116.45,49.80,2000 -116.56,49.81,2000 -116.67,49.84,2000 -116.75,49.85,2000 -116.84,49.92,2000 -116.87,49.97,2000 -116.91,50.03,2000 -116.96,50.11,2000 -117.00,50.18,2000 -117.04,50.26,2000 -117.08,50.33,2000 -117.11,50.38,2000 -117.15,50.46,2000 -117.17,50.50,2000 -117.20,50.54,2000 -117.27,50.58,2000 -117.35,50.62,2000 -117.44,50.68,2000 -117.49,50.73,2000 -117.53,50.79,2000 -117.57,50.86,2000 -117.63,50.93,2000 -117.69,50.98,2000 -117.77,51.02,2000 -117.88,51.06,2000 -117.98,51.09,2000 -118.08,51.12,2000 -118.16,51.15,2000 -118.24,51.21,2000 -118.29,51.28,2000 -118.32,51.34,2000 -118.32,51.40,2000 -118.30,51.47,2000 -118.26,51.53,2000 -118.03,51.68,2000 
          </coordinates>
        </LinearRing>
      </outerBoundaryIs>
      <innerBoundaryIs>
        <LinearRing>
          <coordinates>
-118.01,51.60,3000 -117.92,51.62,3000 -117.83,51.63,3000 -117.75,51.62,3000 -117.67,51.59,3000 -117.59,51.55,3000 -117.52,51.49,3000 -117.49,51.44,3000 -117.47,51.39,3000 -117.45,51.33,3000 -117.42,51.28,3000 -117.39,51.24,3000 -117.31,51.21,3000 -117.21,51.21,3000 -117.11,51.19,3000 -117.05,51.16,3000 -116.99,51.12,3000 -116.92,51.08,3000 -116.86,51.03,3000 -116.80,50.99,3000 -116.74,50.95,3000 -116.68,50.90,3000 -116.62,50.85,3000 -116.56,50.81,3000 -116.51,50.77,3000 -116.44,50.72,3000 -116.37,50.68,3000 -116.32,50.63,3000 -116.28,50.58,3000 -116.25,50.52,3000 -116.23,50.47,3000 -116.23,50.42,3000 -116.24,50.36,3000 -116.25,50.30,3000 -116.25,50.25,3000 -116.26,50.19,3000 -116.26,50.13,3000 -116.27,50.08,3000 -116.29,50.03,3000 -116.33,49.98,3000 -116.39,49.93,3000 -116.46,49.90,3000 -116.52,49.89,3000 -116.59,49.92,3000 -116.66,49.97,3000 -116.73,50.03,3000 -116.79,50.08,3000 -116.84,50.13,3000 -116.87,50.18,3000 -116.91,50.24,3000 -116.93,50.28,3000 -116.96,50.34,3000 -116.99,50.40,3000 -117.02,50.45,3000 -117.05,50.51,3000 -117.08,50.55,3000 -117.13,50.60,3000 -117.19,50.63,3000 -117.25,50.66,3000 -117.30,50.69,3000 -117.36,50.74,3000 -117.42,50.79,3000 -117.47,50.84,3000 -117.50,50.89,3000 -117.52,50.95,3000 -117.53,51.00,3000 -117.52,51.06,3000 -117.51,51.12,3000 -117.51,51.17,3000 -117.55,51.19,3000 -117.63,51.18,3000 -117.71,51.17,3000 -117.80,51.16,3000 -117.89,51.16,3000 -117.96,51.18,3000 -118.04,51.20,3000 -118.12,51.23,3000 -118.17,51.26,3000 -118.21,51.31,3000 -118.21,51.36,3000 -118.21,51.42,3000 -118.01,51.60,3000 
          </coordinates>
        </LinearRing>
      </innerBoundaryIs>
      <innerBoundaryIs>
        <LinearRing>
          <coordinates>
-116.48,51.80,3000 -116.42,51.81,3000 -116.36,51.81,3000 -116.29,51.81,3000 -116.23,51.82,3000 -116.17,51.82,3000 -116.12,51.82,3000 -116.06,51.81,3000 -116.01,51.81,3000 -115.94,51.80,3000 -115.88,51.78,3000 -115.82,51.77,3000 -115.76,51.74,3000 -115.71,51.72,3000 -115.66,51.70,3000 -115.61,51.67,3000 -115.56,51.64,3000 -115.52,51.61,3000 -115.48,51.57,3000 -115.45,51.54,3000 -115.42,51.51,3000 -115.39,51.48,3000 -115.37,51.45,3000 -115.36,51.41,3000 -115.36,51.38,3000 -115.38,51.35,3000 -115.41,51.31,3000 -115.45,51.27,3000 -115.49,51.24,3000 -115.52,51.20,3000 -115.55,51.16,3000 -115.59,51.13,3000 -115.62,51.09,3000 -115.65,51.05,3000 -115.65,51.02,3000 -115.63,50.99,3000 -115.59,50.96,3000 -115.54,50.94,3000 -115.49,50.91,3000 -115.46,50.88,3000 -115.44,50.84,3000 -115.42,50.80,3000 -115.41,50.76,3000 -115.40,50.73,3000 -115.42,50.71,3000 -115.45,50.71,3000 -115.49,50.72,3000 -115.55,50.74,3000 -115.61,50.77,3000 -115.66,50.79,3000 -115.71,50.82,3000 -115.75,50.85,3000 -115.78,50.88,3000 -115.82,50.91,3000 -115.85,50.95,3000 -115.89,50.98,3000 -115.93,51.00,3000 -115.98,51.02,3000 -116.04,51.02,3000 -116.11,51.03,3000 -116.17,51.03,3000 -116.23,51.04,3000 -116.29,51.06,3000 -116.33,51.08,3000 -116.37,51.11,3000 -116.41,51.14,3000 -116.45,51.17,3000 -116.48,51.20,3000 -116.52,51.23,3000 -116.55,51.26,3000 -116.60,51.29,3000 -116.64,51.32,3000 -116.69,51.35,3000 -116.73,51.38,3000 -116.76,51.41,3000 -116.80,51.45,3000 -116.84,51.48,3000 -116.86,51.52,3000 -116.87,51.56,3000 -116.86,51.59,3000 -116.84,51.63,3000 -116.81,51.66,3000 -116.77,51.70,3000 -116.73,51.73,3000 -116.48,51.80,3000 
          </coordinates>
        </LinearRing>
      </innerBoundaryIs>
  </Polygon>
 </MultiGeometry>
</Placemark>
<Placemark>
  <name>10%</name>
  <visibility>1</visibility>
  <styleUrl>#poly_10</styleUrl>
  <MultiGeometry>
    <Polygon>
      <outerBoundaryIs>
        <LinearRing>
          <coordinates>
-121.86,47.01,2000 -121.84,47.01,2000 -121.82,47.00,2000 -121.80,47.00,2000 -121.78,47.00,2000 -121.76,46.99,2000 -121.74,46.99,2000 -121.72,46.98,2000 -121.70,46.98,2000 -121.69,46.97,2000 -121.67,46.96,2000 -121.66,46.95,2000 -121.64,46.94,2000 -121.63,46.93,2000 -121.62,46.91,2000 -121.60,46.90,2000 -121.59,46.88,2000 -121.58,46.87,2000 -121.58,46.86,2000 -121.57,46.85,2000 -121.56,46.84,2000 -121.54,46.82,2000 -121.53,46.82,2000 -121.53,46.81,2000 -121.52,46.81,2000 -121.54,46.79,2000 -121.55,46.78,2000 -121.56,46.77,2000 -121.57,46.76,2000 -121.58,46.75,2000 -121.59,46.73,2000 -121.60,46.72,2000 -121.62,46.70,2000 -121.63,46.69,2000 -121.64,46.68,2000 -121.66,46.66,2000 -121.68,46.65,2000 -121.69,46.64,2000 -121.71,46.63,2000 -121.72,46.62,2000 -121.74,46.62,2000 -121.76,46.62,2000 -121.77,46.62,2000 -121.79,46.62,2000 -121.81,46.63,2000 -121.83,46.64,2000 -121.85,46.65,2000 -121.88,46.65,2000 -121.90,46.66,2000 -121.92,46.67,2000 -121.94,46.68,2000 -121.96,46.69,2000 -121.97,46.70,2000 -121.99,46.71,2000 -122.01,46.72,2000 -122.02,46.73,2000 -122.03,46.73,2000 -122.04,46.74,2000 -122.04,46.75,2000 -122.04,46.76,2000 -122.04,46.78,2000 -122.04,46.79,2000 -122.04,46.80,2000 -122.03,46.81,2000 -122.03,46.83,2000 -122.03,46.84,2000 -122.02,46.86,2000 -122.02,46.87,2000 -122.02,46.89,2000 -122.01,46.90,2000 -122.01,46.92,2000 -121.86,47.01,2000 
          </coordinates>
        </LinearRing>
      </outerBoundaryIs>
  </Polygon>
 </MultiGeometry>
</Placemark>
<Placemark>
  <name>20%</name>
  <visibility>1</visibility>
  <styleUrl>#poly_20</styleUrl>
  <MultiGeometry>
    <Polygon>
      <outerBoundaryIs>
        <LinearRing>
          <coordinates>
-118.01,51.60,3000 -117.92,51.62,3000 -117.83,51.63,3000 -117.75,51.62,3000 -117.67,51.59,3000 -117.59,51.55,3000 -117.52,51.49,3000 -117.49,51.44,3000 -117.47,51.39,3000 -117.45,51.33,3000 -117.42,51.28,3000 -117.39,51.24,3000 -117.31,51.21,3000 -117.21,51.21,3000 -117.11,51.19,3000 -117.05,51.16,3000 -116.99,51.12,3000 -116.92,51.08,3000 -116.86,51.03,3000 -116.80,50.99,3000 -116.74,50.95,3000 -116.68,50.90,3000 -116.62,50.85,3000 -116.56,50.81,3000 -116.51,50.77,3000 -116.44,50.72,3000 -116.37,50.68,3000 -116.32,50.63,3000 -116.28,50.58,3000 -116.25,50.52,3000 -116.23,50.47,3000 -116.23,50.42,3000 -116.24,50.36,3000 -116.25,50.30,3000 -116.25,50.25,3000 -116.26,50.19,3000 -116.26,50.13,3000 -116.27,50.08,3000 -116.29,50.03,3000 -116.33,49.98,3000 -116.39,49.93,3000 -116.46,49.90,3000 -116.52,49.89,3000 -116.59,49.92,3000 -116.66,49.97,3000 -116.73,50.03,3000 -116.79,50.08,3000 -116.84,50.13,3000 -116.87,50.18,3000 -116.91,50.24,3000 -116.93,50.28,3000 -116.96,50.34,3000 -116.99,50.40,3000 -117.02,50.45,3000 -117.05,50.51,3000 -117.08,50.55,3000 -117.13,50.60,3000 -117.19,50.63,3000 -117.25,50.66,3000 -117.30,50.69,3000 -117.36,50.74,3000 -117.42,50.79,3000 -117.47,50.84,3000 -117.50,50.89,3000 -117.52,50.95,3000 -117.53,51.00,3000 -117.52,51.06,3000 -117.51,51.12,3000 -117.51,51.17,3000 -117.55,51.19,3000 -117.63,51.18,3000 -117.71,51.17,3000 -117.80,51.16,3000 -117.89,51.16,3000 -117.96,51.18,3000 -118.04,51.20,3000 -118.12,51.23,3000 -118.17,51.26,3000 -118.21,51.31,3000 -118.21,51.36,3000 -118.21,51.42,3000 -118.01,51.60,3000 
          </coordinates>
        </LinearRing>
      </outerBoundaryIs>
      <innerBoundaryIs>
        <LinearRing>
          <coordinates>
-118.00,51.55,4000 -117.98,51.55,4000 -117.96,51.55,4000 -117.93,51.56,4000 -117.91,51.56,4000 -117.89,51.56,4000 -117.87,51.56,4000 -117.85,51.56,4000 -117.83,51.56,4000 -117.81,51.56,4000 -117.79,51.56,4000 -117.77,51.56,4000 -117.76,51.56,4000 -117.74,51.56,4000 -117.72,51.56,4000 -117.70,51.55,4000 -117.68,51.55,4000 -117.66,51.54,4000 -117.65,51.53,4000 -117.63,51.52,4000 -117.62,51.51,4000 -117.61,51.50,4000 -117.60,51.49,4000 -117.60,51.48,4000 -117.59,51.47,4000 -117.59,51.46,4000 -117.59,51.44,4000 -117.59,51.43,4000 -117.59,51.41,4000 -117.59,51.40,4000 -117.60,51.38,4000 -117.60,51.37,4000 -117.60,51.35,4000 -117.60,51.34,4000 -117.61,51.33,4000 -117.61,51.32,4000 -117.61,51.30,4000 -117.62,51.29,4000 -117.62,51.28,4000 -117.64,51.28,4000 -117.66,51.27,4000 -117.67,51.27,4000 -117.69,51.26,4000 -117.70,51.25,4000 -117.72,51.25,4000 -117.74,51.24,4000 -117.76,51.24,4000 -117.78,51.23,4000 -117.80,51.22,4000 -117.83,51.22,4000 -117.85,51.22,4000 -117.87,51.21,4000 -117.88,51.21,4000 -117.90,51.21,4000 -117.92,51.21,4000 -117.94,51.21,4000 -117.96,51.22,4000 -117.98,51.22,4000 -118.00,51.23,4000 -118.01,51.23,4000 -118.03,51.24,4000 -118.04,51.25,4000 -118.06,51.26,4000 -118.07,51.27,4000 -118.08,51.28,4000 -118.09,51.29,4000 -118.09,51.30,4000 -118.10,51.31,4000 -118.10,51.32,4000 -118.11,51.33,4000 -118.11,51.35,4000 -118.12,51.36,4000 -118.12,51.37,4000 -118.12,51.39,4000 -118.12,51.40,4000 -118.13,51.42,4000 -118.13,51.43,4000 -118.00,51.55,4000 
          </coordinates>
        </LinearRing>
      </innerBoundaryIs>
      <innerBoundaryIs>
        <LinearRing>
          <coordinates>
-117.35,51.11,4000 -117.27,51.11,4000 -117.20,51.10,4000 -117.14,51.10,4000 -117.09,51.09,4000 -117.05,51.08,4000 -117.02,51.05,4000 -116.98,51.03,4000 -116.94,51.00,4000 -116.89,50.96,4000 -116.84,50.93,4000 -116.81,50.91,4000 -116.77,50.88,4000 -116.74,50.86,4000 -116.70,50.83,4000 -116.66,50.79,4000 -116.62,50.76,4000 -116.58,50.73,4000 -116.54,50.70,4000 -116.50,50.67,4000 -116.47,50.65,4000 -116.44,50.63,4000 -116.43,50.62,4000 -116.41,50.60,4000 -116.38,50.57,4000 -116.35,50.53,4000 -116.33,50.50,4000 -116.31,50.46,4000 -116.31,50.42,4000 -116.32,50.39,4000 -116.33,50.35,4000 -116.34,50.31,4000 -116.35,50.29,4000 -116.36,50.28,4000 -116.37,50.26,4000 -116.39,50.22,4000 -116.42,50.19,4000 -116.44,50.15,4000 -116.46,50.12,4000 -116.48,50.08,4000 -116.51,50.05,4000 -116.53,50.02,4000 -116.55,50.01,4000 -116.58,50.02,4000 -116.61,50.06,4000 -116.65,50.10,4000 -116.68,50.13,4000 -116.71,50.16,4000 -116.73,50.19,4000 -116.76,50.22,4000 -116.79,50.25,4000 -116.82,50.29,4000 -116.85,50.33,4000 -116.87,50.37,4000 -116.89,50.40,4000 -116.91,50.43,4000 -116.92,50.46,4000 -116.93,50.49,4000 -116.94,50.52,4000 -116.97,50.56,4000 -117.00,50.59,4000 -117.04,50.62,4000 -117.08,50.65,4000 -117.13,50.68,4000 -117.16,50.71,4000 -117.20,50.74,4000 -117.23,50.75,4000 -117.26,50.77,4000 -117.30,50.79,4000 -117.33,50.82,4000 -117.36,50.85,4000 -117.38,50.88,4000 -117.39,50.92,4000 -117.40,50.97,4000 -117.41,51.01,4000 -117.35,51.11,4000 
          </coordinates>
        </LinearRing>
      </innerBoundaryIs>
  </Polygon>
 </MultiGeometry>
</Placemark>
<Placemark>
  <name>20%</name>
  <visibility>1</visibility>
  <styleUrl>#poly_20</styleUrl>
  <MultiGeometry>
    <Polygon>
      <outerBoundaryIs>
        <LinearRing>
          <coordinates>
-116.48,51.80,3000 -116.42,51.81,3000 -116.36,51.81,3000 -116.29,51.81,3000 -116.23,51.82,3000 -116.17,51.82,3000 -116.12,51.82,3000 -116.06,51.81,3000 -116.01,51.81,3000 -115.94,51.80,3000 -115.88,51.78,3000 -115.82,51.77,3000 -115.76,51.74,3000 -115.71,51.72,3000 -115.66,51.70,3000 -115.61,51.67,3000 -115.56,51.64,3000 -115.52,51.61,3000 -115.48,51.57,3000 -115.45,51.54,3000 -115.42,51.51,3000 -115.39,51.48,3000 -115.37,51.45,3000 -115.36,51.41,3000 -115.36,51.38,3000 -115.38,51.35,3000 -115.41,51.31,3000 -115.45,51.27,3000 -115.49,51.24,3000 -115.52,51.20,3000 -115.55,51.16,3000 -115.59,51.13,3000 -115.62,51.09,3000 -115.65,51.05,3000 -115.65,51.02,3000 -115.63,50.99,3000 -115.59,50.96,3000 -115.54,50.94,3000 -115.49,50.91,3000 -115.46,50.88,3000 -115.44,50.84,3000 -115.42,50.80,3000 -115.41,50.76,3000 -115.40,50.73,3000 -115.42,50.71,3000 -115.45,50.71,3000 -115.49,50.72,3000 -115.55,50.74,3000 -115.61,50.77,3000 -115.66,50.79,3000 -115.71,50.82,3000 -115.75,50.85,3000 -115.78,50.88,3000 -115.82,50.91,3000 -115.85,50.95,3000 -115.89,50.98,3000 -115.93,51.00,3000 -115.98,51.02,3000 -116.04,51.02,3000 -116.11,51.03,3000 -116.17,51.03,3000 -116.23,51.04,3000 -116.29,51.06,3000 -116.33,51.08,3000 -116.37,51.11,3000 -116.41,51.14,3000 -116.45,51.17,3000 -116.48,51.20,3000 -116.52,51.23,3000 -116.55,51.26,3000 -116.60,51.29,3000 -116.64,51.32,3000 -116.69,51.35,3000 -116.73,51.38,3000 -116.76,51.41,3000 -116.80,51.45,3000 -116.84,51.48,3000 -116.86,51.52,3000 -116.87,51.56,3000 -116.86,51.59,3000 -116.84,51.63,3000 -116.81,51.66,3000 -116.77,51.70,3000 -116.73,51.73,3000 -116.48,51.80,3000 
          </coordinates>
        </LinearRing>
      </outerBoundaryIs>
      <innerBoundaryIs>
        <LinearRing>
          <coordinates>
-116.71,51.66,4000 -116.67,51.67,4000 -116.64,51.69,4000 -116.60,51.70,4000 -116.57,51.71,4000 -116.53,51.72,4000 -116.50,51.73,4000 -116.46,51.74,4000 -116.42,51.75,4000 -116.39,51.75,4000 -116.35,51.76,4000 -116.32,51.76,4000 -116.28,51.77,4000 -116.25,51.77,4000 -116.21,51.77,4000 -116.17,51.77,4000 -116.13,51.77,4000 -116.09,51.77,4000 -116.05,51.77,4000 -116.01,51.77,4000 -115.98,51.77,4000 -115.94,51.76,4000 -115.90,51.75,4000 -115.87,51.74,4000 -115.83,51.73,4000 -115.80,51.71,4000 -115.77,51.70,4000 -115.74,51.68,4000 -115.72,51.67,4000 -115.69,51.65,4000 -115.67,51.63,4000 -115.66,51.61,4000 -115.64,51.59,4000 -115.62,51.58,4000 -115.59,51.56,4000 -115.57,51.55,4000 -115.55,51.53,4000 -115.54,51.51,4000 -115.53,51.49,4000 -115.52,51.46,4000 -115.50,51.44,4000 -115.50,51.41,4000 -115.49,51.39,4000 -115.49,51.37,4000 -115.50,51.35,4000 -115.51,51.33,4000 -115.53,51.32,4000 -115.56,51.30,4000 -115.58,51.28,4000 -115.61,51.27,4000 -115.64,51.25,4000 -115.67,51.23,4000 -115.70,51.21,4000 -115.73,51.19,4000 -115.75,51.18,4000 -115.77,51.16,4000 -115.79,51.14,4000 -115.82,51.13,4000 -115.85,51.12,4000 -115.89,51.11,4000 -115.93,51.11,4000 -115.97,51.10,4000 -116.01,51.09,4000 -116.04,51.09,4000 -116.08,51.09,4000 -116.12,51.10,4000 -116.15,51.11,4000 -116.18,51.11,4000 -116.21,51.12,4000 -116.24,51.13,4000 -116.28,51.13,4000 -116.31,51.15,4000 -116.33,51.16,4000 -116.35,51.18,4000 -116.38,51.20,4000 -116.40,51.22,4000 -116.43,51.25,4000 -116.46,51.27,4000 -116.48,51.29,4000 -116.51,51.31,4000 -116.53,51.33,4000 -116.56,51.35,4000 -116.58,51.37,4000 -116.61,51.39,4000 -116.63,51.41,4000 -116.64,51.42,4000 -116.65,51.42,4000 -116.66,51.43,4000 -116.68,51.45,4000 -116.69,51.47,4000 -116.71,51.49,4000 -116.73,51.52,4000 -116.76,51.54,4000 -116.78,51.57,4000 -116.71,51.66,4000 
          </coordinates>
        </LinearRing>
      </innerBoundaryIs>
  </Polygon>
 </MultiGeometry>
</Placemark>
<Placemark>
  <name>30%</name>
  <visibility>1</visibility>
  <styleUrl>#poly_30</styleUrl>
  <MultiGeometry>
    <Polygon>
      <outerBoundaryIs>
        <LinearRing>
          <coordinates>
-118.00,51.55,4000 -117.98,51.55,4000 -117.96,51.55,4000 -117.93,51.56,4000 -117.91,51.56,4000 -117.89,51.56,4000 -117.87,51.56,4000 -117.85,51.56,4000 -117.83,51.56,4000 -117.81,51.56,4000 -117.79,51.56,4000 -117.77,51.56,4000 -117.76,51.56,4000 -117.74,51.56,4000 -117.72,51.56,4000 -117.70,51.55,4000 -117.68,51.55,4000 -117.66,51.54,4000 -117.65,51.53,4000 -117.63,51.52,4000 -117.62,51.51,4000 -117.61,51.50,4000 -117.60,51.49,4000 -117.60,51.48,4000 -117.59,51.47,4000 -117.59,51.46,4000 -117.59,51.44,4000 -117.59,51.43,4000 -117.59,51.41,4000 -117.59,51.40,4000 -117.60,51.38,4000 -117.60,51.37,4000 -117.60,51.35,4000 -117.60,51.34,4000 -117.61,51.33,4000 -117.61,51.32,4000 -117.61,51.30,4000 -117.62,51.29,4000 -117.62,51.28,4000 -117.64,51.28,4000 -117.66,51.27,4000 -117.67,51.27,4000 -117.69,51.26,4000 -117.70,51.25,4000 -117.72,51.25,4000 -117.74,51.24,4000 -117.76,51.24,4000 -117.78,51.23,4000 -117.80,51.22,4000 -117.83,51.22,4000 -117.85,51.22,4000 -117.87,51.21,4000 -117.88,51.21,4000 -117.90,51.21,4000 -117.92,51.21,4000 -117.94,51.21,4000 -117.96,51.22,4000 -117.98,51.22,4000 -118.00,51.23,4000 -118.01,51.23,4000 -118.03,51.24,4000 -118.04,51.25,4000 -118.06,51.26,4000 -118.07,51.27,4000 -118.08,51.28,4000 -118.09,51.29,4000 -118.09,51.30,4000 -118.10,51.31,4000 -118.10,51.32,4000 -118.11,51.33,4000 -118.11,51.35,4000 -118.12,51.36,4000 -118.12,51.37,4000 -118.12,51.39,4000 -118.12,51.40,4000 -118.13,51.42,4000 -118.13,51.43,4000 -118.00,51.55,4000 
          </coordinates>
        </LinearRing>
      </outerBoundaryIs>
      <innerBoundaryIs>
        <LinearRing>
          <coordinates>
-117.98,51.50,5000 -117.96,51.50,5000 -117.95,51.50,5000 -117.93,51.50,5000 -117.91,51.50,5000 -117.90,51.50,5000 -117.88,51.50,5000 -117.87,51.50,5000 -117.85,51.50,5000 -117.84,51.50,5000 -117.82,51.50,5000 -117.81,51.50,5000 -117.79,51.50,5000 -117.78,51.50,5000 -117.77,51.50,5000 -117.76,51.50,5000 -117.75,51.50,5000 -117.74,51.50,5000 -117.73,51.50,5000 -117.72,51.50,5000 -117.69,51.50,5000 -117.68,51.49,5000 -117.68,51.49,5000 -117.68,51.48,5000 -117.68,51.47,5000 -117.68,51.47,5000 -117.68,51.46,5000 -117.67,51.45,5000 -117.67,51.45,5000 -117.68,51.44,5000 -117.68,51.43,5000 -117.68,51.42,5000 -117.69,51.41,5000 -117.69,51.40,5000 -117.70,51.40,5000 -117.71,51.39,5000 -117.71,51.38,5000 -117.72,51.38,5000 -117.73,51.37,5000 -117.74,51.36,5000 -117.75,51.35,5000 -117.76,51.34,5000 -117.77,51.34,5000 -117.78,51.33,5000 -117.79,51.32,5000 -117.80,51.32,5000 -117.80,51.31,5000 -117.81,51.30,5000 -117.82,51.30,5000 -117.83,51.29,5000 -117.85,51.29,5000 -117.86,51.28,5000 -117.87,51.28,5000 -117.88,51.28,5000 -117.89,51.27,5000 -117.90,51.27,5000 -117.91,51.27,5000 -117.92,51.27,5000 -117.93,51.27,5000 -117.94,51.26,5000 -117.95,51.27,5000 -117.96,51.28,5000 -117.96,51.28,5000 -117.97,51.29,5000 -117.97,51.30,5000 -117.97,51.30,5000 -117.98,51.31,5000 -117.98,51.31,5000 -117.99,51.32,5000 -117.99,51.33,5000 -118.00,51.34,5000 -118.00,51.35,5000 -118.00,51.35,5000 -118.01,51.36,5000 -118.01,51.37,5000 -118.02,51.38,5000 -118.02,51.39,5000 -118.03,51.40,5000 -118.03,51.41,5000 -118.04,51.42,5000 -118.04,51.43,5000 -118.05,51.44,5000 -117.98,51.50,5000 
          </coordinates>
        </LinearRing>
      </innerBoundaryIs>
  </Polygon>
 </MultiGeometry>
</Placemark>
<Placemark>
  <name>30%</name>
  <visibility>1</visibility>
  <styleUrl>#poly_30</styleUrl>
  <MultiGeometry>
    <Polygon>
      <outerBoundaryIs>
        <LinearRing>
          <coordinates>
-117.35,51.11,4000 -117.27,51.11,4000 -117.20,51.10,4000 -117.14,51.10,4000 -117.09,51.09,4000 -117.05,51.08,4000 -117.02,51.05,4000 -116.98,51.03,4000 -116.94,51.00,4000 -116.89,50.96,4000 -116.84,50.93,4000 -116.81,50.91,4000 -116.77,50.88,4000 -116.74,50.86,4000 -116.70,50.83,4000 -116.66,50.79,4000 -116.62,50.76,4000 -116.58,50.73,4000 -116.54,50.70,4000 -116.50,50.67,4000 -116.47,50.65,4000 -116.44,50.63,4000 -116.43,50.62,4000 -116.41,50.60,4000 -116.38,50.57,4000 -116.35,50.53,4000 -116.33,50.50,4000 -116.31,50.46,4000 -116.31,50.42,4000 -116.32,50.39,4000 -116.33,50.35,4000 -116.34,50.31,4000 -116.35,50.29,4000 -116.36,50.28,4000 -116.37,50.26,4000 -116.39,50.22,4000 -116.42,50.19,4000 -116.44,50.15,4000 -116.46,50.12,4000 -116.48,50.08,4000 -116.51,50.05,4000 -116.53,50.02,4000 -116.55,50.01,4000 -116.58,50.02,4000 -116.61,50.06,4000 -116.65,50.10,4000 -116.68,50.13,4000 -116.71,50.16,4000 -116.73,50.19,4000 -116.76,50.22,4000 -116.79,50.25,4000 -116.82,50.29,4000 -116.85,50.33,4000 -116.87,50.37,4000 -116.89,50.40,4000 -116.91,50.43,4000 -116.92,50.46,4000 -116.93,50.49,4000 -116.94,50.52,4000 -116.97,50.56,4000 -117.00,50.59,4000 -117.04,50.62,4000 -117.08,50.65,4000 -117.13,50.68,4000 -117.16,50.71,4000 -117.20,50.74,4000 -117.23,50.75,4000 -117.26,50.77,4000 -117.30,50.79,4000 -117.33,50.82,4000 -117.36,50.85,4000 -117.38,50.88,4000 -117.39,50.92,4000 -117.40,50.97,4000 -117.41,51.01,4000 -117.35,51.11,4000 
          </coordinates>
        </LinearRing>
      </outerBoundaryIs>
      <innerBoundaryIs>
        <LinearRing>
          <coordinates>
-117.05,50.97,5000 -117.03,50.96,5000 -117.00,50.94,5000 -116.97,50.92,5000 -116.94,50.90,5000 -116.91,50.88,5000 -116.88,50.86,5000 -116.85,50.84,5000 -116.82,50.81,5000 -116.79,50.79,5000 -116.76,50.77,5000 -116.74,50.76,5000 -116.73,50.75,5000 -116.72,50.74,5000 -116.70,50.72,5000 -116.67,50.69,5000 -116.65,50.67,5000 -116.62,50.65,5000 -116.59,50.62,5000 -116.57,50.60,5000 -116.54,50.57,5000 -116.51,50.55,5000 -116.47,50.52,5000 -116.44,50.50,5000 -116.42,50.48,5000 -116.40,50.46,5000 -116.40,50.45,5000 -116.41,50.43,5000 -116.42,50.41,5000 -116.44,50.39,5000 -116.46,50.36,5000 -116.48,50.33,5000 -116.49,50.30,5000 -116.51,50.28,5000 -116.53,50.25,5000 -116.54,50.22,5000 -116.56,50.20,5000 -116.57,50.18,5000 -116.59,50.17,5000 -116.61,50.18,5000 -116.64,50.20,5000 -116.66,50.23,5000 -116.69,50.26,5000 -116.71,50.28,5000 -116.73,50.30,5000 -116.74,50.33,5000 -116.76,50.36,5000 -116.78,50.38,5000 -116.79,50.41,5000 -116.80,50.44,5000 -116.80,50.47,5000 -116.80,50.50,5000 -116.80,50.53,5000 -116.81,50.56,5000 -116.82,50.58,5000 -116.85,50.61,5000 -116.88,50.63,5000 -116.92,50.65,5000 -116.95,50.66,5000 -116.98,50.68,5000 -117.00,50.70,5000 -117.03,50.72,5000 -117.05,50.74,5000 -117.07,50.75,5000 -117.10,50.77,5000 -117.13,50.80,5000 -117.16,50.82,5000 -117.19,50.84,5000 -117.22,50.87,5000 -117.05,50.97,5000 
          </coordinates>
        </LinearRing>
      </innerBoundaryIs>
  </Polygon>
 </MultiGeometry>
</Placemark>
<Placemark>
  <name>30%</name>
  <visibility>1</visibility>
  <styleUrl>#poly_30</styleUrl>
  <MultiGeometry>
    <Polygon>
      <outerBoundaryIs>
        <LinearRing>
          <coordinates>
-116.71,51.66,4000 -116.67,51.67,4000 -116.64,51.69,4000 -116.60,51.70,4000 -116.57,51.71,4000 -116.53,51.72,4000 -116.50,51.73,4000 -116.46,51.74,4000 -116.42,51.75,4000 -116.39,51.75,4000 -116.35,51.76,4000 -116.32,51.76,4000 -116.28,51.77,4000 -116.25,51.77,4000 -116.21,51.77,4000 -116.17,51.77,4000 -116.13,51.77,4000 -116.09,51.77,4000 -116.05,51.77,4000 -116.01,51.77,4000 -115.98,51.77,4000 -115.94,51.76,4000 -115.90,51.75,4000 -115.87,51.74,4000 -115.83,51.73,4000 -115.80,51.71,4000 -115.77,51.70,4000 -115.74,51.68,4000 -115.72,51.67,4000 -115.69,51.65,4000 -115.67,51.63,4000 -115.66,51.61,4000 -115.64,51.59,4000 -115.62,51.58,4000 -115.59,51.56,4000 -115.57,51.55,4000 -115.55,51.53,4000 -115.54,51.51,4000 -115.53,51.49,4000 -115.52,51.46,4000 -115.50,51.44,4000 -115.50,51.41,4000 -115.49,51.39,4000 -115.49,51.37,4000 -115.50,51.35,4000 -115.51,51.33,4000 -115.53,51.32,4000 -115.56,51.30,4000 -115.58,51.28,4000 -115.61,51.27,4000 -115.64,51.25,4000 -115.67,51.23,4000 -115.70,51.21,4000 -115.73,51.19,4000 -115.75,51.18,4000 -115.77,51.16,4000 -115.79,51.14,4000 -115.82,51.13,4000 -115.85,51.12,4000 -115.89,51.11,4000 -115.93,51.11,4000 -115.97,51.10,4000 -116.01,51.09,4000 -116.04,51.09,4000 -116.08,51.09,4000 -116.12,51.10,4000 -116.15,51.11,4000 -116.18,51.11,4000 -116.21,51.12,4000 -116.24,51.13,4000 -116.28,51.13,4000 -116.31,51.15,4000 -116.33,51.16,4000 -116.35,51.18,4000 -116.38,51.20,4000 -116.40,51.22,4000 -116.43,51.25,4000 -116.46,51.27,4000 -116.48,51.29,4000 -116.51,51.31,4000 -116.53,51.33,4000 -116.56,51.35,4000 -116.58,51.37,4000 -116.61,51.39,4000 -116.63,51.41,4000 -116.64,51.42,4000 -116.65,51.42,4000 -116.66,51.43,4000 -116.68,51.45,4000 -116.69,51.47,4000 -116.71,51.49,4000 -116.73,51.52,4000 -116.76,51.54,4000 -116.78,51.57,4000 -116.71,51.66,4000 
          </coordinates>
        </LinearRing>
      </outerBoundaryIs>
      <innerBoundaryIs>
        <LinearRing>
          <coordinates>
-116.69,51.59,5000 -116.66,51.60,5000 -116.64,51.62,5000 -116.61,51.63,5000 -116.58,51.65,5000 -116.56,51.66,5000 -116.53,51.67,5000 -116.50,51.68,5000 -116.48,51.69,5000 -116.45,51.70,5000 -116.42,51.71,5000 -116.39,51.71,5000 -116.36,51.72,5000 -116.33,51.72,5000 -116.30,51.73,5000 -116.26,51.73,5000 -116.23,51.73,5000 -116.20,51.73,5000 -116.17,51.73,5000 -116.14,51.73,5000 -116.11,51.73,5000 -116.07,51.73,5000 -116.04,51.73,5000 -116.01,51.73,5000 -115.98,51.73,5000 -115.95,51.72,5000 -115.93,51.72,5000 -115.90,51.71,5000 -115.87,51.71,5000 -115.85,51.70,5000 -115.83,51.69,5000 -115.80,51.67,5000 -115.78,51.66,5000 -115.76,51.64,5000 -115.74,51.63,5000 -115.72,51.61,5000 -115.70,51.59,5000 -115.68,51.58,5000 -115.67,51.56,5000 -115.65,51.54,5000 -115.64,51.52,5000 -115.63,51.50,5000 -115.63,51.48,5000 -115.62,51.46,5000 -115.62,51.44,5000 -115.62,51.42,5000 -115.62,51.40,5000 -115.63,51.38,5000 -115.63,51.37,5000 -115.64,51.35,5000 -115.65,51.33,5000 -115.67,51.32,5000 -115.69,51.30,5000 -115.71,51.29,5000 -115.73,51.27,5000 -115.76,51.26,5000 -115.78,51.25,5000 -115.81,51.24,5000 -115.83,51.23,5000 -115.86,51.22,5000 -115.89,51.21,5000 -115.91,51.20,5000 -115.94,51.19,5000 -115.97,51.19,5000 -116.00,51.18,5000 -116.03,51.18,5000 -116.06,51.18,5000 -116.09,51.18,5000 -116.12,51.19,5000 -116.15,51.20,5000 -116.18,51.21,5000 -116.21,51.22,5000 -116.25,51.23,5000 -116.27,51.24,5000 -116.30,51.25,5000 -116.32,51.26,5000 -116.34,51.27,5000 -116.36,51.28,5000 -116.37,51.29,5000 -116.39,51.30,5000 -116.41,51.32,5000 -116.43,51.33,5000 -116.45,51.35,5000 -116.47,51.36,5000 -116.49,51.38,5000 -116.51,51.40,5000 -116.53,51.41,5000 -116.55,51.43,5000 -116.57,51.45,5000 -116.59,51.47,5000 -116.61,51.49,5000 -116.63,51.51,5000 -116.64,51.53,5000 -116.66,51.54,5000 -116.67,51.56,5000 -116.68,51.57,5000 -116.69,51.58,5000 -116.69,51.59,5000 
          </coordinates>
        </LinearRing>
      </innerBoundaryIs>
  </Polygon>
 </MultiGeometry>
</Placemark>
<Placemark>
  <name>40%</name>
  <visibility>1</visibility>
  <styleUrl>#poly_40</styleUrl>
  <MultiGeometry>
    <Polygon>
      <outerBoundaryIs>
        <LinearRing>
          <coordinates>
-116.69,51.59,5000 -116.66,51.60,5000 -116.64,51.62,5000 -116.61,51.63,5000 -116.58,51.65,5000 -116.56,51.66,5000 -116.53,51.67,5000 -116.50,51.68,5000 -116.48,51.69,5000 -116.45,51.70,5000 -116.42,51.71,5000 -116.39,51.71,5000 -116.36,51.72,5000 -116.33,51.72,5000 -116.30,51.73,5000 -116.26,51.73,5000 -116.23,51.73,5000 -116.20,51.73,5000 -116.17,51.73,5000 -116.14,51.73,5000 -116.11,51.73,5000 -116.07,51.73,5000 -116.04,51.73,5000 -116.01,51.73,5000 -115.98,51.73,5000 -115.95,51.72,5000 -115.93,51.72,5000 -115.90,51.71,5000 -115.87,51.71,5000 -115.85,51.70,5000 -115.83,51.69,5000 -115.80,51.67,5000 -115.78,51.66,5000 -115.76,51.64,5000 -115.74,51.63,5000 -115.72,51.61,5000 -115.70,51.59,5000 -115.68,51.58,5000 -115.67,51.56,5000 -115.65,51.54,5000 -115.64,51.52,5000 -115.63,51.50,5000 -115.63,51.48,5000 -115.62,51.46,5000 -115.62,51.44,5000 -115.62,51.42,5000 -115.62,51.40,5000 -115.63,51.38,5000 -115.63,51.37,5000 -115.64,51.35,5000 -115.65,51.33,5000 -115.67,51.32,5000 -115.69,51.30,5000 -115.71,51.29,5000 -115.73,51.27,5000 -115.76,51.26,5000 -115.78,51.25,5000 -115.81,51.24,5000 -115.83,51.23,5000 -115.86,51.22,5000 -115.89,51.21,5000 -115.91,51.20,5000 -115.94,51.19,5000 -115.97,51.19,5000 -116.00,51.18,5000 -116.03,51.18,5000 -116.06,51.18,5000 -116.09,51.18,5000 -116.12,51.19,5000 -116.15,51.20,5000 -116.18,51.21,5000 -116.21,51.22,5000 -116.25,51.23,5000 -116.27,51.24,5000 -116.30,51.25,5000 -116.32,51.26,5000 -116.34,51.27,5000 -116.36,51.28,5000 -116.37,51.29,5000 -116.39,51.30,5000 -116.41,51.32,5000 -116.43,51.33,5000 -116.45,51.35,5000 -116.47,51.36,5000 -116.49,51.38,5000 -116.51,51.40,5000 -116.53,51.41,5000 -116.55,51.43,5000 -116.57,51.45,5000 -116.59,51.47,5000 -116.61,51.49,5000 -116.63,51.51,5000 -116.64,51.53,5000 -116.66,51.54,5000 -116.67,51.56,5000 -116.68,51.57,5000 -116.69,51.58,5000 -116.69,51.59,5000 
          </coordinates>
        </LinearRing>
      </outerBoundaryIs>
      <innerBoundaryIs>
        <LinearRing>
          <coordinates>
-116.44,51.65,6000 -116.42,51.66,6000 -116.39,51.66,6000 -116.37,51.67,6000 -116.34,51.67,6000 -116.32,51.67,6000 -116.29,51.68,6000 -116.27,51.68,6000 -116.24,51.69,6000 -116.22,51.69,6000 -116.19,51.69,6000 -116.17,51.69,6000 -116.14,51.69,6000 -116.11,51.69,6000 -116.08,51.69,6000 -116.06,51.69,6000 -116.03,51.69,6000 -116.00,51.69,6000 -115.98,51.68,6000 -115.96,51.68,6000 -115.94,51.68,6000 -115.92,51.68,6000 -115.89,51.68,6000 -115.88,51.66,6000 -115.87,51.65,6000 -115.86,51.64,6000 -115.84,51.63,6000 -115.82,51.62,6000 -115.81,51.60,6000 -115.79,51.59,6000 -115.77,51.57,6000 -115.76,51.56,6000 -115.75,51.54,6000 -115.74,51.52,6000 -115.73,51.51,6000 -115.73,51.49,6000 -115.73,51.48,6000 -115.73,51.46,6000 -115.74,51.44,6000 -115.74,51.43,6000 -115.75,51.41,6000 -115.76,51.39,6000 -115.77,51.38,6000 -115.78,51.36,6000 -115.78,51.35,6000 -115.79,51.34,6000 -115.80,51.32,6000 -115.80,51.32,6000 -115.83,51.31,6000 -115.85,51.31,6000 -115.86,51.30,6000 -115.89,51.30,6000 -115.91,51.29,6000 -115.94,51.28,6000 -115.96,51.28,6000 -115.99,51.27,6000 -116.02,51.27,6000 -116.04,51.26,6000 -116.06,51.26,6000 -116.08,51.26,6000 -116.11,51.26,6000 -116.13,51.27,6000 -116.14,51.27,6000 -116.16,51.28,6000 -116.18,51.29,6000 -116.20,51.30,6000 -116.22,51.31,6000 -116.24,51.32,6000 -116.26,51.32,6000 -116.29,51.33,6000 -116.31,51.34,6000 -116.33,51.35,6000 -116.35,51.36,6000 -116.37,51.37,6000 -116.39,51.38,6000 -116.41,51.39,6000 -116.42,51.40,6000 -116.43,51.41,6000 -116.44,51.42,6000 -116.46,51.44,6000 -116.47,51.45,6000 -116.48,51.46,6000 -116.49,51.47,6000 -116.50,51.49,6000 -116.51,51.50,6000 -116.52,51.51,6000 -116.53,51.53,6000 -116.54,51.54,6000 -116.55,51.56,6000 -116.56,51.57,6000 -116.57,51.59,6000 -116.44,51.65,6000 
          </coordinates>
        </LinearRing>
      </innerBoundaryIs>
  </Polygon>
 </MultiGeometry>
</Placemark>
<Placemark>
  <name>40%</name>
  <visibility>1</visibility>
  <styleUrl>#poly_40</styleUrl>
  <MultiGeometry>
    <Polygon>
      <outerBoundaryIs>
        <LinearRing>
          <coordinates>
-117.98,51.50,5000 -117.96,51.50,5000 -117.95,51.50,5000 -117.93,51.50,5000 -117.91,51.50,5000 -117.90,51.50,5000 -117.88,51.50,5000 -117.87,51.50,5000 -117.85,51.50,5000 -117.84,51.50,5000 -117.82,51.50,5000 -117.81,51.50,5000 -117.79,51.50,5000 -117.78,51.50,5000 -117.77,51.50,5000 -117.76,51.50,5000 -117.75,51.50,5000 -117.74,51.50,5000 -117.73,51.50,5000 -117.72,51.50,5000 -117.69,51.50,5000 -117.68,51.49,5000 -117.68,51.49,5000 -117.68,51.48,5000 -117.68,51.47,5000 -117.68,51.47,5000 -117.68,51.46,5000 -117.67,51.45,5000 -117.67,51.45,5000 -117.68,51.44,5000 -117.68,51.43,5000 -117.68,51.42,5000 -117.69,51.41,5000 -117.69,51.40,5000 -117.70,51.40,5000 -117.71,51.39,5000 -117.71,51.38,5000 -117.72,51.38,5000 -117.73,51.37,5000 -117.74,51.36,5000 -117.75,51.35,5000 -117.76,51.34,5000 -117.77,51.34,5000 -117.78,51.33,5000 -117.79,51.32,5000 -117.80,51.32,5000 -117.80,51.31,5000 -117.81,51.30,5000 -117.82,51.30,5000 -117.83,51.29,5000 -117.85,51.29,5000 -117.86,51.28,5000 -117.87,51.28,5000 -117.88,51.28,5000 -117.89,51.27,5000 -117.90,51.27,5000 -117.91,51.27,5000 -117.92,51.27,5000 -117.93,51.27,5000 -117.94,51.26,5000 -117.95,51.27,5000 -117.96,51.28,5000 -117.96,51.28,5000 -117.97,51.29,5000 -117.97,51.30,5000 -117.97,51.30,5000 -117.98,51.31,5000 -117.98,51.31,5000 -117.99,51.32,5000 -117.99,51.33,5000 -118.00,51.34,5000 -118.00,51.35,5000 -118.00,51.35,5000 -118.01,51.36,5000 -118.01,51.37,5000 -118.02,51.38,5000 -118.02,51.39,5000 -118.03,51.40,5000 -118.03,51.41,5000 -118.04,51.42,5000 -118.04,51.43,5000 -118.05,51.44,5000 -117.98,51.50,5000 
          </coordinates>
        </LinearRing>
      </outerBoundaryIs>
  </Polygon>
 </MultiGeometry>
</Placemark>
<Placemark>
  <name>40%</name>
  <visibility>1</visibility>
  <styleUrl>#poly_40</styleUrl>
  <MultiGeometry>
    <Polygon>
      <outerBoundaryIs>
        <LinearRing>
          <coordinates>
-117.05,50.97,5000 -117.03,50.96,5000 -117.00,50.94,5000 -116.97,50.92,5000 -116.94,50.90,5000 -116.91,50.88,5000 -116.88,50.86,5000 -116.85,50.84,5000 -116.82,50.81,5000 -116.79,50.79,5000 -116.76,50.77,5000 -116.74,50.76,5000 -116.73,50.75,5000 -116.72,50.74,5000 -116.70,50.72,5000 -116.67,50.69,5000 -116.65,50.67,5000 -116.62,50.65,5000 -116.59,50.62,5000 -116.57,50.60,5000 -116.54,50.57,5000 -116.51,50.55,5000 -116.47,50.52,5000 -116.44,50.50,5000 -116.42,50.48,5000 -116.40,50.46,5000 -116.40,50.45,5000 -116.41,50.43,5000 -116.42,50.41,5000 -116.44,50.39,5000 -116.46,50.36,5000 -116.48,50.33,5000 -116.49,50.30,5000 -116.51,50.28,5000 -116.53,50.25,5000 -116.54,50.22,5000 -116.56,50.20,5000 -116.57,50.18,5000 -116.59,50.17,5000 -116.61,50.18,5000 -116.64,50.20,5000 -116.66,50.23,5000 -116.69,50.26,5000 -116.71,50.28,5000 -116.73,50.30,5000 -116.74,50.33,5000 -116.76,50.36,5000 -116.78,50.38,5000 -116.79,50.41,5000 -116.80,50.44,5000 -116.80,50.47,5000 -116.80,50.50,5000 -116.80,50.53,5000 -116.81,50.56,5000 -116.82,50.58,5000 -116.85,50.61,5000 -116.88,50.63,5000 -116.92,50.65,5000 -116.95,50.66,5000 -116.98,50.68,5000 -117.00,50.70,5000 -117.03,50.72,5000 -117.05,50.74,5000 -117.07,50.75,5000 -117.10,50.77,5000 -117.13,50.80,5000 -117.16,50.82,5000 -117.19,50.84,5000 -117.22,50.87,5000 -117.05,50.97,5000 
          </coordinates>
        </LinearRing>
      </outerBoundaryIs>
  </Polygon>
 </MultiGeometry>
</Placemark>
<Placemark>
  <name>50%</name>
  <visibility>1</visibility>
  <styleUrl>#poly_50</styleUrl>
  <MultiGeometry>
    <Polygon>
      <outerBoundaryIs>
        <LinearRing>
          <coordinates>
-116.44,51.65,6000 -116.42,51.66,6000 -116.39,51.66,6000 -116.37,51.67,6000 -116.34,51.67,6000 -116.32,51.67,6000 -116.29,51.68,6000 -116.27,51.68,6000 -116.24,51.69,6000 -116.22,51.69,6000 -116.19,51.69,6000 -116.17,51.69,6000 -116.14,51.69,6000 -116.11,51.69,6000 -116.08,51.69,6000 -116.06,51.69,6000 -116.03,51.69,6000 -116.00,51.69,6000 -115.98,51.68,6000 -115.96,51.68,6000 -115.94,51.68,6000 -115.92,51.68,6000 -115.89,51.68,6000 -115.88,51.66,6000 -115.87,51.65,6000 -115.86,51.64,6000 -115.84,51.63,6000 -115.82,51.62,6000 -115.81,51.60,6000 -115.79,51.59,6000 -115.77,51.57,6000 -115.76,51.56,6000 -115.75,51.54,6000 -115.74,51.52,6000 -115.73,51.51,6000 -115.73,51.49,6000 -115.73,51.48,6000 -115.73,51.46,6000 -115.74,51.44,6000 -115.74,51.43,6000 -115.75,51.41,6000 -115.76,51.39,6000 -115.77,51.38,6000 -115.78,51.36,6000 -115.78,51.35,6000 -115.79,51.34,6000 -115.80,51.32,6000 -115.80,51.32,6000 -115.83,51.31,6000 -115.85,51.31,6000 -115.86,51.30,6000 -115.89,51.30,6000 -115.91,51.29,6000 -115.94,51.28,6000 -115.96,51.28,6000 -115.99,51.27,6000 -116.02,51.27,6000 -116.04,51.26,6000 -116.06,51.26,6000 -116.08,51.26,6000 -116.11,51.26,6000 -116.13,51.27,6000 -116.14,51.27,6000 -116.16,51.28,6000 -116.18,51.29,6000 -116.20,51.30,6000 -116.22,51.31,6000 -116.24,51.32,6000 -116.26,51.32,6000 -116.29,51.33,6000 -116.31,51.34,6000 -116.33,51.35,6000 -116.35,51.36,6000 -116.37,51.37,6000 -116.39,51.38,6000 -116.41,51.39,6000 -116.42,51.40,6000 -116.43,51.41,6000 -116.44,51.42,6000 -116.46,51.44,6000 -116.47,51.45,6000 -116.48,51.46,6000 -116.49,51.47,6000 -116.50,51.49,6000 -116.51,51.50,6000 -116.52,51.51,6000 -116.53,51.53,6000 -116.54,51.54,6000 -116.55,51.56,6000 -116.56,51.57,6000 -116.57,51.59,6000 -116.44,51.65,6000 
          </coordinates>
        </LinearRing>
      </outerBoundaryIs>
      <innerBoundaryIs>
        <LinearRing>
          <coordinates>
-116.43,51.61,7000 -116.41,51.61,7000 -116.39,51.62,7000 -116.37,51.62,7000 -116.35,51.63,7000 -116.33,51.63,7000 -116.31,51.64,7000 -116.30,51.64,7000 -116.28,51.65,7000 -116.26,51.65,7000 -116.24,51.65,7000 -116.23,51.65,7000 -116.21,51.66,7000 -116.19,51.66,7000 -116.18,51.66,7000 -116.16,51.66,7000 -116.14,51.66,7000 -116.12,51.66,7000 -116.11,51.66,7000 -116.09,51.65,7000 -116.07,51.65,7000 -116.06,51.65,7000 -116.05,51.64,7000 -116.03,51.64,7000 -116.01,51.64,7000 -116.00,51.63,7000 -115.98,51.63,7000 -115.97,51.62,7000 -115.95,51.62,7000 -115.94,51.61,7000 -115.93,51.60,7000 -115.91,51.60,7000 -115.90,51.59,7000 -115.89,51.58,7000 -115.88,51.57,7000 -115.87,51.57,7000 -115.85,51.56,7000 -115.84,51.55,7000 -115.83,51.54,7000 -115.83,51.53,7000 -115.82,51.52,7000 -115.81,51.51,7000 -115.81,51.50,7000 -115.81,51.49,7000 -115.81,51.48,7000 -115.81,51.46,7000 -115.81,51.45,7000 -115.81,51.44,7000 -115.82,51.43,7000 -115.83,51.42,7000 -115.85,51.41,7000 -115.86,51.40,7000 -115.87,51.40,7000 -115.89,51.39,7000 -115.90,51.39,7000 -115.92,51.38,7000 -115.93,51.38,7000 -115.95,51.37,7000 -115.97,51.37,7000 -115.99,51.36,7000 -116.01,51.36,7000 -116.03,51.35,7000 -116.05,51.35,7000 -116.07,51.35,7000 -116.08,51.35,7000 -116.10,51.35,7000 -116.12,51.35,7000 -116.13,51.35,7000 -116.15,51.36,7000 -116.17,51.36,7000 -116.18,51.37,7000 -116.20,51.37,7000 -116.22,51.38,7000 -116.24,51.39,7000 -116.25,51.40,7000 -116.27,51.40,7000 -116.29,51.41,7000 -116.30,51.42,7000 -116.31,51.43,7000 -116.33,51.43,7000 -116.34,51.44,7000 -116.35,51.45,7000 -116.36,51.46,7000 -116.37,51.47,7000 -116.38,51.48,7000 -116.39,51.50,7000 -116.39,51.51,7000 -116.40,51.52,7000 -116.40,51.53,7000 -116.41,51.54,7000 -116.41,51.55,7000 -116.41,51.56,7000 -116.42,51.57,7000 -116.42,51.58,7000 -116.43,51.60,7000 -116.44,51.60,7000 -116.43,51.61,7000 
          </coordinates>
        </LinearRing>
      </innerBoundaryIs>
  </Polygon>
 </MultiGeometry>
</Placemark>
<Placemark>
  <name>60%</name>
  <visibility>1</visibility>
  <styleUrl>#poly_60</styleUrl>
  <MultiGeometry>
    <Polygon>
      <outerBoundaryIs>
        <LinearRing>
          <coordinates>
-116.43,51.61,7000 -116.41,51.61,7000 -116.39,51.62,7000 -116.37,51.62,7000 -116.35,51.63,7000 -116.33,51.63,7000 -116.31,51.64,7000 -116.30,51.64,7000 -116.28,51.65,7000 -116.26,51.65,7000 -116.24,51.65,7000 -116.23,51.65,7000 -116.21,51.66,7000 -116.19,51.66,7000 -116.18,51.66,7000 -116.16,51.66,7000 -116.14,51.66,7000 -116.12,51.66,7000 -116.11,51.66,7000 -116.09,51.65,7000 -116.07,51.65,7000 -116.06,51.65,7000 -116.05,51.64,7000 -116.03,51.64,7000 -116.01,51.64,7000 -116.00,51.63,7000 -115.98,51.63,7000 -115.97,51.62,7000 -115.95,51.62,7000 -115.94,51.61,7000 -115.93,51.60,7000 -115.91,51.60,7000 -115.90,51.59,7000 -115.89,51.58,7000 -115.88,51.57,7000 -115.87,51.57,7000 -115.85,51.56,7000 -115.84,51.55,7000 -115.83,51.54,7000 -115.83,51.53,7000 -115.82,51.52,7000 -115.81,51.51,7000 -115.81,51.50,7000 -115.81,51.49,7000 -115.81,51.48,7000 -115.81,51.46,7000 -115.81,51.45,7000 -115.81,51.44,7000 -115.82,51.43,7000 -115.83,51.42,7000 -115.85,51.41,7000 -115.86,51.40,7000 -115.87,51.40,7000 -115.89,51.39,7000 -115.90,51.39,7000 -115.92,51.38,7000 -115.93,51.38,7000 -115.95,51.37,7000 -115.97,51.37,7000 -115.99,51.36,7000 -116.01,51.36,7000 -116.03,51.35,7000 -116.05,51.35,7000 -116.07,51.35,7000 -116.08,51.35,7000 -116.10,51.35,7000 -116.12,51.35,7000 -116.13,51.35,7000 -116.15,51.36,7000 -116.17,51.36,7000 -116.18,51.37,7000 -116.20,51.37,7000 -116.22,51.38,7000 -116.24,51.39,7000 -116.25,51.40,7000 -116.27,51.40,7000 -116.29,51.41,7000 -116.30,51.42,7000 -116.31,51.43,7000 -116.33,51.43,7000 -116.34,51.44,7000 -116.35,51.45,7000 -116.36,51.46,7000 -116.37,51.47,7000 -116.38,51.48,7000 -116.39,51.50,7000 -116.39,51.51,7000 -116.40,51.52,7000 -116.40,51.53,7000 -116.41,51.54,7000 -116.41,51.55,7000 -116.41,51.56,7000 -116.42,51.57,7000 -116.42,51.58,7000 -116.43,51.60,7000 -116.44,51.60,7000 -116.43,51.61,7000 
          </coordinates>
        </LinearRing>
      </outerBoundaryIs>
  </Polygon>
 </MultiGeometry>
</Placemark>
    </Folder>
  </Document>
</kml>
