<?xml version="1.0" encoding="UTF-8"?>
<kml xmlns="http://www.opengis.net/kml/2.2">
<Document id="prb_72hsnow_ge02_f072">
<name>WPC 72-Hr Prob of Snow > 2"</name>
  <open>1</open>
  <snippet>Valid 12Z 09/13/2026 - 12Z 09/16/2026</snippet>
  <description></description>
    <Style id="poly_1">
        <IconStyle>
           <color>00000000</color>
           <scale>1</scale>
        </IconStyle>
        <LabelStyle>
            <color>ff26478b</color>
            <scale>0.8</scale>
        </LabelStyle>
        <LineStyle>
            <color>6626478b</color>
            <width>0</width>
        </LineStyle>
	<PolyStyle>
            <color>6626478b</color>
	</PolyStyle>
        <BalloonStyle>
            <text>
                <![CDATA[ <table border=0 width="300"><tr><td style="font-size:10pt;">
                During this forecast period, there is a <b>1-5%</b> probability of snowfall exceeding the depicted amount in the enclosed area.
                <br/><br/>
                *<span style="font-size:8pt;">Note that in cases where this contour is embedded within a 5% contour, 
                the probability of snowfall exceeding the depicted amount is &lt;1%.</span>
                </td></tr></table>]]>
            </text>
        </BalloonStyle>
    </Style>

    <Style id="poly_5">
        <IconStyle>
           <color>00000000</color>
           <scale>1</scale>
        </IconStyle>
        <LabelStyle>
            <color>ff00eeee</color>
            <scale>0.8</scale>
        </LabelStyle>
        <LineStyle>
            <color>6600eeee</color>
            <width>0.4</width>
        </LineStyle>
	<PolyStyle>
	    <color>6600eeee</color>
	</PolyStyle>
        <BalloonStyle>
            <text>
                <![CDATA[ <table border=0 width="300"><tr><td style="font-size:10pt;">
                During this forecast period, there is a <b>5-10%</b> probability of snowfall exceeding the depicted amount in the enclosed area.
                <br/><br/>
                *<span style="font-size:8pt;">Note that in cases where this contour is embedded within a 10% contour, 
                the probability of snowfall exceeding the depicted amount is &lt;5%.</span>
                </td></tr></table>]]>
            </text>
        </BalloonStyle>
    </Style>

    <Style id="poly_10">
        <IconStyle>
           <color>00000000</color>
           <scale>1</scale>
        </IconStyle>
        <LabelStyle>
            <color>ff00ff7f</color>
            <scale>0.8</scale>
        </LabelStyle>
        <LineStyle>
            <color>6600ff7f</color>
            <width>0.4</width>
        </LineStyle>
	<PolyStyle>
	    <color>6600ff7f</color>
	</PolyStyle>
        <BalloonStyle>
            <text>
                <![CDATA[ <table border=0 width="300"><tr><td style="font-size:10pt;">
                During this forecast period, there is a <b>10-20%</b> probability of snowfall exceeding the depicted amount in the enclosed area.
                <br/><br/>
                *<span style="font-size:8pt;">Note that in cases where this contour is embedded within a 20% contour, 
                the probability of snowfall exceeding the depicted amount is &lt;10%.</span>
                </td></tr></table>]]>
            </text>
        </BalloonStyle>
    </Style>
    
    <Style id="poly_20">
        <IconStyle>
            <color>00000000</color>
            <scale>1</scale>
        </IconStyle>
        <LabelStyle>
            <color>ff00cd00</color>
            <scale>0.8</scale>
        </LabelStyle>
        <LineStyle>
            <color>6600cd00</color>
	    <width>0.4</width>
	</LineStyle>
	<PolyStyle>
	    <color>6600cd00</color>
	</PolyStyle>
        <BalloonStyle>
            <text>
                <![CDATA[ <table border=0 width="300"><tr><td style="font-size:10pt;">
                During this forecast period, there is a <b>20-30%</b> probability of snowfall exceeding the depicted amount in the enclosed area.
                <br/><br/>
                *<span style="font-size:8pt;">Note that in cases where this contour is embedded within a 30% contour, 
                the probability of snowfall exceeding the depicted amount is &lt;20%.</span>
                </td></tr></table>]]>
            </text>
        </BalloonStyle>
    </Style>

    <Style id="poly_30">
        <IconStyle>
            <color>00000000</color>
            <scale>1</scale>
        </IconStyle>
        <LabelStyle>
            <color>ff008b00</color>
            <scale>0.8</scale>
        </LabelStyle>
        <LineStyle>
            <color>66008b00</color>
	    <width>0.4</width>
	</LineStyle>
	<PolyStyle>
	    <color>66008b00</color>
	</PolyStyle>
        <BalloonStyle>
            <text>
                <![CDATA[ <table border=0 width="300"><tr><td style="font-size:10pt;">
                During this forecast period, there is a <b>30-40%</b> probability of snowfall exceeding the depicted amount in the enclosed area.
                <br/><br/>
                *<span style="font-size:8pt;">Note that in cases where this contour is embedded within a 40% contour, 
                the probability of snowfall exceeding the depicted amount is &lt;30%.</span>
                </td></tr></table>]]>
            </text>
        </BalloonStyle>
    </Style>

    <Style id="poly_40">
        <IconStyle>
            <color>00000000</color>
            <scale>1</scale>
        </IconStyle>
        <LabelStyle>
            <color>ff8b4e10</color>
            <scale>0.8</scale>
        </LabelStyle>
        <LineStyle>
            <color>668b4e10</color>
	    <width>0.4</width>
	</LineStyle>
	<PolyStyle>
	    <color>668b4e10</color>
	</PolyStyle>
        <BalloonStyle>
            <text>
                <![CDATA[ <table border=0 width="300"><tr><td style="font-size:10pt;">
                During this forecast period, there is a <b>40-50%</b> probability of snowfall exceeding the depicted amount in the enclosed area.
                <br/><br/>
                *<span style="font-size:8pt;">Note that in cases where this contour is embedded within a 50% contour, 
                the probability of snowfall exceeding the depicted amount is &lt;40%.</span>
                </td></tr></table>]]>
            </text>
        </BalloonStyle>
    </Style>

    <Style id="poly_50">
        <IconStyle>
            <color>00000000</color>
            <scale>1</scale>
        </IconStyle>
        <LabelStyle>
            <color>ffff901e</color>
            <scale>0.8</scale>
        </LabelStyle>
        <LineStyle>
            <color>66ff901e</color>
	    <width>0.4</width>
	</LineStyle>
	<PolyStyle>
	    <color>66ff901e</color>
	</PolyStyle>
        <BalloonStyle>
            <text>
                <![CDATA[ <table border=0 width="300"><tr><td style="font-size:10pt;">
                During this forecast period, there is a <b>50-60%</b> probability of snowfall exceeding the depicted amount in the enclosed area.
                <br/><br/>
                *<span style="font-size:8pt;">Note that in cases where this contour is embedded within a 60% contour, 
                the probability of snowfall exceeding the depicted amount is &lt;50%.</span>
                </td></tr></table>]]>
            </text>
        </BalloonStyle>
    </Style>

    <Style id="poly_60">
        <IconStyle>
            <color>00000000</color>
            <scale>1</scale>
        </IconStyle>
        <LabelStyle>
            <color>ffeeb200</color>
            <scale>0.8</scale>
        </LabelStyle>
        <LineStyle>
            <color>66eeb200</color>
	    <width>0.4</width>
	</LineStyle>
	<PolyStyle>
	    <color>66eeb200</color>
	</PolyStyle>
        <BalloonStyle>
            <text>
                <![CDATA[ <table border=0 width="300"><tr><td style="font-size:10pt;">
                During this forecast period, there is a <b>60-70%</b> probability of snowfall exceeding the depicted amount in the enclosed area.
                <br/><br/>
                *<span style="font-size:8pt;">Note that in cases where this contour is embedded within a 70% contour, 
                the probability of snowfall exceeding the depicted amount is &lt;60%.</span>
                </td></tr></table>]]>
            </text>
        </BalloonStyle>
    </Style>
    
    <Style id="poly_70">
        <IconStyle>
            <color>00000000</color>
            <scale>1</scale>
        </IconStyle>
        <LabelStyle>
            <color>ffeeee00</color>
            <scale>0.8</scale>
        </LabelStyle>
        <LineStyle>
            <color>66eeee00</color>
	    <width>0.4</width>
	</LineStyle>
	<PolyStyle>
	    <color>66eeee00</color>
	</PolyStyle>
        <BalloonStyle>
            <text>
                <![CDATA[ <table border=0 width="300"><tr><td style="font-size:10pt;">
                During this forecast period, there is a <b>70-80%</b> probability of snowfall exceeding the depicted amount in the enclosed area.
                <br/><br/>
                *<span style="font-size:8pt;">Note that in cases where this contour is embedded within a 80% contour, 
                the probability of snowfall exceeding the depicted amount is &lt;70%.</span>
                </td></tr></table>]]>
            </text>
        </BalloonStyle>
    </Style>

    <Style id="poly_80">
        <IconStyle>
            <color>00000000</color>
            <scale>1</scale>
        </IconStyle>
        <LabelStyle>
            <color>ff4782ff</color>
            <scale>0.8</scale>
        </LabelStyle>
        <LineStyle>
            <color>664782ff</color>
	    <width>0.4</width>
	</LineStyle>
	<PolyStyle>
	    <color>664782ff</color>
	</PolyStyle>
        <BalloonStyle>
            <text>
                <![CDATA[ <table border=0 width="300"><tr><td style="font-size:10pt;">
                During this forecast period, there is a <b>80-90%</b> probability of snowfall exceeding the depicted amount in the enclosed area.
                <br/><br/>
                *<span style="font-size:8pt;">Note that in cases where this contour is embedded within a 90% contour, 
                the probability of snowfall exceeding the depicted amount is &lt;80%.</span>
                </td></tr></table>]]>
            </text>
        </BalloonStyle>
    </Style>

    <Style id="poly_90">
        <IconStyle>
            <color>00000000</color>
            <scale>1</scale>
        </IconStyle>
        <LabelStyle>
            <color>ff2c2cee</color>
            <scale>0.8</scale>
        </LabelStyle>
        <LineStyle>
            <color>662c2cee</color>
            <width>0.4</width>
        </LineStyle>
        <PolyStyle>
            <color>662c2cee</color>
        </PolyStyle>
        <BalloonStyle>
            <text>
                <![CDATA[ <table border=0 width="300"><tr><td style="font-size:10pt;">
                During this forecast period, there is a <b>90-95%</b> probability of snowfall exceeding the depicted amount in the enclosed area.
                <br/><br/>
                *<span style="font-size:8pt;">Note that in cases where this contour is embedded within a 95% contour, 
                the probability of snowfall exceeding the depicted amount is &lt;90%.</span>
                </td></tr></table>]]>
            </text>
        </BalloonStyle>
    </Style>

    <Style id="poly_95">
        <IconStyle>
            <color>00000000</color>
            <scale>1</scale>
        </IconStyle>
        <LabelStyle>
            <color>ff00008b</color>
            <scale>0.8</scale>
        </LabelStyle>
        <LineStyle>
            <color>6600008b</color>
	    <width>0.4</width>
	</LineStyle>
	<PolyStyle>
	    <color>6600008b</color>
	</PolyStyle>
        <BalloonStyle>
            <text>
                <![CDATA[ <table border=0 width="300"><tr><td style="font-size:10pt;">
                The probability of snowfall exceeding the depicted amount is <b>&ge;95%</b> in the enclosed area during this forecast period.
                </td></tr></table>]]>
            </text>
        </BalloonStyle>
    </Style>

  <ScreenOverlay>
    <name>Logos</name>
    <description></description>
    <Icon>
      <href>https://www.wpc.ncep.noaa.gov/images/noaa_and_nws_logo.png</href>
    </Icon>
   <overlayXY x=".01" y=".01" xunits="fraction" yunits="fraction" />
   <screenXY x=".01" y=".01" xunits="fraction" yunits="fraction" />
   <rotationXY x="0" y="0" xunits="fraction" yunits="fraction" />
   <size x="-1" y="-1" xunits="fraction" yunits="fraction" />
  </ScreenOverlay>
    <Folder>
      <name>Snow Probabilities</name>
      <open>0</open>
<Placemark>
  <name>1%</name>
  <visibility>1</visibility>
  <styleUrl>#poly_1</styleUrl>
  <MultiGeometry>
    <Polygon>
      <outerBoundaryIs>
        <LinearRing>
          <coordinates>
-116.72,50.70,0 -116.69,50.71,0 -116.66,50.71,0 -116.63,50.72,0 -116.60,50.73,0 -116.57,50.73,0 -116.53,50.74,0 -116.50,50.74,0 -116.47,50.74,0 -116.44,50.74,0 -116.40,50.74,0 -116.36,50.73,0 -116.33,50.73,0 -116.29,50.72,0 -116.26,50.71,0 -116.23,50.71,0 -116.20,50.70,0 -116.16,50.69,0 -116.14,50.68,0 -116.11,50.67,0 -116.09,50.65,0 -116.07,50.64,0 -116.06,50.62,0 -116.04,50.60,0 -116.02,50.58,0 -116.00,50.56,0 -115.99,50.54,0 -115.98,50.52,0 -115.97,50.50,0 -115.97,50.48,0 -115.97,50.46,0 -115.97,50.43,0 -115.98,50.41,0 -115.99,50.39,0 -115.99,50.37,0 -116.00,50.35,0 -116.01,50.33,0 -116.02,50.31,0 -116.04,50.29,0 -116.06,50.28,0 -116.09,50.26,0 -116.11,50.25,0 -116.13,50.24,0 -116.16,50.23,0 -116.19,50.21,0 -116.21,50.20,0 -116.24,50.19,0 -116.27,50.18,0 -116.30,50.17,0 -116.33,50.16,0 -116.36,50.15,0 -116.39,50.15,0 -116.42,50.14,0 -116.45,50.13,0 -116.48,50.13,0 -116.52,50.13,0 -116.55,50.13,0 -116.58,50.13,0 -116.61,50.13,0 -116.64,50.14,0 -116.68,50.15,0 -116.71,50.16,0 -116.74,50.17,0 -116.77,50.18,0 -116.80,50.18,0 -116.83,50.19,0 -116.85,50.20,0 -116.89,50.21,0 -116.90,50.22,0 -116.92,50.24,0 -116.93,50.25,0 -116.95,50.27,0 -116.97,50.29,0 -116.98,50.31,0 -117.00,50.33,0 -117.02,50.35,0 -117.03,50.37,0 -117.03,50.39,0 -117.03,50.41,0 -117.02,50.43,0 -117.01,50.46,0 -116.99,50.48,0 -116.98,50.50,0 -116.96,50.52,0 -116.95,50.54,0 -116.94,50.55,0 -116.94,50.57,0 -116.72,50.70,0 
          </coordinates>
        </LinearRing>
      </outerBoundaryIs>
      <innerBoundaryIs>
        <LinearRing>
          <coordinates>
-116.68,50.52,1000 -116.66,50.53,1000 -116.65,50.53,1000 -116.63,50.54,1000 -116.62,50.54,1000 -116.60,50.55,1000 -116.59,50.55,1000 -116.57,50.56,1000 -116.56,50.56,1000 -116.54,50.57,1000 -116.53,50.57,1000 -116.51,50.57,1000 -116.50,50.58,1000 -116.48,50.58,1000 -116.47,50.58,1000 -116.46,50.58,1000 -116.44,50.58,1000 -116.43,50.58,1000 -116.42,50.58,1000 -116.40,50.58,1000 -116.39,50.57,1000 -116.37,50.57,1000 -116.36,50.56,1000 -116.35,50.56,1000 -116.33,50.55,1000 -116.32,50.54,1000 -116.30,50.53,1000 -116.29,50.53,1000 -116.28,50.52,1000 -116.27,50.51,1000 -116.26,50.50,1000 -116.25,50.49,1000 -116.25,50.49,1000 -116.24,50.48,1000 -116.24,50.47,1000 -116.24,50.46,1000 -116.24,50.45,1000 -116.24,50.44,1000 -116.25,50.43,1000 -116.25,50.42,1000 -116.26,50.41,1000 -116.26,50.40,1000 -116.27,50.39,1000 -116.28,50.38,1000 -116.29,50.37,1000 -116.30,50.36,1000 -116.31,50.36,1000 -116.32,50.35,1000 -116.34,50.34,1000 -116.35,50.33,1000 -116.36,50.33,1000 -116.37,50.32,1000 -116.38,50.32,1000 -116.40,50.31,1000 -116.41,50.31,1000 -116.43,50.30,1000 -116.44,50.30,1000 -116.46,50.30,1000 -116.48,50.30,1000 -116.49,50.30,1000 -116.51,50.30,1000 -116.53,50.30,1000 -116.55,50.30,1000 -116.56,50.30,1000 -116.58,50.30,1000 -116.59,50.30,1000 -116.61,50.31,1000 -116.62,50.31,1000 -116.63,50.31,1000 -116.65,50.32,1000 -116.66,50.32,1000 -116.67,50.33,1000 -116.68,50.34,1000 -116.69,50.35,1000 -116.70,50.35,1000 -116.71,50.36,1000 -116.72,50.37,1000 -116.73,50.38,1000 -116.74,50.39,1000 -116.74,50.40,1000 -116.75,50.41,1000 -116.76,50.42,1000 -116.68,50.52,1000 
          </coordinates>
        </LinearRing>
      </innerBoundaryIs>
  </Polygon>
 </MultiGeometry>
</Placemark>
<Placemark>
  <name>1%</name>
  <visibility>1</visibility>
  <styleUrl>#poly_1</styleUrl>
  <MultiGeometry>
    <Polygon>
      <outerBoundaryIs>
        <LinearRing>
          <coordinates>
-115.62,51.54,0 -115.59,51.54,0 -115.57,51.54,0 -115.54,51.54,0 -115.51,51.54,0 -115.49,51.55,0 -115.47,51.55,0 -115.44,51.55,0 -115.42,51.55,0 -115.40,51.55,0 -115.39,51.55,0 -115.37,51.55,0 -115.36,51.55,0 -115.35,51.54,0 -115.34,51.53,0 -115.33,51.53,0 -115.31,51.52,0 -115.29,51.51,0 -115.27,51.50,0 -115.25,51.49,0 -115.23,51.48,0 -115.21,51.47,0 -115.19,51.46,0 -115.17,51.45,0 -115.16,51.43,0 -115.14,51.42,0 -115.14,51.41,0 -115.13,51.40,0 -115.13,51.39,0 -115.13,51.38,0 -115.14,51.36,0 -115.14,51.35,0 -115.16,51.34,0 -115.17,51.32,0 -115.18,51.31,0 -115.19,51.29,0 -115.21,51.28,0 -115.22,51.27,0 -115.23,51.26,0 -115.24,51.25,0 -115.25,51.24,0 -115.26,51.23,0 -115.26,51.21,0 -115.28,51.21,0 -115.29,51.21,0 -115.31,51.20,0 -115.33,51.20,0 -115.35,51.20,0 -115.38,51.19,0 -115.40,51.19,0 -115.43,51.18,0 -115.45,51.18,0 -115.47,51.18,0 -115.50,51.17,0 -115.51,51.17,0 -115.53,51.17,0 -115.56,51.17,0 -115.57,51.17,0 -115.58,51.18,0 -115.61,51.19,0 -115.62,51.20,0 -115.64,51.20,0 -115.65,51.21,0 -115.67,51.22,0 -115.69,51.23,0 -115.70,51.24,0 -115.72,51.26,0 -115.74,51.27,0 -115.76,51.28,0 -115.78,51.29,0 -115.79,51.30,0 -115.81,51.31,0 -115.82,51.31,0 -115.83,51.32,0 -115.85,51.33,0 -115.85,51.33,0 -115.85,51.33,0 -115.85,51.34,0 -115.84,51.36,0 -115.83,51.37,0 -115.83,51.38,0 -115.82,51.39,0 -115.81,51.40,0 -115.80,51.41,0 -115.78,51.42,0 -115.77,51.43,0 -115.76,51.44,0 -115.75,51.46,0 -115.73,51.47,0 -115.72,51.48,0 -115.70,51.50,0 -115.69,51.51,0 -115.62,51.54,0 
          </coordinates>
        </LinearRing>
      </outerBoundaryIs>
  </Polygon>
 </MultiGeometry>
</Placemark>
<Placemark>
  <name>1%</name>
  <visibility>1</visibility>
  <styleUrl>#poly_1</styleUrl>
  <MultiGeometry>
    <Polygon>
      <outerBoundaryIs>
        <LinearRing>
          <coordinates>
-115.48,50.94,0 -115.43,50.94,0 -115.38,50.94,0 -115.33,50.94,0 -115.29,50.94,0 -115.25,50.94,0 -115.22,50.94,0 -115.18,50.93,0 -115.16,50.92,0 -115.13,50.91,0 -115.10,50.90,0 -115.06,50.90,0 -115.02,50.89,0 -114.98,50.88,0 -114.94,50.87,0 -114.90,50.86,0 -114.87,50.85,0 -114.83,50.83,0 -114.79,50.82,0 -114.76,50.80,0 -114.73,50.78,0 -114.71,50.76,0 -114.68,50.74,0 -114.67,50.71,0 -114.65,50.68,0 -114.64,50.66,0 -114.63,50.63,0 -114.62,50.60,0 -114.62,50.58,0 -114.62,50.55,0 -114.62,50.52,0 -114.62,50.49,0 -114.63,50.46,0 -114.64,50.43,0 -114.66,50.40,0 -114.68,50.38,0 -114.70,50.35,0 -114.72,50.32,0 -114.74,50.30,0 -114.75,50.28,0 -114.76,50.26,0 -114.79,50.25,0 -114.81,50.24,0 -114.84,50.22,0 -114.88,50.21,0 -114.92,50.19,0 -114.95,50.17,0 -114.99,50.16,0 -115.03,50.15,0 -115.07,50.15,0 -115.12,50.15,0 -115.17,50.16,0 -115.22,50.16,0 -115.26,50.17,0 -115.29,50.18,0 -115.32,50.19,0 -115.33,50.21,0 -115.35,50.23,0 -115.37,50.25,0 -115.39,50.27,0 -115.41,50.29,0 -115.43,50.31,0 -115.46,50.33,0 -115.48,50.36,0 -115.50,50.38,0 -115.52,50.41,0 -115.54,50.43,0 -115.56,50.46,0 -115.58,50.48,0 -115.60,50.51,0 -115.61,50.53,0 -115.63,50.56,0 -115.64,50.58,0 -115.65,50.60,0 -115.66,50.62,0 -115.69,50.64,0 -115.71,50.67,0 -115.73,50.69,0 -115.73,50.71,0 -115.72,50.73,0 -115.71,50.76,0 -115.70,50.78,0 -115.68,50.81,0 -115.66,50.83,0 -115.64,50.86,0 -115.48,50.94,0 
          </coordinates>
        </LinearRing>
      </outerBoundaryIs>
      <innerBoundaryIs>
        <LinearRing>
          <coordinates>
-115.16,50.69,1000 -115.14,50.69,1000 -115.12,50.68,1000 -115.11,50.68,1000 -115.09,50.67,1000 -115.07,50.67,1000 -115.06,50.66,1000 -115.04,50.66,1000 -115.02,50.65,1000 -115.01,50.65,1000 -115.00,50.64,1000 -114.99,50.64,1000 -114.98,50.63,1000 -114.97,50.62,1000 -114.96,50.62,1000 -114.95,50.61,1000 -114.95,50.60,1000 -114.95,50.59,1000 -114.95,50.58,1000 -114.95,50.57,1000 -114.95,50.57,1000 -114.96,50.55,1000 -114.96,50.54,1000 -114.97,50.53,1000 -114.98,50.52,1000 -114.99,50.51,1000 -114.99,50.50,1000 -115.00,50.49,1000 -115.01,50.48,1000 -115.02,50.47,1000 -115.03,50.46,1000 -115.04,50.45,1000 -115.04,50.44,1000 -115.05,50.43,1000 -115.06,50.43,1000 -115.06,50.42,1000 -115.08,50.40,1000 -115.08,50.41,1000 -115.09,50.41,1000 -115.09,50.40,1000 -115.11,50.42,1000 -115.12,50.42,1000 -115.12,50.43,1000 -115.13,50.44,1000 -115.14,50.44,1000 -115.14,50.45,1000 -115.15,50.46,1000 -115.16,50.46,1000 -115.17,50.47,1000 -115.18,50.48,1000 -115.19,50.49,1000 -115.20,50.50,1000 -115.21,50.51,1000 -115.22,50.52,1000 -115.23,50.53,1000 -115.25,50.54,1000 -115.26,50.55,1000 -115.27,50.56,1000 -115.28,50.57,1000 -115.16,50.69,1000 
          </coordinates>
        </LinearRing>
      </innerBoundaryIs>
  </Polygon>
 </MultiGeometry>
</Placemark>
<Placemark>
  <name>5%</name>
  <visibility>1</visibility>
  <styleUrl>#poly_5</styleUrl>
  <MultiGeometry>
    <Polygon>
      <outerBoundaryIs>
        <LinearRing>
          <coordinates>
-115.16,50.69,1000 -115.14,50.69,1000 -115.12,50.68,1000 -115.11,50.68,1000 -115.09,50.67,1000 -115.07,50.67,1000 -115.06,50.66,1000 -115.04,50.66,1000 -115.02,50.65,1000 -115.01,50.65,1000 -115.00,50.64,1000 -114.99,50.64,1000 -114.98,50.63,1000 -114.97,50.62,1000 -114.96,50.62,1000 -114.95,50.61,1000 -114.95,50.60,1000 -114.95,50.59,1000 -114.95,50.58,1000 -114.95,50.57,1000 -114.95,50.57,1000 -114.96,50.55,1000 -114.96,50.54,1000 -114.97,50.53,1000 -114.98,50.52,1000 -114.99,50.51,1000 -114.99,50.50,1000 -115.00,50.49,1000 -115.01,50.48,1000 -115.02,50.47,1000 -115.03,50.46,1000 -115.04,50.45,1000 -115.04,50.44,1000 -115.05,50.43,1000 -115.06,50.43,1000 -115.06,50.42,1000 -115.08,50.40,1000 -115.08,50.41,1000 -115.09,50.41,1000 -115.09,50.40,1000 -115.11,50.42,1000 -115.12,50.42,1000 -115.12,50.43,1000 -115.13,50.44,1000 -115.14,50.44,1000 -115.14,50.45,1000 -115.15,50.46,1000 -115.16,50.46,1000 -115.17,50.47,1000 -115.18,50.48,1000 -115.19,50.49,1000 -115.20,50.50,1000 -115.21,50.51,1000 -115.22,50.52,1000 -115.23,50.53,1000 -115.25,50.54,1000 -115.26,50.55,1000 -115.27,50.56,1000 -115.28,50.57,1000 -115.16,50.69,1000 
          </coordinates>
        </LinearRing>
      </outerBoundaryIs>
  </Polygon>
 </MultiGeometry>
</Placemark>
<Placemark>
  <name>5%</name>
  <visibility>1</visibility>
  <styleUrl>#poly_5</styleUrl>
  <MultiGeometry>
    <Polygon>
      <outerBoundaryIs>
        <LinearRing>
          <coordinates>
-116.68,50.52,1000 -116.66,50.53,1000 -116.65,50.53,1000 -116.63,50.54,1000 -116.62,50.54,1000 -116.60,50.55,1000 -116.59,50.55,1000 -116.57,50.56,1000 -116.56,50.56,1000 -116.54,50.57,1000 -116.53,50.57,1000 -116.51,50.57,1000 -116.50,50.58,1000 -116.48,50.58,1000 -116.47,50.58,1000 -116.46,50.58,1000 -116.44,50.58,1000 -116.43,50.58,1000 -116.42,50.58,1000 -116.40,50.58,1000 -116.39,50.57,1000 -116.37,50.57,1000 -116.36,50.56,1000 -116.35,50.56,1000 -116.33,50.55,1000 -116.32,50.54,1000 -116.30,50.53,1000 -116.29,50.53,1000 -116.28,50.52,1000 -116.27,50.51,1000 -116.26,50.50,1000 -116.25,50.49,1000 -116.25,50.49,1000 -116.24,50.48,1000 -116.24,50.47,1000 -116.24,50.46,1000 -116.24,50.45,1000 -116.24,50.44,1000 -116.25,50.43,1000 -116.25,50.42,1000 -116.26,50.41,1000 -116.26,50.40,1000 -116.27,50.39,1000 -116.28,50.38,1000 -116.29,50.37,1000 -116.30,50.36,1000 -116.31,50.36,1000 -116.32,50.35,1000 -116.34,50.34,1000 -116.35,50.33,1000 -116.36,50.33,1000 -116.37,50.32,1000 -116.38,50.32,1000 -116.40,50.31,1000 -116.41,50.31,1000 -116.43,50.30,1000 -116.44,50.30,1000 -116.46,50.30,1000 -116.48,50.30,1000 -116.49,50.30,1000 -116.51,50.30,1000 -116.53,50.30,1000 -116.55,50.30,1000 -116.56,50.30,1000 -116.58,50.30,1000 -116.59,50.30,1000 -116.61,50.31,1000 -116.62,50.31,1000 -116.63,50.31,1000 -116.65,50.32,1000 -116.66,50.32,1000 -116.67,50.33,1000 -116.68,50.34,1000 -116.69,50.35,1000 -116.70,50.35,1000 -116.71,50.36,1000 -116.72,50.37,1000 -116.73,50.38,1000 -116.74,50.39,1000 -116.74,50.40,1000 -116.75,50.41,1000 -116.76,50.42,1000 -116.68,50.52,1000 
          </coordinates>
        </LinearRing>
      </outerBoundaryIs>
  </Polygon>
 </MultiGeometry>
</Placemark>
    </Folder>
  </Document>
</kml>
