<?xml version="1.0" encoding="UTF-8"?>
<kml xmlns="http://www.opengis.net/kml/2.2">
<Document id="prb_72hsnow_ge02_f072">
<name>WPC 72-Hr Prob of Snow > 2"</name>
  <open>1</open>
  <snippet>Valid 12Z 06/11/2026 - 12Z 06/14/2026</snippet>
  <description></description>
    <Style id="poly_1">
        <IconStyle>
           <color>00000000</color>
           <scale>1</scale>
        </IconStyle>
        <LabelStyle>
            <color>ff26478b</color>
            <scale>0.8</scale>
        </LabelStyle>
        <LineStyle>
            <color>6626478b</color>
            <width>0</width>
        </LineStyle>
	<PolyStyle>
            <color>6626478b</color>
	</PolyStyle>
        <BalloonStyle>
            <text>
                <![CDATA[ <table border=0 width="300"><tr><td style="font-size:10pt;">
                During this forecast period, there is a <b>1-5%</b> probability of snowfall exceeding the depicted amount in the enclosed area.
                <br/><br/>
                *<span style="font-size:8pt;">Note that in cases where this contour is embedded within a 5% contour, 
                the probability of snowfall exceeding the depicted amount is &lt;1%.</span>
                </td></tr></table>]]>
            </text>
        </BalloonStyle>
    </Style>

    <Style id="poly_5">
        <IconStyle>
           <color>00000000</color>
           <scale>1</scale>
        </IconStyle>
        <LabelStyle>
            <color>ff00eeee</color>
            <scale>0.8</scale>
        </LabelStyle>
        <LineStyle>
            <color>6600eeee</color>
            <width>0.4</width>
        </LineStyle>
	<PolyStyle>
	    <color>6600eeee</color>
	</PolyStyle>
        <BalloonStyle>
            <text>
                <![CDATA[ <table border=0 width="300"><tr><td style="font-size:10pt;">
                During this forecast period, there is a <b>5-10%</b> probability of snowfall exceeding the depicted amount in the enclosed area.
                <br/><br/>
                *<span style="font-size:8pt;">Note that in cases where this contour is embedded within a 10% contour, 
                the probability of snowfall exceeding the depicted amount is &lt;5%.</span>
                </td></tr></table>]]>
            </text>
        </BalloonStyle>
    </Style>

    <Style id="poly_10">
        <IconStyle>
           <color>00000000</color>
           <scale>1</scale>
        </IconStyle>
        <LabelStyle>
            <color>ff00ff7f</color>
            <scale>0.8</scale>
        </LabelStyle>
        <LineStyle>
            <color>6600ff7f</color>
            <width>0.4</width>
        </LineStyle>
	<PolyStyle>
	    <color>6600ff7f</color>
	</PolyStyle>
        <BalloonStyle>
            <text>
                <![CDATA[ <table border=0 width="300"><tr><td style="font-size:10pt;">
                During this forecast period, there is a <b>10-20%</b> probability of snowfall exceeding the depicted amount in the enclosed area.
                <br/><br/>
                *<span style="font-size:8pt;">Note that in cases where this contour is embedded within a 20% contour, 
                the probability of snowfall exceeding the depicted amount is &lt;10%.</span>
                </td></tr></table>]]>
            </text>
        </BalloonStyle>
    </Style>
    
    <Style id="poly_20">
        <IconStyle>
            <color>00000000</color>
            <scale>1</scale>
        </IconStyle>
        <LabelStyle>
            <color>ff00cd00</color>
            <scale>0.8</scale>
        </LabelStyle>
        <LineStyle>
            <color>6600cd00</color>
	    <width>0.4</width>
	</LineStyle>
	<PolyStyle>
	    <color>6600cd00</color>
	</PolyStyle>
        <BalloonStyle>
            <text>
                <![CDATA[ <table border=0 width="300"><tr><td style="font-size:10pt;">
                During this forecast period, there is a <b>20-30%</b> probability of snowfall exceeding the depicted amount in the enclosed area.
                <br/><br/>
                *<span style="font-size:8pt;">Note that in cases where this contour is embedded within a 30% contour, 
                the probability of snowfall exceeding the depicted amount is &lt;20%.</span>
                </td></tr></table>]]>
            </text>
        </BalloonStyle>
    </Style>

    <Style id="poly_30">
        <IconStyle>
            <color>00000000</color>
            <scale>1</scale>
        </IconStyle>
        <LabelStyle>
            <color>ff008b00</color>
            <scale>0.8</scale>
        </LabelStyle>
        <LineStyle>
            <color>66008b00</color>
	    <width>0.4</width>
	</LineStyle>
	<PolyStyle>
	    <color>66008b00</color>
	</PolyStyle>
        <BalloonStyle>
            <text>
                <![CDATA[ <table border=0 width="300"><tr><td style="font-size:10pt;">
                During this forecast period, there is a <b>30-40%</b> probability of snowfall exceeding the depicted amount in the enclosed area.
                <br/><br/>
                *<span style="font-size:8pt;">Note that in cases where this contour is embedded within a 40% contour, 
                the probability of snowfall exceeding the depicted amount is &lt;30%.</span>
                </td></tr></table>]]>
            </text>
        </BalloonStyle>
    </Style>

    <Style id="poly_40">
        <IconStyle>
            <color>00000000</color>
            <scale>1</scale>
        </IconStyle>
        <LabelStyle>
            <color>ff8b4e10</color>
            <scale>0.8</scale>
        </LabelStyle>
        <LineStyle>
            <color>668b4e10</color>
	    <width>0.4</width>
	</LineStyle>
	<PolyStyle>
	    <color>668b4e10</color>
	</PolyStyle>
        <BalloonStyle>
            <text>
                <![CDATA[ <table border=0 width="300"><tr><td style="font-size:10pt;">
                During this forecast period, there is a <b>40-50%</b> probability of snowfall exceeding the depicted amount in the enclosed area.
                <br/><br/>
                *<span style="font-size:8pt;">Note that in cases where this contour is embedded within a 50% contour, 
                the probability of snowfall exceeding the depicted amount is &lt;40%.</span>
                </td></tr></table>]]>
            </text>
        </BalloonStyle>
    </Style>

    <Style id="poly_50">
        <IconStyle>
            <color>00000000</color>
            <scale>1</scale>
        </IconStyle>
        <LabelStyle>
            <color>ffff901e</color>
            <scale>0.8</scale>
        </LabelStyle>
        <LineStyle>
            <color>66ff901e</color>
	    <width>0.4</width>
	</LineStyle>
	<PolyStyle>
	    <color>66ff901e</color>
	</PolyStyle>
        <BalloonStyle>
            <text>
                <![CDATA[ <table border=0 width="300"><tr><td style="font-size:10pt;">
                During this forecast period, there is a <b>50-60%</b> probability of snowfall exceeding the depicted amount in the enclosed area.
                <br/><br/>
                *<span style="font-size:8pt;">Note that in cases where this contour is embedded within a 60% contour, 
                the probability of snowfall exceeding the depicted amount is &lt;50%.</span>
                </td></tr></table>]]>
            </text>
        </BalloonStyle>
    </Style>

    <Style id="poly_60">
        <IconStyle>
            <color>00000000</color>
            <scale>1</scale>
        </IconStyle>
        <LabelStyle>
            <color>ffeeb200</color>
            <scale>0.8</scale>
        </LabelStyle>
        <LineStyle>
            <color>66eeb200</color>
	    <width>0.4</width>
	</LineStyle>
	<PolyStyle>
	    <color>66eeb200</color>
	</PolyStyle>
        <BalloonStyle>
            <text>
                <![CDATA[ <table border=0 width="300"><tr><td style="font-size:10pt;">
                During this forecast period, there is a <b>60-70%</b> probability of snowfall exceeding the depicted amount in the enclosed area.
                <br/><br/>
                *<span style="font-size:8pt;">Note that in cases where this contour is embedded within a 70% contour, 
                the probability of snowfall exceeding the depicted amount is &lt;60%.</span>
                </td></tr></table>]]>
            </text>
        </BalloonStyle>
    </Style>
    
    <Style id="poly_70">
        <IconStyle>
            <color>00000000</color>
            <scale>1</scale>
        </IconStyle>
        <LabelStyle>
            <color>ffeeee00</color>
            <scale>0.8</scale>
        </LabelStyle>
        <LineStyle>
            <color>66eeee00</color>
	    <width>0.4</width>
	</LineStyle>
	<PolyStyle>
	    <color>66eeee00</color>
	</PolyStyle>
        <BalloonStyle>
            <text>
                <![CDATA[ <table border=0 width="300"><tr><td style="font-size:10pt;">
                During this forecast period, there is a <b>70-80%</b> probability of snowfall exceeding the depicted amount in the enclosed area.
                <br/><br/>
                *<span style="font-size:8pt;">Note that in cases where this contour is embedded within a 80% contour, 
                the probability of snowfall exceeding the depicted amount is &lt;70%.</span>
                </td></tr></table>]]>
            </text>
        </BalloonStyle>
    </Style>

    <Style id="poly_80">
        <IconStyle>
            <color>00000000</color>
            <scale>1</scale>
        </IconStyle>
        <LabelStyle>
            <color>ff4782ff</color>
            <scale>0.8</scale>
        </LabelStyle>
        <LineStyle>
            <color>664782ff</color>
	    <width>0.4</width>
	</LineStyle>
	<PolyStyle>
	    <color>664782ff</color>
	</PolyStyle>
        <BalloonStyle>
            <text>
                <![CDATA[ <table border=0 width="300"><tr><td style="font-size:10pt;">
                During this forecast period, there is a <b>80-90%</b> probability of snowfall exceeding the depicted amount in the enclosed area.
                <br/><br/>
                *<span style="font-size:8pt;">Note that in cases where this contour is embedded within a 90% contour, 
                the probability of snowfall exceeding the depicted amount is &lt;80%.</span>
                </td></tr></table>]]>
            </text>
        </BalloonStyle>
    </Style>

    <Style id="poly_90">
        <IconStyle>
            <color>00000000</color>
            <scale>1</scale>
        </IconStyle>
        <LabelStyle>
            <color>ff2c2cee</color>
            <scale>0.8</scale>
        </LabelStyle>
        <LineStyle>
            <color>662c2cee</color>
            <width>0.4</width>
        </LineStyle>
        <PolyStyle>
            <color>662c2cee</color>
        </PolyStyle>
        <BalloonStyle>
            <text>
                <![CDATA[ <table border=0 width="300"><tr><td style="font-size:10pt;">
                During this forecast period, there is a <b>90-95%</b> probability of snowfall exceeding the depicted amount in the enclosed area.
                <br/><br/>
                *<span style="font-size:8pt;">Note that in cases where this contour is embedded within a 95% contour, 
                the probability of snowfall exceeding the depicted amount is &lt;90%.</span>
                </td></tr></table>]]>
            </text>
        </BalloonStyle>
    </Style>

    <Style id="poly_95">
        <IconStyle>
            <color>00000000</color>
            <scale>1</scale>
        </IconStyle>
        <LabelStyle>
            <color>ff00008b</color>
            <scale>0.8</scale>
        </LabelStyle>
        <LineStyle>
            <color>6600008b</color>
	    <width>0.4</width>
	</LineStyle>
	<PolyStyle>
	    <color>6600008b</color>
	</PolyStyle>
        <BalloonStyle>
            <text>
                <![CDATA[ <table border=0 width="300"><tr><td style="font-size:10pt;">
                The probability of snowfall exceeding the depicted amount is <b>&ge;95%</b> in the enclosed area during this forecast period.
                </td></tr></table>]]>
            </text>
        </BalloonStyle>
    </Style>

  <ScreenOverlay>
    <name>Logos</name>
    <description></description>
    <Icon>
      <href>https://www.wpc.ncep.noaa.gov/images/noaa_and_nws_logo.png</href>
    </Icon>
   <overlayXY x=".01" y=".01" xunits="fraction" yunits="fraction" />
   <screenXY x=".01" y=".01" xunits="fraction" yunits="fraction" />
   <rotationXY x="0" y="0" xunits="fraction" yunits="fraction" />
   <size x="-1" y="-1" xunits="fraction" yunits="fraction" />
  </ScreenOverlay>
    <Folder>
      <name>Snow Probabilities</name>
      <open>0</open>
<Placemark>
  <name>1%</name>
  <visibility>1</visibility>
  <styleUrl>#poly_1</styleUrl>
  <MultiGeometry>
    <Polygon>
      <outerBoundaryIs>
        <LinearRing>
          <coordinates>
-115.88,51.50,0 -115.86,51.51,0 -115.83,51.52,0 -115.81,51.53,0 -115.79,51.54,0 -115.76,51.55,0 -115.74,51.56,0 -115.71,51.57,0 -115.69,51.58,0 -115.67,51.58,0 -115.64,51.59,0 -115.61,51.59,0 -115.59,51.60,0 -115.56,51.60,0 -115.53,51.60,0 -115.50,51.60,0 -115.47,51.60,0 -115.44,51.60,0 -115.41,51.59,0 -115.39,51.59,0 -115.37,51.59,0 -115.34,51.59,0 -115.32,51.58,0 -115.30,51.58,0 -115.28,51.57,0 -115.26,51.55,0 -115.24,51.54,0 -115.23,51.53,0 -115.21,51.52,0 -115.18,51.50,0 -115.16,51.49,0 -115.14,51.47,0 -115.12,51.46,0 -115.11,51.44,0 -115.10,51.43,0 -115.09,51.41,0 -115.09,51.39,0 -115.09,51.38,0 -115.09,51.36,0 -115.10,51.34,0 -115.11,51.32,0 -115.12,51.31,0 -115.13,51.29,0 -115.14,51.27,0 -115.15,51.26,0 -115.16,51.24,0 -115.17,51.23,0 -115.19,51.21,0 -115.20,51.20,0 -115.22,51.19,0 -115.24,51.18,0 -115.27,51.17,0 -115.29,51.16,0 -115.31,51.16,0 -115.33,51.15,0 -115.36,51.14,0 -115.38,51.14,0 -115.41,51.13,0 -115.44,51.13,0 -115.47,51.12,0 -115.49,51.12,0 -115.52,51.12,0 -115.54,51.12,0 -115.57,51.12,0 -115.60,51.13,0 -115.63,51.13,0 -115.66,51.14,0 -115.68,51.15,0 -115.71,51.15,0 -115.73,51.16,0 -115.76,51.16,0 -115.77,51.17,0 -115.79,51.17,0 -115.81,51.17,0 -115.82,51.18,0 -115.84,51.19,0 -115.86,51.20,0 -115.88,51.21,0 -115.90,51.23,0 -115.92,51.24,0 -115.95,51.26,0 -115.97,51.27,0 -115.98,51.29,0 -115.99,51.31,0 -116.00,51.32,0 -116.00,51.33,0 -116.00,51.35,0 -116.00,51.36,0 -115.99,51.38,0 -115.98,51.40,0 -115.97,51.41,0 -115.95,51.43,0 -115.94,51.44,0 -115.92,51.46,0 -115.91,51.47,0 -115.89,51.49,0 -115.88,51.50,0 
          </coordinates>
        </LinearRing>
      </outerBoundaryIs>
  </Polygon>
 </MultiGeometry>
</Placemark>
<Placemark>
  <name>1%</name>
  <visibility>1</visibility>
  <styleUrl>#poly_1</styleUrl>
  <MultiGeometry>
    <Polygon>
      <outerBoundaryIs>
        <LinearRing>
          <coordinates>
-110.09,45.41,0 -110.06,45.42,0 -110.02,45.43,0 -109.99,45.44,0 -109.95,45.45,0 -109.92,45.46,0 -109.88,45.46,0 -109.85,45.47,0 -109.81,45.47,0 -109.77,45.48,0 -109.73,45.48,0 -109.69,45.48,0 -109.65,45.48,0 -109.61,45.47,0 -109.58,45.46,0 -109.54,45.45,0 -109.51,45.44,0 -109.47,45.43,0 -109.43,45.41,0 -109.40,45.40,0 -109.37,45.39,0 -109.35,45.38,0 -109.31,45.37,0 -109.29,45.35,0 -109.27,45.33,0 -109.25,45.31,0 -109.23,45.29,0 -109.20,45.27,0 -109.18,45.24,0 -109.16,45.21,0 -109.14,45.19,0 -109.13,45.16,0 -109.12,45.13,0 -109.11,45.11,0 -109.11,45.08,0 -109.12,45.05,0 -109.12,45.02,0 -109.13,44.99,0 -109.14,44.97,0 -109.15,44.94,0 -109.17,44.91,0 -109.18,44.88,0 -109.20,44.86,0 -109.21,44.84,0 -109.23,44.81,0 -109.26,44.80,0 -109.28,44.79,0 -109.31,44.77,0 -109.35,44.76,0 -109.38,44.74,0 -109.42,44.73,0 -109.45,44.72,0 -109.49,44.71,0 -109.53,44.71,0 -109.57,44.71,0 -109.61,44.72,0 -109.64,44.73,0 -109.68,44.74,0 -109.71,44.75,0 -109.74,44.76,0 -109.77,44.77,0 -109.78,44.78,0 -109.81,44.80,0 -109.84,44.81,0 -109.87,44.83,0 -109.91,44.84,0 -109.95,44.86,0 -109.98,44.88,0 -110.01,44.89,0 -110.04,44.90,0 -110.06,44.92,0 -110.08,44.93,0 -110.10,44.95,0 -110.12,44.97,0 -110.14,44.99,0 -110.16,45.01,0 -110.18,45.04,0 -110.19,45.06,0 -110.21,45.09,0 -110.22,45.11,0 -110.23,45.14,0 -110.23,45.17,0 -110.23,45.19,0 -110.22,45.22,0 -110.22,45.25,0 -110.21,45.28,0 -110.09,45.41,0 
          </coordinates>
        </LinearRing>
      </outerBoundaryIs>
      <innerBoundaryIs>
        <LinearRing>
          <coordinates>
-109.83,45.33,1000 -109.80,45.33,1000 -109.78,45.33,1000 -109.75,45.33,1000 -109.73,45.32,1000 -109.71,45.32,1000 -109.69,45.32,1000 -109.67,45.32,1000 -109.65,45.32,1000 -109.63,45.32,1000 -109.62,45.33,1000 -109.59,45.32,1000 -109.58,45.31,1000 -109.56,45.31,1000 -109.55,45.30,1000 -109.53,45.29,1000 -109.51,45.28,1000 -109.49,45.27,1000 -109.47,45.26,1000 -109.45,45.24,1000 -109.43,45.23,1000 -109.42,45.22,1000 -109.40,45.21,1000 -109.38,45.19,1000 -109.37,45.18,1000 -109.36,45.17,1000 -109.35,45.16,1000 -109.34,45.14,1000 -109.33,45.12,1000 -109.33,45.11,1000 -109.33,45.09,1000 -109.32,45.07,1000 -109.32,45.06,1000 -109.33,45.04,1000 -109.33,45.03,1000 -109.33,45.01,1000 -109.34,45.00,1000 -109.35,44.99,1000 -109.36,44.97,1000 -109.37,44.96,1000 -109.39,44.95,1000 -109.40,44.93,1000 -109.42,44.92,1000 -109.44,44.91,1000 -109.46,44.90,1000 -109.48,44.89,1000 -109.50,44.89,1000 -109.52,44.88,1000 -109.54,44.88,1000 -109.56,44.88,1000 -109.59,44.88,1000 -109.61,44.88,1000 -109.64,44.88,1000 -109.66,44.89,1000 -109.69,44.89,1000 -109.71,44.90,1000 -109.73,44.90,1000 -109.75,44.91,1000 -109.77,44.91,1000 -109.80,44.92,1000 -109.82,44.92,1000 -109.83,44.93,1000 -109.84,44.94,1000 -109.86,44.96,1000 -109.87,44.97,1000 -109.88,44.98,1000 -109.90,44.99,1000 -109.91,45.01,1000 -109.92,45.02,1000 -109.94,45.04,1000 -109.95,45.05,1000 -109.96,45.07,1000 -109.97,45.08,1000 -109.98,45.10,1000 -109.99,45.12,1000 -109.99,45.13,1000 -109.99,45.14,1000 -109.99,45.16,1000 -109.98,45.17,1000 -109.98,45.19,1000 -109.97,45.20,1000 -109.96,45.22,1000 -109.95,45.23,1000 -109.93,45.25,1000 -109.92,45.26,1000 -109.91,45.28,1000 -109.89,45.29,1000 -109.88,45.31,1000 -109.83,45.33,1000 
          </coordinates>
        </LinearRing>
      </innerBoundaryIs>
  </Polygon>
 </MultiGeometry>
</Placemark>
<Placemark>
  <name>1%</name>
  <visibility>1</visibility>
  <styleUrl>#poly_1</styleUrl>
  <MultiGeometry>
    <Polygon>
      <outerBoundaryIs>
        <LinearRing>
          <coordinates>
-107.56,44.73,0 -107.53,44.74,0 -107.49,44.75,0 -107.46,44.76,0 -107.42,44.76,0 -107.39,44.77,0 -107.35,44.78,0 -107.32,44.78,0 -107.29,44.78,0 -107.25,44.78,0 -107.22,44.79,0 -107.18,44.78,0 -107.15,44.78,0 -107.11,44.78,0 -107.08,44.77,0 -107.05,44.76,0 -107.01,44.75,0 -106.98,44.73,0 -106.95,44.72,0 -106.92,44.70,0 -106.89,44.68,0 -106.87,44.66,0 -106.85,44.64,0 -106.84,44.61,0 -106.83,44.59,0 -106.82,44.56,0 -106.81,44.53,0 -106.81,44.51,0 -106.80,44.49,0 -106.79,44.46,0 -106.79,44.44,0 -106.79,44.42,0 -106.79,44.40,0 -106.78,44.37,0 -106.77,44.34,0 -106.77,44.32,0 -106.78,44.30,0 -106.79,44.28,0 -106.81,44.26,0 -106.83,44.24,0 -106.84,44.21,0 -106.86,44.18,0 -106.88,44.16,0 -106.90,44.14,0 -106.92,44.12,0 -106.94,44.10,0 -106.96,44.09,0 -106.99,44.08,0 -107.02,44.07,0 -107.05,44.06,0 -107.09,44.06,0 -107.12,44.05,0 -107.16,44.04,0 -107.20,44.04,0 -107.23,44.04,0 -107.26,44.05,0 -107.30,44.06,0 -107.33,44.07,0 -107.36,44.09,0 -107.39,44.10,0 -107.41,44.11,0 -107.44,44.11,0 -107.48,44.12,0 -107.50,44.13,0 -107.53,44.15,0 -107.56,44.16,0 -107.59,44.18,0 -107.62,44.20,0 -107.65,44.22,0 -107.67,44.24,0 -107.69,44.26,0 -107.71,44.28,0 -107.72,44.31,0 -107.72,44.33,0 -107.73,44.36,0 -107.73,44.38,0 -107.73,44.41,0 -107.73,44.43,0 -107.73,44.45,0 -107.73,44.48,0 -107.73,44.50,0 -107.72,44.53,0 -107.72,44.55,0 -107.71,44.58,0 -107.71,44.60,0 -107.56,44.73,0 
          </coordinates>
        </LinearRing>
      </outerBoundaryIs>
      <innerBoundaryIs>
        <LinearRing>
          <coordinates>
-107.31,44.67,1000 -107.29,44.67,1000 -107.26,44.66,1000 -107.24,44.66,1000 -107.22,44.65,1000 -107.20,44.65,1000 -107.18,44.64,1000 -107.16,44.64,1000 -107.14,44.64,1000 -107.12,44.63,1000 -107.10,44.63,1000 -107.08,44.62,1000 -107.06,44.61,1000 -107.05,44.60,1000 -107.03,44.59,1000 -107.01,44.58,1000 -106.99,44.56,1000 -106.97,44.55,1000 -106.96,44.53,1000 -106.94,44.51,1000 -106.93,44.50,1000 -106.92,44.48,1000 -106.92,44.46,1000 -106.91,44.45,1000 -106.92,44.43,1000 -106.92,44.41,1000 -106.92,44.39,1000 -106.93,44.37,1000 -106.93,44.35,1000 -106.94,44.34,1000 -106.95,44.32,1000 -106.95,44.31,1000 -106.96,44.29,1000 -106.96,44.28,1000 -106.97,44.27,1000 -106.99,44.26,1000 -107.01,44.25,1000 -107.03,44.24,1000 -107.04,44.24,1000 -107.06,44.23,1000 -107.08,44.22,1000 -107.11,44.21,1000 -107.13,44.20,1000 -107.16,44.19,1000 -107.18,44.19,1000 -107.20,44.18,1000 -107.23,44.18,1000 -107.25,44.18,1000 -107.27,44.18,1000 -107.30,44.19,1000 -107.32,44.19,1000 -107.34,44.20,1000 -107.37,44.21,1000 -107.39,44.22,1000 -107.41,44.23,1000 -107.43,44.25,1000 -107.45,44.26,1000 -107.47,44.26,1000 -107.48,44.27,1000 -107.50,44.28,1000 -107.50,44.30,1000 -107.51,44.31,1000 -107.52,44.32,1000 -107.53,44.34,1000 -107.54,44.36,1000 -107.56,44.37,1000 -107.57,44.39,1000 -107.58,44.41,1000 -107.59,44.43,1000 -107.59,44.44,1000 -107.59,44.46,1000 -107.58,44.48,1000 -107.57,44.49,1000 -107.56,44.51,1000 -107.54,44.52,1000 -107.53,44.54,1000 -107.52,44.55,1000 -107.50,44.56,1000 -107.49,44.58,1000 -107.47,44.59,1000 -107.45,44.60,1000 -107.44,44.61,1000 -107.42,44.62,1000 -107.31,44.67,1000 
          </coordinates>
        </LinearRing>
      </innerBoundaryIs>
  </Polygon>
 </MultiGeometry>
</Placemark>
<Placemark>
  <name>5%</name>
  <visibility>1</visibility>
  <styleUrl>#poly_5</styleUrl>
  <MultiGeometry>
    <Polygon>
      <outerBoundaryIs>
        <LinearRing>
          <coordinates>
-109.83,45.33,1000 -109.80,45.33,1000 -109.78,45.33,1000 -109.75,45.33,1000 -109.73,45.32,1000 -109.71,45.32,1000 -109.69,45.32,1000 -109.67,45.32,1000 -109.65,45.32,1000 -109.63,45.32,1000 -109.62,45.33,1000 -109.59,45.32,1000 -109.58,45.31,1000 -109.56,45.31,1000 -109.55,45.30,1000 -109.53,45.29,1000 -109.51,45.28,1000 -109.49,45.27,1000 -109.47,45.26,1000 -109.45,45.24,1000 -109.43,45.23,1000 -109.42,45.22,1000 -109.40,45.21,1000 -109.38,45.19,1000 -109.37,45.18,1000 -109.36,45.17,1000 -109.35,45.16,1000 -109.34,45.14,1000 -109.33,45.12,1000 -109.33,45.11,1000 -109.33,45.09,1000 -109.32,45.07,1000 -109.32,45.06,1000 -109.33,45.04,1000 -109.33,45.03,1000 -109.33,45.01,1000 -109.34,45.00,1000 -109.35,44.99,1000 -109.36,44.97,1000 -109.37,44.96,1000 -109.39,44.95,1000 -109.40,44.93,1000 -109.42,44.92,1000 -109.44,44.91,1000 -109.46,44.90,1000 -109.48,44.89,1000 -109.50,44.89,1000 -109.52,44.88,1000 -109.54,44.88,1000 -109.56,44.88,1000 -109.59,44.88,1000 -109.61,44.88,1000 -109.64,44.88,1000 -109.66,44.89,1000 -109.69,44.89,1000 -109.71,44.90,1000 -109.73,44.90,1000 -109.75,44.91,1000 -109.77,44.91,1000 -109.80,44.92,1000 -109.82,44.92,1000 -109.83,44.93,1000 -109.84,44.94,1000 -109.86,44.96,1000 -109.87,44.97,1000 -109.88,44.98,1000 -109.90,44.99,1000 -109.91,45.01,1000 -109.92,45.02,1000 -109.94,45.04,1000 -109.95,45.05,1000 -109.96,45.07,1000 -109.97,45.08,1000 -109.98,45.10,1000 -109.99,45.12,1000 -109.99,45.13,1000 -109.99,45.14,1000 -109.99,45.16,1000 -109.98,45.17,1000 -109.98,45.19,1000 -109.97,45.20,1000 -109.96,45.22,1000 -109.95,45.23,1000 -109.93,45.25,1000 -109.92,45.26,1000 -109.91,45.28,1000 -109.89,45.29,1000 -109.88,45.31,1000 -109.83,45.33,1000 
          </coordinates>
        </LinearRing>
      </outerBoundaryIs>
      <innerBoundaryIs>
        <LinearRing>
          <coordinates>
-109.81,45.16,2000 -109.80,45.16,2000 -109.79,45.16,2000 -109.78,45.17,2000 -109.77,45.17,2000 -109.76,45.17,2000 -109.75,45.17,2000 -109.74,45.17,2000 -109.73,45.17,2000 -109.72,45.17,2000 -109.71,45.18,2000 -109.70,45.18,2000 -109.69,45.18,2000 -109.68,45.18,2000 -109.67,45.18,2000 -109.66,45.18,2000 -109.65,45.18,2000 -109.64,45.18,2000 -109.63,45.19,2000 -109.62,45.19,2000 -109.62,45.19,2000 -109.61,45.19,2000 -109.60,45.19,2000 -109.59,45.19,2000 -109.59,45.19,2000 -109.58,45.19,2000 -109.58,45.19,2000 -109.57,45.19,2000 -109.55,45.19,2000 -109.54,45.19,2000 -109.53,45.19,2000 -109.53,45.18,2000 -109.52,45.18,2000 -109.52,45.17,2000 -109.52,45.17,2000 -109.52,45.16,2000 -109.52,45.16,2000 -109.52,45.15,2000 -109.52,45.14,2000 -109.52,45.14,2000 -109.52,45.13,2000 -109.52,45.12,2000 -109.52,45.12,2000 -109.52,45.11,2000 -109.52,45.10,2000 -109.52,45.09,2000 -109.52,45.08,2000 -109.52,45.08,2000 -109.52,45.07,2000 -109.53,45.06,2000 -109.53,45.06,2000 -109.54,45.06,2000 -109.54,45.05,2000 -109.55,45.05,2000 -109.56,45.05,2000 -109.56,45.05,2000 -109.57,45.05,2000 -109.57,45.05,2000 -109.58,45.05,2000 -109.59,45.05,2000 -109.60,45.05,2000 -109.61,45.06,2000 -109.62,45.06,2000 -109.63,45.06,2000 -109.64,45.06,2000 -109.65,45.06,2000 -109.66,45.07,2000 -109.67,45.07,2000 -109.68,45.07,2000 -109.69,45.08,2000 -109.70,45.08,2000 -109.71,45.08,2000 -109.72,45.08,2000 -109.73,45.09,2000 -109.74,45.09,2000 -109.75,45.09,2000 -109.76,45.10,2000 -109.77,45.10,2000 -109.77,45.10,2000 -109.78,45.10,2000 -109.79,45.11,2000 -109.79,45.11,2000 -109.80,45.11,2000 -109.82,45.12,2000 -109.83,45.12,2000 -109.84,45.13,2000 -109.84,45.13,2000 -109.83,45.14,2000 -109.83,45.14,2000 -109.81,45.16,2000 
          </coordinates>
        </LinearRing>
      </innerBoundaryIs>
  </Polygon>
 </MultiGeometry>
</Placemark>
<Placemark>
  <name>5%</name>
  <visibility>1</visibility>
  <styleUrl>#poly_5</styleUrl>
  <MultiGeometry>
    <Polygon>
      <outerBoundaryIs>
        <LinearRing>
          <coordinates>
-107.31,44.67,1000 -107.29,44.67,1000 -107.26,44.66,1000 -107.24,44.66,1000 -107.22,44.65,1000 -107.20,44.65,1000 -107.18,44.64,1000 -107.16,44.64,1000 -107.14,44.64,1000 -107.12,44.63,1000 -107.10,44.63,1000 -107.08,44.62,1000 -107.06,44.61,1000 -107.05,44.60,1000 -107.03,44.59,1000 -107.01,44.58,1000 -106.99,44.56,1000 -106.97,44.55,1000 -106.96,44.53,1000 -106.94,44.51,1000 -106.93,44.50,1000 -106.92,44.48,1000 -106.92,44.46,1000 -106.91,44.45,1000 -106.92,44.43,1000 -106.92,44.41,1000 -106.92,44.39,1000 -106.93,44.37,1000 -106.93,44.35,1000 -106.94,44.34,1000 -106.95,44.32,1000 -106.95,44.31,1000 -106.96,44.29,1000 -106.96,44.28,1000 -106.97,44.27,1000 -106.99,44.26,1000 -107.01,44.25,1000 -107.03,44.24,1000 -107.04,44.24,1000 -107.06,44.23,1000 -107.08,44.22,1000 -107.11,44.21,1000 -107.13,44.20,1000 -107.16,44.19,1000 -107.18,44.19,1000 -107.20,44.18,1000 -107.23,44.18,1000 -107.25,44.18,1000 -107.27,44.18,1000 -107.30,44.19,1000 -107.32,44.19,1000 -107.34,44.20,1000 -107.37,44.21,1000 -107.39,44.22,1000 -107.41,44.23,1000 -107.43,44.25,1000 -107.45,44.26,1000 -107.47,44.26,1000 -107.48,44.27,1000 -107.50,44.28,1000 -107.50,44.30,1000 -107.51,44.31,1000 -107.52,44.32,1000 -107.53,44.34,1000 -107.54,44.36,1000 -107.56,44.37,1000 -107.57,44.39,1000 -107.58,44.41,1000 -107.59,44.43,1000 -107.59,44.44,1000 -107.59,44.46,1000 -107.58,44.48,1000 -107.57,44.49,1000 -107.56,44.51,1000 -107.54,44.52,1000 -107.53,44.54,1000 -107.52,44.55,1000 -107.50,44.56,1000 -107.49,44.58,1000 -107.47,44.59,1000 -107.45,44.60,1000 -107.44,44.61,1000 -107.42,44.62,1000 -107.31,44.67,1000 
          </coordinates>
        </LinearRing>
      </outerBoundaryIs>
      <innerBoundaryIs>
        <LinearRing>
          <coordinates>
-107.29,44.56,2000 -107.27,44.56,2000 -107.25,44.55,2000 -107.24,44.55,2000 -107.22,44.54,2000 -107.20,44.54,2000 -107.19,44.54,2000 -107.17,44.53,2000 -107.16,44.53,2000 -107.14,44.52,2000 -107.13,44.52,2000 -107.12,44.51,2000 -107.11,44.50,2000 -107.10,44.50,2000 -107.09,44.49,2000 -107.09,44.48,2000 -107.08,44.48,2000 -107.08,44.47,2000 -107.08,44.46,2000 -107.08,44.46,2000 -107.09,44.45,2000 -107.09,44.44,2000 -107.10,44.43,2000 -107.11,44.42,2000 -107.11,44.41,2000 -107.12,44.40,2000 -107.13,44.39,2000 -107.15,44.38,2000 -107.16,44.37,2000 -107.17,44.36,2000 -107.18,44.35,2000 -107.19,44.34,2000 -107.20,44.33,2000 -107.21,44.32,2000 -107.22,44.32,2000 -107.23,44.31,2000 -107.24,44.30,2000 -107.24,44.29,2000 -107.25,44.29,2000 -107.26,44.27,2000 -107.26,44.28,2000 -107.26,44.27,2000 -107.27,44.29,2000 -107.27,44.29,2000 -107.28,44.30,2000 -107.29,44.31,2000 -107.29,44.31,2000 -107.30,44.32,2000 -107.31,44.32,2000 -107.31,44.33,2000 -107.32,44.34,2000 -107.33,44.35,2000 -107.34,44.36,2000 -107.35,44.36,2000 -107.36,44.37,2000 -107.37,44.38,2000 -107.38,44.39,2000 -107.39,44.40,2000 -107.40,44.41,2000 -107.41,44.42,2000 -107.42,44.43,2000 -107.43,44.44,2000 -107.44,44.45,2000 -107.29,44.56,2000 
          </coordinates>
        </LinearRing>
      </innerBoundaryIs>
  </Polygon>
 </MultiGeometry>
</Placemark>
<Placemark>
  <name>10%</name>
  <visibility>1</visibility>
  <styleUrl>#poly_10</styleUrl>
  <MultiGeometry>
    <Polygon>
      <outerBoundaryIs>
        <LinearRing>
          <coordinates>
-109.81,45.16,2000 -109.80,45.16,2000 -109.79,45.16,2000 -109.78,45.17,2000 -109.77,45.17,2000 -109.76,45.17,2000 -109.75,45.17,2000 -109.74,45.17,2000 -109.73,45.17,2000 -109.72,45.17,2000 -109.71,45.18,2000 -109.70,45.18,2000 -109.69,45.18,2000 -109.68,45.18,2000 -109.67,45.18,2000 -109.66,45.18,2000 -109.65,45.18,2000 -109.64,45.18,2000 -109.63,45.19,2000 -109.62,45.19,2000 -109.62,45.19,2000 -109.61,45.19,2000 -109.60,45.19,2000 -109.59,45.19,2000 -109.59,45.19,2000 -109.58,45.19,2000 -109.58,45.19,2000 -109.57,45.19,2000 -109.55,45.19,2000 -109.54,45.19,2000 -109.53,45.19,2000 -109.53,45.18,2000 -109.52,45.18,2000 -109.52,45.17,2000 -109.52,45.17,2000 -109.52,45.16,2000 -109.52,45.16,2000 -109.52,45.15,2000 -109.52,45.14,2000 -109.52,45.14,2000 -109.52,45.13,2000 -109.52,45.12,2000 -109.52,45.12,2000 -109.52,45.11,2000 -109.52,45.10,2000 -109.52,45.09,2000 -109.52,45.08,2000 -109.52,45.08,2000 -109.52,45.07,2000 -109.53,45.06,2000 -109.53,45.06,2000 -109.54,45.06,2000 -109.54,45.05,2000 -109.55,45.05,2000 -109.56,45.05,2000 -109.56,45.05,2000 -109.57,45.05,2000 -109.57,45.05,2000 -109.58,45.05,2000 -109.59,45.05,2000 -109.60,45.05,2000 -109.61,45.06,2000 -109.62,45.06,2000 -109.63,45.06,2000 -109.64,45.06,2000 -109.65,45.06,2000 -109.66,45.07,2000 -109.67,45.07,2000 -109.68,45.07,2000 -109.69,45.08,2000 -109.70,45.08,2000 -109.71,45.08,2000 -109.72,45.08,2000 -109.73,45.09,2000 -109.74,45.09,2000 -109.75,45.09,2000 -109.76,45.10,2000 -109.77,45.10,2000 -109.77,45.10,2000 -109.78,45.10,2000 -109.79,45.11,2000 -109.79,45.11,2000 -109.80,45.11,2000 -109.82,45.12,2000 -109.83,45.12,2000 -109.84,45.13,2000 -109.84,45.13,2000 -109.83,45.14,2000 -109.83,45.14,2000 -109.81,45.16,2000 
          </coordinates>
        </LinearRing>
      </outerBoundaryIs>
  </Polygon>
 </MultiGeometry>
</Placemark>
<Placemark>
  <name>10%</name>
  <visibility>1</visibility>
  <styleUrl>#poly_10</styleUrl>
  <MultiGeometry>
    <Polygon>
      <outerBoundaryIs>
        <LinearRing>
          <coordinates>
-107.29,44.56,2000 -107.27,44.56,2000 -107.25,44.55,2000 -107.24,44.55,2000 -107.22,44.54,2000 -107.20,44.54,2000 -107.19,44.54,2000 -107.17,44.53,2000 -107.16,44.53,2000 -107.14,44.52,2000 -107.13,44.52,2000 -107.12,44.51,2000 -107.11,44.50,2000 -107.10,44.50,2000 -107.09,44.49,2000 -107.09,44.48,2000 -107.08,44.48,2000 -107.08,44.47,2000 -107.08,44.46,2000 -107.08,44.46,2000 -107.09,44.45,2000 -107.09,44.44,2000 -107.10,44.43,2000 -107.11,44.42,2000 -107.11,44.41,2000 -107.12,44.40,2000 -107.13,44.39,2000 -107.15,44.38,2000 -107.16,44.37,2000 -107.17,44.36,2000 -107.18,44.35,2000 -107.19,44.34,2000 -107.20,44.33,2000 -107.21,44.32,2000 -107.22,44.32,2000 -107.23,44.31,2000 -107.24,44.30,2000 -107.24,44.29,2000 -107.25,44.29,2000 -107.26,44.27,2000 -107.26,44.28,2000 -107.26,44.27,2000 -107.27,44.29,2000 -107.27,44.29,2000 -107.28,44.30,2000 -107.29,44.31,2000 -107.29,44.31,2000 -107.30,44.32,2000 -107.31,44.32,2000 -107.31,44.33,2000 -107.32,44.34,2000 -107.33,44.35,2000 -107.34,44.36,2000 -107.35,44.36,2000 -107.36,44.37,2000 -107.37,44.38,2000 -107.38,44.39,2000 -107.39,44.40,2000 -107.40,44.41,2000 -107.41,44.42,2000 -107.42,44.43,2000 -107.43,44.44,2000 -107.44,44.45,2000 -107.29,44.56,2000 
          </coordinates>
        </LinearRing>
      </outerBoundaryIs>
  </Polygon>
 </MultiGeometry>
</Placemark>
    </Folder>
  </Document>
</kml>
