<?xml version="1.0" encoding="UTF-8"?>
<kml xmlns="http://www.opengis.net/kml/2.2">
<Document id="prb_72hsnow_ge02_f072">
<name>WPC 72-Hr Prob of Snow > 2"</name>
  <open>1</open>
  <snippet>Valid 12Z 09/25/2026 - 12Z 09/28/2026</snippet>
  <description></description>
    <Style id="poly_1">
        <IconStyle>
           <color>00000000</color>
           <scale>1</scale>
        </IconStyle>
        <LabelStyle>
            <color>ff26478b</color>
            <scale>0.8</scale>
        </LabelStyle>
        <LineStyle>
            <color>6626478b</color>
            <width>0</width>
        </LineStyle>
	<PolyStyle>
            <color>6626478b</color>
	</PolyStyle>
        <BalloonStyle>
            <text>
                <![CDATA[ <table border=0 width="300"><tr><td style="font-size:10pt;">
                During this forecast period, there is a <b>1-5%</b> probability of snowfall exceeding the depicted amount in the enclosed area.
                <br/><br/>
                *<span style="font-size:8pt;">Note that in cases where this contour is embedded within a 5% contour, 
                the probability of snowfall exceeding the depicted amount is &lt;1%.</span>
                </td></tr></table>]]>
            </text>
        </BalloonStyle>
    </Style>

    <Style id="poly_5">
        <IconStyle>
           <color>00000000</color>
           <scale>1</scale>
        </IconStyle>
        <LabelStyle>
            <color>ff00eeee</color>
            <scale>0.8</scale>
        </LabelStyle>
        <LineStyle>
            <color>6600eeee</color>
            <width>0.4</width>
        </LineStyle>
	<PolyStyle>
	    <color>6600eeee</color>
	</PolyStyle>
        <BalloonStyle>
            <text>
                <![CDATA[ <table border=0 width="300"><tr><td style="font-size:10pt;">
                During this forecast period, there is a <b>5-10%</b> probability of snowfall exceeding the depicted amount in the enclosed area.
                <br/><br/>
                *<span style="font-size:8pt;">Note that in cases where this contour is embedded within a 10% contour, 
                the probability of snowfall exceeding the depicted amount is &lt;5%.</span>
                </td></tr></table>]]>
            </text>
        </BalloonStyle>
    </Style>

    <Style id="poly_10">
        <IconStyle>
           <color>00000000</color>
           <scale>1</scale>
        </IconStyle>
        <LabelStyle>
            <color>ff00ff7f</color>
            <scale>0.8</scale>
        </LabelStyle>
        <LineStyle>
            <color>6600ff7f</color>
            <width>0.4</width>
        </LineStyle>
	<PolyStyle>
	    <color>6600ff7f</color>
	</PolyStyle>
        <BalloonStyle>
            <text>
                <![CDATA[ <table border=0 width="300"><tr><td style="font-size:10pt;">
                During this forecast period, there is a <b>10-20%</b> probability of snowfall exceeding the depicted amount in the enclosed area.
                <br/><br/>
                *<span style="font-size:8pt;">Note that in cases where this contour is embedded within a 20% contour, 
                the probability of snowfall exceeding the depicted amount is &lt;10%.</span>
                </td></tr></table>]]>
            </text>
        </BalloonStyle>
    </Style>
    
    <Style id="poly_20">
        <IconStyle>
            <color>00000000</color>
            <scale>1</scale>
        </IconStyle>
        <LabelStyle>
            <color>ff00cd00</color>
            <scale>0.8</scale>
        </LabelStyle>
        <LineStyle>
            <color>6600cd00</color>
	    <width>0.4</width>
	</LineStyle>
	<PolyStyle>
	    <color>6600cd00</color>
	</PolyStyle>
        <BalloonStyle>
            <text>
                <![CDATA[ <table border=0 width="300"><tr><td style="font-size:10pt;">
                During this forecast period, there is a <b>20-30%</b> probability of snowfall exceeding the depicted amount in the enclosed area.
                <br/><br/>
                *<span style="font-size:8pt;">Note that in cases where this contour is embedded within a 30% contour, 
                the probability of snowfall exceeding the depicted amount is &lt;20%.</span>
                </td></tr></table>]]>
            </text>
        </BalloonStyle>
    </Style>

    <Style id="poly_30">
        <IconStyle>
            <color>00000000</color>
            <scale>1</scale>
        </IconStyle>
        <LabelStyle>
            <color>ff008b00</color>
            <scale>0.8</scale>
        </LabelStyle>
        <LineStyle>
            <color>66008b00</color>
	    <width>0.4</width>
	</LineStyle>
	<PolyStyle>
	    <color>66008b00</color>
	</PolyStyle>
        <BalloonStyle>
            <text>
                <![CDATA[ <table border=0 width="300"><tr><td style="font-size:10pt;">
                During this forecast period, there is a <b>30-40%</b> probability of snowfall exceeding the depicted amount in the enclosed area.
                <br/><br/>
                *<span style="font-size:8pt;">Note that in cases where this contour is embedded within a 40% contour, 
                the probability of snowfall exceeding the depicted amount is &lt;30%.</span>
                </td></tr></table>]]>
            </text>
        </BalloonStyle>
    </Style>

    <Style id="poly_40">
        <IconStyle>
            <color>00000000</color>
            <scale>1</scale>
        </IconStyle>
        <LabelStyle>
            <color>ff8b4e10</color>
            <scale>0.8</scale>
        </LabelStyle>
        <LineStyle>
            <color>668b4e10</color>
	    <width>0.4</width>
	</LineStyle>
	<PolyStyle>
	    <color>668b4e10</color>
	</PolyStyle>
        <BalloonStyle>
            <text>
                <![CDATA[ <table border=0 width="300"><tr><td style="font-size:10pt;">
                During this forecast period, there is a <b>40-50%</b> probability of snowfall exceeding the depicted amount in the enclosed area.
                <br/><br/>
                *<span style="font-size:8pt;">Note that in cases where this contour is embedded within a 50% contour, 
                the probability of snowfall exceeding the depicted amount is &lt;40%.</span>
                </td></tr></table>]]>
            </text>
        </BalloonStyle>
    </Style>

    <Style id="poly_50">
        <IconStyle>
            <color>00000000</color>
            <scale>1</scale>
        </IconStyle>
        <LabelStyle>
            <color>ffff901e</color>
            <scale>0.8</scale>
        </LabelStyle>
        <LineStyle>
            <color>66ff901e</color>
	    <width>0.4</width>
	</LineStyle>
	<PolyStyle>
	    <color>66ff901e</color>
	</PolyStyle>
        <BalloonStyle>
            <text>
                <![CDATA[ <table border=0 width="300"><tr><td style="font-size:10pt;">
                During this forecast period, there is a <b>50-60%</b> probability of snowfall exceeding the depicted amount in the enclosed area.
                <br/><br/>
                *<span style="font-size:8pt;">Note that in cases where this contour is embedded within a 60% contour, 
                the probability of snowfall exceeding the depicted amount is &lt;50%.</span>
                </td></tr></table>]]>
            </text>
        </BalloonStyle>
    </Style>

    <Style id="poly_60">
        <IconStyle>
            <color>00000000</color>
            <scale>1</scale>
        </IconStyle>
        <LabelStyle>
            <color>ffeeb200</color>
            <scale>0.8</scale>
        </LabelStyle>
        <LineStyle>
            <color>66eeb200</color>
	    <width>0.4</width>
	</LineStyle>
	<PolyStyle>
	    <color>66eeb200</color>
	</PolyStyle>
        <BalloonStyle>
            <text>
                <![CDATA[ <table border=0 width="300"><tr><td style="font-size:10pt;">
                During this forecast period, there is a <b>60-70%</b> probability of snowfall exceeding the depicted amount in the enclosed area.
                <br/><br/>
                *<span style="font-size:8pt;">Note that in cases where this contour is embedded within a 70% contour, 
                the probability of snowfall exceeding the depicted amount is &lt;60%.</span>
                </td></tr></table>]]>
            </text>
        </BalloonStyle>
    </Style>
    
    <Style id="poly_70">
        <IconStyle>
            <color>00000000</color>
            <scale>1</scale>
        </IconStyle>
        <LabelStyle>
            <color>ffeeee00</color>
            <scale>0.8</scale>
        </LabelStyle>
        <LineStyle>
            <color>66eeee00</color>
	    <width>0.4</width>
	</LineStyle>
	<PolyStyle>
	    <color>66eeee00</color>
	</PolyStyle>
        <BalloonStyle>
            <text>
                <![CDATA[ <table border=0 width="300"><tr><td style="font-size:10pt;">
                During this forecast period, there is a <b>70-80%</b> probability of snowfall exceeding the depicted amount in the enclosed area.
                <br/><br/>
                *<span style="font-size:8pt;">Note that in cases where this contour is embedded within a 80% contour, 
                the probability of snowfall exceeding the depicted amount is &lt;70%.</span>
                </td></tr></table>]]>
            </text>
        </BalloonStyle>
    </Style>

    <Style id="poly_80">
        <IconStyle>
            <color>00000000</color>
            <scale>1</scale>
        </IconStyle>
        <LabelStyle>
            <color>ff4782ff</color>
            <scale>0.8</scale>
        </LabelStyle>
        <LineStyle>
            <color>664782ff</color>
	    <width>0.4</width>
	</LineStyle>
	<PolyStyle>
	    <color>664782ff</color>
	</PolyStyle>
        <BalloonStyle>
            <text>
                <![CDATA[ <table border=0 width="300"><tr><td style="font-size:10pt;">
                During this forecast period, there is a <b>80-90%</b> probability of snowfall exceeding the depicted amount in the enclosed area.
                <br/><br/>
                *<span style="font-size:8pt;">Note that in cases where this contour is embedded within a 90% contour, 
                the probability of snowfall exceeding the depicted amount is &lt;80%.</span>
                </td></tr></table>]]>
            </text>
        </BalloonStyle>
    </Style>

    <Style id="poly_90">
        <IconStyle>
            <color>00000000</color>
            <scale>1</scale>
        </IconStyle>
        <LabelStyle>
            <color>ff2c2cee</color>
            <scale>0.8</scale>
        </LabelStyle>
        <LineStyle>
            <color>662c2cee</color>
            <width>0.4</width>
        </LineStyle>
        <PolyStyle>
            <color>662c2cee</color>
        </PolyStyle>
        <BalloonStyle>
            <text>
                <![CDATA[ <table border=0 width="300"><tr><td style="font-size:10pt;">
                During this forecast period, there is a <b>90-95%</b> probability of snowfall exceeding the depicted amount in the enclosed area.
                <br/><br/>
                *<span style="font-size:8pt;">Note that in cases where this contour is embedded within a 95% contour, 
                the probability of snowfall exceeding the depicted amount is &lt;90%.</span>
                </td></tr></table>]]>
            </text>
        </BalloonStyle>
    </Style>

    <Style id="poly_95">
        <IconStyle>
            <color>00000000</color>
            <scale>1</scale>
        </IconStyle>
        <LabelStyle>
            <color>ff00008b</color>
            <scale>0.8</scale>
        </LabelStyle>
        <LineStyle>
            <color>6600008b</color>
	    <width>0.4</width>
	</LineStyle>
	<PolyStyle>
	    <color>6600008b</color>
	</PolyStyle>
        <BalloonStyle>
            <text>
                <![CDATA[ <table border=0 width="300"><tr><td style="font-size:10pt;">
                The probability of snowfall exceeding the depicted amount is <b>&ge;95%</b> in the enclosed area during this forecast period.
                </td></tr></table>]]>
            </text>
        </BalloonStyle>
    </Style>

  <ScreenOverlay>
    <name>Logos</name>
    <description></description>
    <Icon>
      <href>https://www.wpc.ncep.noaa.gov/images/noaa_and_nws_logo.png</href>
    </Icon>
   <overlayXY x=".01" y=".01" xunits="fraction" yunits="fraction" />
   <screenXY x=".01" y=".01" xunits="fraction" yunits="fraction" />
   <rotationXY x="0" y="0" xunits="fraction" yunits="fraction" />
   <size x="-1" y="-1" xunits="fraction" yunits="fraction" />
  </ScreenOverlay>
    <Folder>
      <name>Snow Probabilities</name>
      <open>0</open>
<Placemark>
  <name>1%</name>
  <visibility>1</visibility>
  <styleUrl>#poly_1</styleUrl>
  <MultiGeometry>
    <Polygon>
      <outerBoundaryIs>
        <LinearRing>
          <coordinates>
-122.11,47.02,0 -122.08,47.03,0 -122.05,47.04,0 -122.03,47.05,0 -122.00,47.05,0 -121.97,47.06,0 -121.94,47.07,0 -121.91,47.08,0 -121.88,47.08,0 -121.85,47.08,0 -121.82,47.09,0 -121.79,47.09,0 -121.75,47.09,0 -121.72,47.10,0 -121.69,47.10,0 -121.66,47.09,0 -121.63,47.09,0 -121.60,47.08,0 -121.57,47.07,0 -121.53,47.06,0 -121.51,47.05,0 -121.48,47.03,0 -121.45,47.02,0 -121.43,47.00,0 -121.41,46.98,0 -121.40,46.97,0 -121.38,46.95,0 -121.37,46.92,0 -121.36,46.90,0 -121.35,46.88,0 -121.35,46.86,0 -121.34,46.84,0 -121.33,46.82,0 -121.33,46.80,0 -121.32,46.78,0 -121.32,46.75,0 -121.32,46.73,0 -121.32,46.71,0 -121.32,46.69,0 -121.33,46.67,0 -121.34,46.65,0 -121.35,46.63,0 -121.37,46.61,0 -121.39,46.59,0 -121.40,46.58,0 -121.43,46.56,0 -121.45,46.54,0 -121.47,46.53,0 -121.49,46.52,0 -121.52,46.51,0 -121.55,46.50,0 -121.58,46.49,0 -121.61,46.49,0 -121.64,46.48,0 -121.67,46.47,0 -121.70,46.47,0 -121.73,46.47,0 -121.76,46.46,0 -121.79,46.46,0 -121.83,46.46,0 -121.86,46.45,0 -121.89,46.45,0 -121.92,46.46,0 -121.95,46.46,0 -121.98,46.47,0 -122.01,46.48,0 -122.04,46.49,0 -122.07,46.50,0 -122.09,46.52,0 -122.12,46.53,0 -122.14,46.55,0 -122.16,46.57,0 -122.17,46.58,0 -122.18,46.60,0 -122.20,46.62,0 -122.21,46.65,0 -122.22,46.67,0 -122.22,46.69,0 -122.23,46.71,0 -122.24,46.73,0 -122.24,46.75,0 -122.24,46.77,0 -122.24,46.79,0 -122.24,46.82,0 -122.24,46.84,0 -122.24,46.86,0 -122.24,46.88,0 -122.11,47.02,0 
          </coordinates>
        </LinearRing>
      </outerBoundaryIs>
      <innerBoundaryIs>
        <LinearRing>
          <coordinates>
-121.85,46.98,1000 -121.83,46.98,1000 -121.82,46.97,1000 -121.80,46.97,1000 -121.78,46.96,1000 -121.76,46.96,1000 -121.74,46.95,1000 -121.72,46.94,1000 -121.71,46.94,1000 -121.69,46.93,1000 -121.67,46.92,1000 -121.65,46.92,1000 -121.63,46.91,1000 -121.62,46.90,1000 -121.60,46.89,1000 -121.58,46.89,1000 -121.57,46.88,1000 -121.55,46.87,1000 -121.54,46.86,1000 -121.52,46.85,1000 -121.51,46.84,1000 -121.50,46.83,1000 -121.50,46.82,1000 -121.50,46.81,1000 -121.50,46.80,1000 -121.50,46.78,1000 -121.51,46.77,1000 -121.52,46.76,1000 -121.53,46.74,1000 -121.54,46.73,1000 -121.55,46.72,1000 -121.56,46.70,1000 -121.57,46.69,1000 -121.58,46.68,1000 -121.59,46.66,1000 -121.61,46.65,1000 -121.62,46.64,1000 -121.63,46.63,1000 -121.64,46.62,1000 -121.66,46.61,1000 -121.68,46.60,1000 -121.69,46.59,1000 -121.71,46.58,1000 -121.73,46.58,1000 -121.75,46.58,1000 -121.76,46.58,1000 -121.78,46.58,1000 -121.80,46.59,1000 -121.82,46.59,1000 -121.84,46.60,1000 -121.85,46.61,1000 -121.87,46.61,1000 -121.89,46.62,1000 -121.91,46.63,1000 -121.93,46.64,1000 -121.95,46.65,1000 -121.96,46.66,1000 -121.98,46.66,1000 -122.00,46.67,1000 -122.01,46.68,1000 -122.03,46.69,1000 -122.04,46.70,1000 -122.06,46.71,1000 -122.07,46.72,1000 -122.08,46.73,1000 -122.08,46.74,1000 -122.08,46.75,1000 -122.08,46.76,1000 -122.07,46.78,1000 -122.06,46.79,1000 -122.05,46.81,1000 -122.04,46.82,1000 -122.03,46.83,1000 -122.02,46.84,1000 -122.01,46.85,1000 -122.00,46.87,1000 -121.99,46.88,1000 -121.98,46.89,1000 -121.97,46.90,1000 -121.95,46.92,1000 -121.94,46.93,1000 -121.85,46.98,1000 
          </coordinates>
        </LinearRing>
      </innerBoundaryIs>
  </Polygon>
 </MultiGeometry>
</Placemark>
<Placemark>
  <name>1%</name>
  <visibility>1</visibility>
  <styleUrl>#poly_1</styleUrl>
  <MultiGeometry>
    <Polygon>
      <outerBoundaryIs>
        <LinearRing>
          <coordinates>
-122.49,50.71,0 -122.44,50.72,0 -122.39,50.73,0 -122.34,50.74,0 -122.29,50.75,0 -122.24,50.76,0 -122.19,50.77,0 -122.14,50.78,0 -122.09,50.78,0 -122.04,50.79,0 -121.99,50.79,0 -121.94,50.79,0 -121.88,50.79,0 -121.82,50.79,0 -121.77,50.79,0 -121.72,50.78,0 -121.68,50.77,0 -121.63,50.76,0 -121.60,50.74,0 -121.56,50.72,0 -121.53,50.70,0 -121.50,50.67,0 -121.48,50.65,0 -121.46,50.61,0 -121.44,50.58,0 -121.42,50.55,0 -121.41,50.52,0 -121.39,50.49,0 -121.39,50.45,0 -121.38,50.42,0 -121.37,50.39,0 -121.36,50.36,0 -121.35,50.33,0 -121.35,50.30,0 -121.34,50.26,0 -121.34,50.23,0 -121.34,50.20,0 -121.35,50.17,0 -121.36,50.13,0 -121.37,50.10,0 -121.38,50.07,0 -121.39,50.05,0 -121.41,50.02,0 -121.43,50.00,0 -121.47,49.98,0 -121.50,49.96,0 -121.53,49.95,0 -121.57,49.93,0 -121.62,49.91,0 -121.66,49.89,0 -121.70,49.88,0 -121.75,49.87,0 -121.80,49.86,0 -121.85,49.86,0 -121.90,49.85,0 -121.95,49.85,0 -122.00,49.85,0 -122.06,49.85,0 -122.11,49.85,0 -122.16,49.85,0 -122.21,49.86,0 -122.26,49.87,0 -122.30,49.88,0 -122.34,49.90,0 -122.38,49.91,0 -122.41,49.92,0 -122.45,49.93,0 -122.47,49.94,0 -122.51,49.96,0 -122.54,49.97,0 -122.58,49.99,0 -122.62,50.01,0 -122.66,50.03,0 -122.69,50.05,0 -122.71,50.08,0 -122.74,50.11,0 -122.75,50.14,0 -122.77,50.18,0 -122.78,50.21,0 -122.79,50.24,0 -122.80,50.27,0 -122.80,50.31,0 -122.81,50.34,0 -122.80,50.37,0 -122.78,50.40,0 -122.76,50.44,0 -122.73,50.47,0 -122.71,50.50,0 -122.69,50.52,0 -122.67,50.55,0 -122.67,50.56,0 -122.49,50.71,0 
          </coordinates>
        </LinearRing>
      </outerBoundaryIs>
      <innerBoundaryIs>
        <LinearRing>
          <coordinates>
-122.22,50.70,1000 -122.17,50.71,1000 -122.13,50.71,1000 -122.08,50.72,1000 -122.04,50.72,1000 -122.00,50.72,1000 -121.96,50.72,1000 -121.92,50.71,1000 -121.88,50.71,1000 -121.85,50.70,1000 -121.82,50.68,1000 -121.79,50.67,1000 -121.76,50.66,1000 -121.73,50.64,1000 -121.71,50.62,1000 -121.68,50.61,1000 -121.66,50.59,1000 -121.63,50.57,1000 -121.60,50.56,1000 -121.57,50.53,1000 -121.56,50.51,1000 -121.54,50.48,1000 -121.53,50.46,1000 -121.52,50.43,1000 -121.51,50.40,1000 -121.51,50.37,1000 -121.51,50.34,1000 -121.51,50.31,1000 -121.52,50.28,1000 -121.53,50.25,1000 -121.54,50.23,1000 -121.54,50.21,1000 -121.54,50.20,1000 -121.56,50.18,1000 -121.57,50.16,1000 -121.60,50.14,1000 -121.62,50.11,1000 -121.65,50.08,1000 -121.68,50.06,1000 -121.71,50.04,1000 -121.74,50.02,1000 -121.78,50.00,1000 -121.82,49.99,1000 -121.86,49.99,1000 -121.90,49.98,1000 -121.95,49.98,1000 -121.99,49.98,1000 -122.03,49.98,1000 -122.07,49.98,1000 -122.11,49.99,1000 -122.16,50.00,1000 -122.20,50.00,1000 -122.24,50.01,1000 -122.27,50.02,1000 -122.31,50.03,1000 -122.34,50.04,1000 -122.37,50.05,1000 -122.39,50.07,1000 -122.42,50.09,1000 -122.44,50.11,1000 -122.46,50.13,1000 -122.49,50.15,1000 -122.51,50.17,1000 -122.53,50.19,1000 -122.55,50.22,1000 -122.56,50.24,1000 -122.57,50.27,1000 -122.58,50.29,1000 -122.59,50.32,1000 -122.60,50.34,1000 -122.60,50.37,1000 -122.59,50.40,1000 -122.58,50.42,1000 -122.56,50.45,1000 -122.54,50.47,1000 -122.52,50.50,1000 -122.49,50.52,1000 -122.47,50.55,1000 -122.45,50.57,1000 -122.44,50.58,1000 -122.43,50.59,1000 -122.22,50.70,1000 
          </coordinates>
        </LinearRing>
      </innerBoundaryIs>
  </Polygon>
 </MultiGeometry>
</Placemark>
<Placemark>
  <name>1%</name>
  <visibility>1</visibility>
  <styleUrl>#poly_1</styleUrl>
  <MultiGeometry>
    <Polygon>
      <outerBoundaryIs>
        <LinearRing>
          <coordinates>
-122.20,49.00,0 -122.14,49.03,0 -122.09,49.06,0 -122.03,49.08,0 -121.97,49.09,0 -121.91,49.10,0 -121.84,49.10,0 -121.77,49.09,0 -121.71,49.07,0 -121.67,49.05,0 -121.62,49.01,0 -121.58,48.98,0 -121.54,48.94,0 -121.50,48.90,0 -121.47,48.87,0 -121.42,48.82,0 -121.39,48.78,0 -121.35,48.76,0 -121.31,48.77,0 -121.26,48.80,0 -121.20,48.83,0 -121.13,48.85,0 -121.07,48.85,0 -121.00,48.85,0 -120.92,48.85,0 -120.84,48.83,0 -120.78,48.82,0 -120.72,48.79,0 -120.68,48.76,0 -120.65,48.71,0 -120.63,48.66,0 -120.61,48.61,0 -120.59,48.56,0 -120.58,48.51,0 -120.57,48.47,0 -120.56,48.42,0 -120.55,48.37,0 -120.56,48.34,0 -120.57,48.30,0 -120.59,48.26,0 -120.61,48.22,0 -120.64,48.18,0 -120.67,48.14,0 -120.70,48.10,0 -120.73,48.06,0 -120.76,48.01,0 -120.79,47.97,0 -120.83,47.93,0 -120.87,47.90,0 -120.92,47.86,0 -120.97,47.83,0 -121.03,47.81,0 -121.08,47.80,0 -121.14,47.80,0 -121.20,47.81,0 -121.27,47.82,0 -121.33,47.84,0 -121.38,47.86,0 -121.43,47.89,0 -121.48,47.93,0 -121.51,47.97,0 -121.53,48.01,0 -121.53,48.05,0 -121.51,48.10,0 -121.49,48.14,0 -121.47,48.19,0 -121.45,48.23,0 -121.44,48.27,0 -121.43,48.31,0 -121.43,48.36,0 -121.44,48.40,0 -121.46,48.45,0 -121.48,48.51,0 -121.51,48.56,0 -121.54,48.60,0 -121.57,48.62,0 -121.62,48.62,0 -121.68,48.59,0 -121.75,48.55,0 -121.81,48.53,0 -121.87,48.52,0 -121.93,48.52,0 -122.00,48.53,0 -122.06,48.55,0 -122.10,48.57,0 -122.14,48.60,0 -122.18,48.63,0 -122.23,48.67,0 -122.27,48.71,0 -122.31,48.75,0 -122.20,49.00,0 
          </coordinates>
        </LinearRing>
      </outerBoundaryIs>
      <innerBoundaryIs>
        <LinearRing>
          <coordinates>
-121.07,48.66,1000 -121.05,48.66,1000 -121.02,48.65,1000 -121.00,48.65,1000 -120.97,48.64,1000 -120.95,48.63,1000 -120.93,48.62,1000 -120.92,48.61,1000 -120.90,48.60,1000 -120.89,48.59,1000 -120.88,48.57,1000 -120.87,48.56,1000 -120.86,48.54,1000 -120.86,48.53,1000 -120.85,48.51,1000 -120.85,48.49,1000 -120.84,48.47,1000 -120.84,48.46,1000 -120.84,48.44,1000 -120.84,48.42,1000 -120.84,48.41,1000 -120.85,48.39,1000 -120.85,48.37,1000 -120.86,48.35,1000 -120.86,48.34,1000 -120.87,48.32,1000 -120.87,48.30,1000 -120.88,48.29,1000 -120.89,48.27,1000 -120.89,48.26,1000 -120.90,48.24,1000 -120.90,48.21,1000 -120.90,48.20,1000 -120.91,48.19,1000 -120.93,48.18,1000 -120.95,48.18,1000 -120.97,48.18,1000 -120.99,48.18,1000 -121.02,48.19,1000 -121.05,48.19,1000 -121.08,48.20,1000 -121.10,48.21,1000 -121.12,48.22,1000 -121.14,48.23,1000 -121.15,48.24,1000 -121.16,48.26,1000 -121.16,48.27,1000 -121.16,48.29,1000 -121.17,48.31,1000 -121.17,48.33,1000 -121.17,48.35,1000 -121.17,48.36,1000 -121.17,48.38,1000 -121.17,48.40,1000 -121.17,48.42,1000 -121.18,48.44,1000 -121.18,48.45,1000 -121.18,48.47,1000 -121.19,48.49,1000 -121.19,48.51,1000 -121.19,48.52,1000 -121.20,48.54,1000 -121.20,48.56,1000 -121.07,48.66,1000 
          </coordinates>
        </LinearRing>
      </innerBoundaryIs>
  </Polygon>
 </MultiGeometry>
</Placemark>
<Placemark>
  <name>1%</name>
  <visibility>1</visibility>
  <styleUrl>#poly_1</styleUrl>
  <MultiGeometry>
    <Polygon>
      <outerBoundaryIs>
        <LinearRing>
          <coordinates>
-118.95,50.26,0 -118.92,50.25,0 -118.89,50.25,0 -118.86,50.24,0 -118.83,50.24,0 -118.80,50.23,0 -118.77,50.23,0 -118.75,50.22,0 -118.72,50.22,0 -118.71,50.21,0 -118.69,50.21,0 -118.67,50.20,0 -118.66,50.19,0 -118.64,50.18,0 -118.63,50.17,0 -118.61,50.15,0 -118.59,50.14,0 -118.57,50.12,0 -118.55,50.11,0 -118.53,50.09,0 -118.52,50.08,0 -118.51,50.06,0 -118.51,50.04,0 -118.51,50.03,0 -118.51,50.01,0 -118.52,49.99,0 -118.52,49.97,0 -118.53,49.95,0 -118.54,49.93,0 -118.55,49.91,0 -118.56,49.90,0 -118.56,49.89,0 -118.56,49.88,0 -118.58,49.87,0 -118.59,49.86,0 -118.61,49.85,0 -118.63,49.84,0 -118.65,49.83,0 -118.68,49.82,0 -118.70,49.80,0 -118.73,49.79,0 -118.76,49.78,0 -118.78,49.77,0 -118.81,49.77,0 -118.83,49.77,0 -118.86,49.77,0 -118.89,49.77,0 -118.92,49.78,0 -118.95,49.78,0 -118.98,49.79,0 -119.01,49.80,0 -119.03,49.81,0 -119.05,49.81,0 -119.07,49.82,0 -119.09,49.82,0 -119.11,49.83,0 -119.12,49.84,0 -119.14,49.85,0 -119.15,49.86,0 -119.17,49.88,0 -119.19,49.90,0 -119.21,49.91,0 -119.23,49.93,0 -119.24,49.95,0 -119.25,49.96,0 -119.26,49.98,0 -119.26,50.00,0 -119.26,50.02,0 -119.25,50.03,0 -119.24,50.05,0 -119.23,50.07,0 -119.22,50.09,0 -119.21,50.11,0 -119.20,50.13,0 -119.19,50.14,0 -119.18,50.15,0 -119.17,50.16,0 -118.95,50.26,0 
          </coordinates>
        </LinearRing>
      </outerBoundaryIs>
  </Polygon>
 </MultiGeometry>
</Placemark>
<Placemark>
  <name>1%</name>
  <visibility>1</visibility>
  <styleUrl>#poly_1</styleUrl>
  <MultiGeometry>
    <Polygon>
      <outerBoundaryIs>
        <LinearRing>
          <coordinates>
-117.94,51.35,0 -117.86,51.38,0 -117.78,51.41,0 -117.69,51.44,0 -117.60,51.46,0 -117.50,51.48,0 -117.38,51.49,0 -117.27,51.49,0 -117.17,51.49,0 -117.08,51.47,0 -117.00,51.44,0 -116.92,51.41,0 -116.84,51.40,0 -116.77,51.42,0 -116.71,51.46,0 -116.64,51.51,0 -116.56,51.54,0 -116.47,51.56,0 -116.36,51.57,0 -116.25,51.58,0 -116.15,51.59,0 -116.05,51.59,0 -115.95,51.59,0 -115.86,51.59,0 -115.77,51.58,0 -115.67,51.57,0 -115.59,51.56,0 -115.52,51.53,0 -115.47,51.49,0 -115.43,51.43,0 -115.40,51.37,0 -115.39,51.31,0 -115.41,51.24,0 -115.46,51.17,0 -115.50,51.10,0 -115.50,51.04,0 -115.43,51.00,0 -115.32,50.97,0 -115.21,50.93,0 -115.14,50.89,0 -115.07,50.84,0 -115.00,50.78,0 -114.94,50.72,0 -114.89,50.67,0 -114.86,50.61,0 -114.84,50.54,0 -114.84,50.49,0 -114.87,50.44,0 -114.93,50.40,0 -115.02,50.38,0 -115.11,50.36,0 -115.19,50.35,0 -115.28,50.36,0 -115.37,50.40,0 -115.46,50.43,0 -115.56,50.47,0 -115.66,50.51,0 -115.75,50.56,0 -115.82,50.62,0 -115.89,50.67,0 -115.94,50.74,0 -116.00,50.80,0 -116.09,50.83,0 -116.19,50.86,0 -116.24,50.86,0 -116.21,50.84,0 -116.13,50.79,0 -116.05,50.74,0 -115.98,50.66,0 -115.96,50.60,0 -115.94,50.53,0 -115.92,50.46,0 -115.91,50.38,0 -115.90,50.30,0 -115.89,50.23,0 -115.88,50.17,0 -115.86,50.09,0 -115.84,50.04,0 -115.83,49.99,0 -115.83,49.94,0 -115.85,49.87,0 -115.89,49.80,0 -115.96,49.74,0 -116.03,49.71,0 -116.12,49.68,0 -116.21,49.66,0 -116.31,49.65,0 -116.41,49.64,0 -116.53,49.64,0 -116.64,49.65,0 -116.73,49.66,0 -116.82,49.70,0 -116.89,49.75,0 -116.95,49.81,0 -116.98,49.88,0 -116.99,49.96,0 -117.01,50.03,0 -117.07,50.05,0 -117.12,50.03,0 -117.20,49.99,0 -117.28,49.93,0 -117.37,49.87,0 -117.45,49.81,0 -117.54,49.75,0 -117.61,49.70,0 -117.66,49.66,0 -117.74,49.61,0 -117.78,49.63,0 -117.86,49.65,0 -117.96,49.68,0 -118.03,49.73,0 -118.06,49.80,0 -118.06,49.88,0 -118.04,49.95,0 -117.99,50.01,0 -117.91,50.06,0 -117.85,50.12,0 -117.80,50.19,0 -117.76,50.26,0 -117.75,50.32,0 -117.79,50.37,0 -117.85,50.41,0 -117.92,50.43,0 -117.99,50.41,0 -118.07,50.38,0 -118.16,50.35,0 -118.26,50.33,0 -118.33,50.34,0 -118.39,50.35,0 -118.47,50.40,0 -118.53,50.45,0 -118.59,50.51,0 -118.65,50.58,0 -118.71,50.65,0 -118.74,50.71,0 -118.75,50.79,0 -118.72,50.85,0 -118.67,50.91,0 -118.62,50.95,0 -118.55,50.98,0 -118.47,51.01,0 -118.38,51.04,0 -117.94,51.35,0 
          </coordinates>
        </LinearRing>
      </outerBoundaryIs>
      <innerBoundaryIs>
        <LinearRing>
          <coordinates>
-117.76,50.67,0 -117.75,50.67,0 -117.74,50.67,0 -117.73,50.67,0 -117.72,50.65,0 -117.72,50.64,0 -117.71,50.64,0 -117.71,50.63,0 -117.71,50.62,0 -117.71,50.61,0 -117.70,50.60,0 -117.70,50.59,0 -117.70,50.58,0 -117.70,50.57,0 -117.69,50.56,0 -117.69,50.55,0 -117.69,50.54,0 -117.69,50.53,0 -117.68,50.52,0 -117.68,50.51,0 -117.68,50.50,0 -117.68,50.49,0 -117.68,50.48,0 -117.67,50.46,0 -117.67,50.45,0 -117.67,50.44,0 -117.67,50.43,0 -117.67,50.42,0 -117.67,50.42,0 -117.68,50.41,0 -117.69,50.41,0 -117.70,50.41,0 -117.71,50.41,0 -117.72,50.41,0 -117.74,50.41,0 -117.75,50.41,0 -117.77,50.41,0 -117.79,50.41,0 -117.81,50.42,0 -117.82,50.42,0 -117.84,50.42,0 -117.86,50.42,0 -117.88,50.43,0 -117.90,50.43,0 -117.91,50.43,0 -117.93,50.44,0 -117.94,50.44,0 -117.95,50.45,0 -117.96,50.45,0 -117.96,50.46,0 -117.96,50.47,0 -117.96,50.47,0 -117.96,50.48,0 -117.96,50.49,0 -117.96,50.49,0 -117.96,50.50,0 -117.95,50.51,0 -117.95,50.52,0 -117.94,50.52,0 -117.93,50.53,0 -117.92,50.54,0 -117.92,50.55,0 -117.91,50.56,0 -117.90,50.57,0 -117.89,50.58,0 -117.88,50.59,0 -117.87,50.60,0 -117.85,50.61,0 -117.84,50.62,0 -117.83,50.63,0 -117.82,50.64,0 -117.76,50.67,0 
          </coordinates>
        </LinearRing>
      </innerBoundaryIs>
      <innerBoundaryIs>
        <LinearRing>
          <coordinates>
-118.33,50.85,1000 -118.31,50.85,1000 -118.29,50.85,1000 -118.27,50.84,1000 -118.25,50.84,1000 -118.23,50.84,1000 -118.21,50.84,1000 -118.19,50.83,1000 -118.17,50.83,1000 -118.15,50.83,1000 -118.14,50.82,1000 -118.12,50.82,1000 -118.11,50.82,1000 -118.10,50.81,1000 -118.08,50.81,1000 -118.07,50.80,1000 -118.07,50.80,1000 -118.06,50.79,1000 -118.05,50.79,1000 -118.05,50.78,1000 -118.05,50.77,1000 -118.05,50.77,1000 -118.05,50.76,1000 -118.06,50.75,1000 -118.06,50.74,1000 -118.07,50.73,1000 -118.08,50.73,1000 -118.09,50.72,1000 -118.10,50.71,1000 -118.11,50.70,1000 -118.12,50.69,1000 -118.13,50.68,1000 -118.14,50.67,1000 -118.16,50.66,1000 -118.17,50.65,1000 -118.18,50.64,1000 -118.19,50.63,1000 -118.20,50.62,1000 -118.21,50.61,1000 -118.22,50.61,1000 -118.23,50.60,1000 -118.23,50.59,1000 -118.24,50.59,1000 -118.26,50.57,1000 -118.26,50.58,1000 -118.25,50.58,1000 -118.27,50.59,1000 -118.28,50.59,1000 -118.28,50.60,1000 -118.29,50.60,1000 -118.30,50.61,1000 -118.31,50.62,1000 -118.32,50.62,1000 -118.33,50.63,1000 -118.34,50.64,1000 -118.35,50.64,1000 -118.36,50.65,1000 -118.37,50.66,1000 -118.38,50.67,1000 -118.39,50.68,1000 -118.41,50.69,1000 -118.42,50.69,1000 -118.43,50.70,1000 -118.44,50.71,1000 -118.46,50.72,1000 -118.47,50.73,1000 -118.33,50.85,1000 
          </coordinates>
        </LinearRing>
      </innerBoundaryIs>
      <innerBoundaryIs>
        <LinearRing>
          <coordinates>
-116.39,51.45,1000 -116.39,51.45,1000 -116.37,51.45,1000 -116.34,51.45,1000 -116.32,51.45,1000 -116.30,51.45,1000 -116.28,51.45,1000 -116.26,51.45,1000 -116.23,51.45,1000 -116.20,51.45,1000 -116.17,51.45,1000 -116.15,51.45,1000 -116.12,51.44,1000 -116.10,51.43,1000 -116.08,51.43,1000 -116.06,51.42,1000 -116.03,51.42,1000 -116.01,51.41,1000 -115.98,51.40,1000 -115.96,51.39,1000 -115.94,51.38,1000 -115.91,51.37,1000 -115.90,51.36,1000 -115.88,51.35,1000 -115.87,51.34,1000 -115.86,51.33,1000 -115.86,51.32,1000 -115.86,51.30,1000 -115.86,51.29,1000 -115.87,51.27,1000 -115.88,51.26,1000 -115.89,51.24,1000 -115.90,51.23,1000 -115.91,51.21,1000 -115.93,51.20,1000 -115.94,51.18,1000 -115.95,51.17,1000 -115.96,51.16,1000 -115.97,51.14,1000 -115.99,51.13,1000 -116.00,51.13,1000 -116.01,51.12,1000 -116.04,51.11,1000 -116.05,51.10,1000 -116.07,51.10,1000 -116.09,51.09,1000 -116.11,51.08,1000 -116.13,51.08,1000 -116.16,51.07,1000 -116.18,51.06,1000 -116.20,51.05,1000 -116.22,51.05,1000 -116.25,51.04,1000 -116.27,51.04,1000 -116.29,51.04,1000 -116.31,51.04,1000 -116.34,51.04,1000 -116.36,51.05,1000 -116.39,51.05,1000 -116.41,51.06,1000 -116.43,51.06,1000 -116.46,51.07,1000 -116.48,51.08,1000 -116.50,51.09,1000 -116.52,51.09,1000 -116.53,51.10,1000 -116.55,51.11,1000 -116.56,51.13,1000 -116.57,51.14,1000 -116.57,51.16,1000 -116.58,51.17,1000 -116.59,51.18,1000 -116.61,51.19,1000 -116.62,51.21,1000 -116.64,51.22,1000 -116.65,51.23,1000 -116.66,51.24,1000 -116.67,51.25,1000 -116.67,51.26,1000 -116.66,51.27,1000 -116.64,51.27,1000 -116.61,51.29,1000 -116.60,51.30,1000 -116.59,51.31,1000 -116.57,51.32,1000 -116.56,51.33,1000 -116.55,51.34,1000 -116.53,51.35,1000 -116.52,51.36,1000 -116.50,51.37,1000 -116.48,51.39,1000 -116.46,51.40,1000 -116.45,51.41,1000 -116.43,51.43,1000 -116.41,51.44,1000 -116.39,51.45,1000 
          </coordinates>
        </LinearRing>
      </innerBoundaryIs>
      <innerBoundaryIs>
        <LinearRing>
          <coordinates>
-117.68,51.36,1000 -117.60,51.37,1000 -117.51,51.38,1000 -117.42,51.39,1000 -117.34,51.39,1000 -117.25,51.38,1000 -117.16,51.36,1000 -117.09,51.34,1000 -117.01,51.31,1000 -116.93,51.27,1000 -116.85,51.23,1000 -116.78,51.19,1000 -116.71,51.16,1000 -116.65,51.12,1000 -116.60,51.09,1000 -116.54,51.03,1000 -116.54,50.99,1000 -116.52,50.94,1000 -116.48,50.91,1000 -116.43,50.88,1000 -116.38,50.84,1000 -116.33,50.79,1000 -116.30,50.75,1000 -116.26,50.70,1000 -116.22,50.65,1000 -116.19,50.59,1000 -116.15,50.53,1000 -116.13,50.48,1000 -116.11,50.42,1000 -116.11,50.37,1000 -116.10,50.31,1000 -116.10,50.25,1000 -116.10,50.20,1000 -116.09,50.15,1000 -116.06,50.09,1000 -116.04,50.04,1000 -116.03,49.99,1000 -116.05,49.94,1000 -116.08,49.88,1000 -116.13,49.82,1000 -116.18,49.78,1000 -116.24,49.75,1000 -116.31,49.73,1000 -116.39,49.72,1000 -116.48,49.73,1000 -116.54,49.74,1000 -116.61,49.76,1000 -116.68,49.79,1000 -116.75,49.82,1000 -116.82,49.86,1000 -116.88,49.91,1000 -116.92,49.95,1000 -116.95,50.00,1000 -116.98,50.06,1000 -117.01,50.12,1000 -117.04,50.18,1000 -117.06,50.24,1000 -117.09,50.29,1000 -117.11,50.34,1000 -117.13,50.38,1000 -117.17,50.44,1000 -117.20,50.47,1000 -117.24,50.50,1000 -117.29,50.54,1000 -117.36,50.58,1000 -117.43,50.63,1000 -117.50,50.67,1000 -117.56,50.71,1000 -117.62,50.74,1000 -117.69,50.78,1000 -117.75,50.81,1000 -117.80,50.84,1000 -117.88,50.87,1000 -117.94,50.89,1000 -117.99,50.91,1000 -118.01,50.95,1000 -118.02,50.99,1000 -118.01,51.04,1000 -117.99,51.09,1000 -117.95,51.13,1000 -117.90,51.18,1000 -117.68,51.36,1000 
          </coordinates>
        </LinearRing>
      </innerBoundaryIs>
  </Polygon>
 </MultiGeometry>
</Placemark>
<Placemark>
  <name>5%</name>
  <visibility>1</visibility>
  <styleUrl>#poly_5</styleUrl>
  <MultiGeometry>
    <Polygon>
      <outerBoundaryIs>
        <LinearRing>
          <coordinates>
-121.85,46.98,1000 -121.83,46.98,1000 -121.82,46.97,1000 -121.80,46.97,1000 -121.78,46.96,1000 -121.76,46.96,1000 -121.74,46.95,1000 -121.72,46.94,1000 -121.71,46.94,1000 -121.69,46.93,1000 -121.67,46.92,1000 -121.65,46.92,1000 -121.63,46.91,1000 -121.62,46.90,1000 -121.60,46.89,1000 -121.58,46.89,1000 -121.57,46.88,1000 -121.55,46.87,1000 -121.54,46.86,1000 -121.52,46.85,1000 -121.51,46.84,1000 -121.50,46.83,1000 -121.50,46.82,1000 -121.50,46.81,1000 -121.50,46.80,1000 -121.50,46.78,1000 -121.51,46.77,1000 -121.52,46.76,1000 -121.53,46.74,1000 -121.54,46.73,1000 -121.55,46.72,1000 -121.56,46.70,1000 -121.57,46.69,1000 -121.58,46.68,1000 -121.59,46.66,1000 -121.61,46.65,1000 -121.62,46.64,1000 -121.63,46.63,1000 -121.64,46.62,1000 -121.66,46.61,1000 -121.68,46.60,1000 -121.69,46.59,1000 -121.71,46.58,1000 -121.73,46.58,1000 -121.75,46.58,1000 -121.76,46.58,1000 -121.78,46.58,1000 -121.80,46.59,1000 -121.82,46.59,1000 -121.84,46.60,1000 -121.85,46.61,1000 -121.87,46.61,1000 -121.89,46.62,1000 -121.91,46.63,1000 -121.93,46.64,1000 -121.95,46.65,1000 -121.96,46.66,1000 -121.98,46.66,1000 -122.00,46.67,1000 -122.01,46.68,1000 -122.03,46.69,1000 -122.04,46.70,1000 -122.06,46.71,1000 -122.07,46.72,1000 -122.08,46.73,1000 -122.08,46.74,1000 -122.08,46.75,1000 -122.08,46.76,1000 -122.07,46.78,1000 -122.06,46.79,1000 -122.05,46.81,1000 -122.04,46.82,1000 -122.03,46.83,1000 -122.02,46.84,1000 -122.01,46.85,1000 -122.00,46.87,1000 -121.99,46.88,1000 -121.98,46.89,1000 -121.97,46.90,1000 -121.95,46.92,1000 -121.94,46.93,1000 -121.85,46.98,1000 
          </coordinates>
        </LinearRing>
      </outerBoundaryIs>
  </Polygon>
 </MultiGeometry>
</Placemark>
<Placemark>
  <name>5%</name>
  <visibility>1</visibility>
  <styleUrl>#poly_5</styleUrl>
  <MultiGeometry>
    <Polygon>
      <outerBoundaryIs>
        <LinearRing>
          <coordinates>
-122.22,50.70,1000 -122.17,50.71,1000 -122.13,50.71,1000 -122.08,50.72,1000 -122.04,50.72,1000 -122.00,50.72,1000 -121.96,50.72,1000 -121.92,50.71,1000 -121.88,50.71,1000 -121.85,50.70,1000 -121.82,50.68,1000 -121.79,50.67,1000 -121.76,50.66,1000 -121.73,50.64,1000 -121.71,50.62,1000 -121.68,50.61,1000 -121.66,50.59,1000 -121.63,50.57,1000 -121.60,50.56,1000 -121.57,50.53,1000 -121.56,50.51,1000 -121.54,50.48,1000 -121.53,50.46,1000 -121.52,50.43,1000 -121.51,50.40,1000 -121.51,50.37,1000 -121.51,50.34,1000 -121.51,50.31,1000 -121.52,50.28,1000 -121.53,50.25,1000 -121.54,50.23,1000 -121.54,50.21,1000 -121.54,50.20,1000 -121.56,50.18,1000 -121.57,50.16,1000 -121.60,50.14,1000 -121.62,50.11,1000 -121.65,50.08,1000 -121.68,50.06,1000 -121.71,50.04,1000 -121.74,50.02,1000 -121.78,50.00,1000 -121.82,49.99,1000 -121.86,49.99,1000 -121.90,49.98,1000 -121.95,49.98,1000 -121.99,49.98,1000 -122.03,49.98,1000 -122.07,49.98,1000 -122.11,49.99,1000 -122.16,50.00,1000 -122.20,50.00,1000 -122.24,50.01,1000 -122.27,50.02,1000 -122.31,50.03,1000 -122.34,50.04,1000 -122.37,50.05,1000 -122.39,50.07,1000 -122.42,50.09,1000 -122.44,50.11,1000 -122.46,50.13,1000 -122.49,50.15,1000 -122.51,50.17,1000 -122.53,50.19,1000 -122.55,50.22,1000 -122.56,50.24,1000 -122.57,50.27,1000 -122.58,50.29,1000 -122.59,50.32,1000 -122.60,50.34,1000 -122.60,50.37,1000 -122.59,50.40,1000 -122.58,50.42,1000 -122.56,50.45,1000 -122.54,50.47,1000 -122.52,50.50,1000 -122.49,50.52,1000 -122.47,50.55,1000 -122.45,50.57,1000 -122.44,50.58,1000 -122.43,50.59,1000 -122.22,50.70,1000 
          </coordinates>
        </LinearRing>
      </outerBoundaryIs>
      <innerBoundaryIs>
        <LinearRing>
          <coordinates>
-122.19,50.62,2000 -122.19,50.62,2000 -122.15,50.62,2000 -122.13,50.62,2000 -122.10,50.63,2000 -122.07,50.63,2000 -122.04,50.63,2000 -122.01,50.64,2000 -121.97,50.63,2000 -121.94,50.63,2000 -121.92,50.62,2000 -121.89,50.62,2000 -121.86,50.61,2000 -121.83,50.60,2000 -121.81,50.59,2000 -121.78,50.57,2000 -121.75,50.56,2000 -121.73,50.55,2000 -121.71,50.53,2000 -121.69,50.52,2000 -121.67,50.50,2000 -121.66,50.48,2000 -121.65,50.46,2000 -121.64,50.44,2000 -121.64,50.42,2000 -121.63,50.40,2000 -121.63,50.38,2000 -121.63,50.36,2000 -121.63,50.34,2000 -121.63,50.32,2000 -121.64,50.30,2000 -121.65,50.28,2000 -121.66,50.25,2000 -121.66,50.23,2000 -121.67,50.21,2000 -121.68,50.20,2000 -121.69,50.18,2000 -121.70,50.16,2000 -121.71,50.14,2000 -121.72,50.13,2000 -121.74,50.12,2000 -121.77,50.11,2000 -121.79,50.10,2000 -121.82,50.10,2000 -121.85,50.09,2000 -121.89,50.08,2000 -121.92,50.08,2000 -121.96,50.07,2000 -121.99,50.07,2000 -122.02,50.07,2000 -122.05,50.07,2000 -122.08,50.08,2000 -122.11,50.09,2000 -122.14,50.09,2000 -122.16,50.10,2000 -122.19,50.11,2000 -122.21,50.12,2000 -122.24,50.13,2000 -122.26,50.14,2000 -122.28,50.15,2000 -122.31,50.16,2000 -122.33,50.17,2000 -122.35,50.18,2000 -122.38,50.20,2000 -122.40,50.21,2000 -122.42,50.23,2000 -122.44,50.25,2000 -122.45,50.27,2000 -122.46,50.28,2000 -122.46,50.30,2000 -122.47,50.33,2000 -122.47,50.35,2000 -122.47,50.37,2000 -122.47,50.39,2000 -122.47,50.41,2000 -122.47,50.42,2000 -122.46,50.44,2000 -122.45,50.46,2000 -122.44,50.47,2000 -122.41,50.49,2000 -122.39,50.50,2000 -122.37,50.51,2000 -122.35,50.53,2000 -122.33,50.54,2000 -122.31,50.56,2000 -122.28,50.57,2000 -122.25,50.59,2000 -122.23,50.60,2000 -122.20,50.62,2000 -122.19,50.62,2000 
          </coordinates>
        </LinearRing>
      </innerBoundaryIs>
  </Polygon>
 </MultiGeometry>
</Placemark>
<Placemark>
  <name>5%</name>
  <visibility>1</visibility>
  <styleUrl>#poly_5</styleUrl>
  <MultiGeometry>
    <Polygon>
      <outerBoundaryIs>
        <LinearRing>
          <coordinates>
-118.33,50.85,1000 -118.31,50.85,1000 -118.29,50.85,1000 -118.27,50.84,1000 -118.25,50.84,1000 -118.23,50.84,1000 -118.21,50.84,1000 -118.19,50.83,1000 -118.17,50.83,1000 -118.15,50.83,1000 -118.14,50.82,1000 -118.12,50.82,1000 -118.11,50.82,1000 -118.10,50.81,1000 -118.08,50.81,1000 -118.07,50.80,1000 -118.07,50.80,1000 -118.06,50.79,1000 -118.05,50.79,1000 -118.05,50.78,1000 -118.05,50.77,1000 -118.05,50.77,1000 -118.05,50.76,1000 -118.06,50.75,1000 -118.06,50.74,1000 -118.07,50.73,1000 -118.08,50.73,1000 -118.09,50.72,1000 -118.10,50.71,1000 -118.11,50.70,1000 -118.12,50.69,1000 -118.13,50.68,1000 -118.14,50.67,1000 -118.16,50.66,1000 -118.17,50.65,1000 -118.18,50.64,1000 -118.19,50.63,1000 -118.20,50.62,1000 -118.21,50.61,1000 -118.22,50.61,1000 -118.23,50.60,1000 -118.23,50.59,1000 -118.24,50.59,1000 -118.26,50.57,1000 -118.26,50.58,1000 -118.25,50.58,1000 -118.27,50.59,1000 -118.28,50.59,1000 -118.28,50.60,1000 -118.29,50.60,1000 -118.30,50.61,1000 -118.31,50.62,1000 -118.32,50.62,1000 -118.33,50.63,1000 -118.34,50.64,1000 -118.35,50.64,1000 -118.36,50.65,1000 -118.37,50.66,1000 -118.38,50.67,1000 -118.39,50.68,1000 -118.41,50.69,1000 -118.42,50.69,1000 -118.43,50.70,1000 -118.44,50.71,1000 -118.46,50.72,1000 -118.47,50.73,1000 -118.33,50.85,1000 
          </coordinates>
        </LinearRing>
      </outerBoundaryIs>
  </Polygon>
 </MultiGeometry>
</Placemark>
<Placemark>
  <name>5%</name>
  <visibility>1</visibility>
  <styleUrl>#poly_5</styleUrl>
  <MultiGeometry>
    <Polygon>
      <outerBoundaryIs>
        <LinearRing>
          <coordinates>
-116.39,51.45,1000 -116.39,51.45,1000 -116.37,51.45,1000 -116.34,51.45,1000 -116.32,51.45,1000 -116.30,51.45,1000 -116.28,51.45,1000 -116.26,51.45,1000 -116.23,51.45,1000 -116.20,51.45,1000 -116.17,51.45,1000 -116.15,51.45,1000 -116.12,51.44,1000 -116.10,51.43,1000 -116.08,51.43,1000 -116.06,51.42,1000 -116.03,51.42,1000 -116.01,51.41,1000 -115.98,51.40,1000 -115.96,51.39,1000 -115.94,51.38,1000 -115.91,51.37,1000 -115.90,51.36,1000 -115.88,51.35,1000 -115.87,51.34,1000 -115.86,51.33,1000 -115.86,51.32,1000 -115.86,51.30,1000 -115.86,51.29,1000 -115.87,51.27,1000 -115.88,51.26,1000 -115.89,51.24,1000 -115.90,51.23,1000 -115.91,51.21,1000 -115.93,51.20,1000 -115.94,51.18,1000 -115.95,51.17,1000 -115.96,51.16,1000 -115.97,51.14,1000 -115.99,51.13,1000 -116.00,51.13,1000 -116.01,51.12,1000 -116.04,51.11,1000 -116.05,51.10,1000 -116.07,51.10,1000 -116.09,51.09,1000 -116.11,51.08,1000 -116.13,51.08,1000 -116.16,51.07,1000 -116.18,51.06,1000 -116.20,51.05,1000 -116.22,51.05,1000 -116.25,51.04,1000 -116.27,51.04,1000 -116.29,51.04,1000 -116.31,51.04,1000 -116.34,51.04,1000 -116.36,51.05,1000 -116.39,51.05,1000 -116.41,51.06,1000 -116.43,51.06,1000 -116.46,51.07,1000 -116.48,51.08,1000 -116.50,51.09,1000 -116.52,51.09,1000 -116.53,51.10,1000 -116.55,51.11,1000 -116.56,51.13,1000 -116.57,51.14,1000 -116.57,51.16,1000 -116.58,51.17,1000 -116.59,51.18,1000 -116.61,51.19,1000 -116.62,51.21,1000 -116.64,51.22,1000 -116.65,51.23,1000 -116.66,51.24,1000 -116.67,51.25,1000 -116.67,51.26,1000 -116.66,51.27,1000 -116.64,51.27,1000 -116.61,51.29,1000 -116.60,51.30,1000 -116.59,51.31,1000 -116.57,51.32,1000 -116.56,51.33,1000 -116.55,51.34,1000 -116.53,51.35,1000 -116.52,51.36,1000 -116.50,51.37,1000 -116.48,51.39,1000 -116.46,51.40,1000 -116.45,51.41,1000 -116.43,51.43,1000 -116.41,51.44,1000 -116.39,51.45,1000 
          </coordinates>
        </LinearRing>
      </outerBoundaryIs>
  </Polygon>
 </MultiGeometry>
</Placemark>
<Placemark>
  <name>5%</name>
  <visibility>1</visibility>
  <styleUrl>#poly_5</styleUrl>
  <MultiGeometry>
    <Polygon>
      <outerBoundaryIs>
        <LinearRing>
          <coordinates>
-117.68,51.36,1000 -117.60,51.37,1000 -117.51,51.38,1000 -117.42,51.39,1000 -117.34,51.39,1000 -117.25,51.38,1000 -117.16,51.36,1000 -117.09,51.34,1000 -117.01,51.31,1000 -116.93,51.27,1000 -116.85,51.23,1000 -116.78,51.19,1000 -116.71,51.16,1000 -116.65,51.12,1000 -116.60,51.09,1000 -116.54,51.03,1000 -116.54,50.99,1000 -116.52,50.94,1000 -116.48,50.91,1000 -116.43,50.88,1000 -116.38,50.84,1000 -116.33,50.79,1000 -116.30,50.75,1000 -116.26,50.70,1000 -116.22,50.65,1000 -116.19,50.59,1000 -116.15,50.53,1000 -116.13,50.48,1000 -116.11,50.42,1000 -116.11,50.37,1000 -116.10,50.31,1000 -116.10,50.25,1000 -116.10,50.20,1000 -116.09,50.15,1000 -116.06,50.09,1000 -116.04,50.04,1000 -116.03,49.99,1000 -116.05,49.94,1000 -116.08,49.88,1000 -116.13,49.82,1000 -116.18,49.78,1000 -116.24,49.75,1000 -116.31,49.73,1000 -116.39,49.72,1000 -116.48,49.73,1000 -116.54,49.74,1000 -116.61,49.76,1000 -116.68,49.79,1000 -116.75,49.82,1000 -116.82,49.86,1000 -116.88,49.91,1000 -116.92,49.95,1000 -116.95,50.00,1000 -116.98,50.06,1000 -117.01,50.12,1000 -117.04,50.18,1000 -117.06,50.24,1000 -117.09,50.29,1000 -117.11,50.34,1000 -117.13,50.38,1000 -117.17,50.44,1000 -117.20,50.47,1000 -117.24,50.50,1000 -117.29,50.54,1000 -117.36,50.58,1000 -117.43,50.63,1000 -117.50,50.67,1000 -117.56,50.71,1000 -117.62,50.74,1000 -117.69,50.78,1000 -117.75,50.81,1000 -117.80,50.84,1000 -117.88,50.87,1000 -117.94,50.89,1000 -117.99,50.91,1000 -118.01,50.95,1000 -118.02,50.99,1000 -118.01,51.04,1000 -117.99,51.09,1000 -117.95,51.13,1000 -117.90,51.18,1000 -117.68,51.36,1000 
          </coordinates>
        </LinearRing>
      </outerBoundaryIs>
      <innerBoundaryIs>
        <LinearRing>
          <coordinates>
-117.66,51.28,2000 -117.58,51.31,2000 -117.50,51.33,2000 -117.41,51.34,2000 -117.34,51.34,2000 -117.28,51.34,2000 -117.21,51.33,2000 -117.14,51.30,2000 -117.09,51.27,2000 -117.04,51.23,2000 -116.98,51.19,2000 -116.93,51.15,2000 -116.88,51.11,2000 -116.83,51.07,2000 -116.77,51.03,2000 -116.71,50.99,2000 -116.66,50.96,2000 -116.61,50.93,2000 -116.57,50.90,2000 -116.53,50.86,2000 -116.50,50.83,2000 -116.45,50.78,2000 -116.41,50.74,2000 -116.36,50.69,2000 -116.32,50.64,2000 -116.27,50.59,2000 -116.23,50.53,2000 -116.20,50.48,2000 -116.18,50.42,2000 -116.17,50.37,2000 -116.17,50.31,2000 -116.17,50.25,2000 -116.17,50.20,2000 -116.17,50.15,2000 -116.15,50.08,2000 -116.13,50.03,2000 -116.13,49.98,2000 -116.15,49.93,2000 -116.19,49.89,2000 -116.25,49.85,2000 -116.32,49.82,2000 -116.41,49.81,2000 -116.50,49.81,2000 -116.56,49.83,2000 -116.63,49.85,2000 -116.69,49.89,2000 -116.74,49.92,2000 -116.78,49.95,2000 -116.82,49.98,2000 -116.85,50.02,2000 -116.89,50.07,2000 -116.92,50.11,2000 -116.95,50.17,2000 -116.97,50.23,2000 -117.00,50.29,2000 -117.03,50.34,2000 -117.06,50.39,2000 -117.09,50.44,2000 -117.12,50.48,2000 -117.15,50.52,2000 -117.18,50.56,2000 -117.22,50.60,2000 -117.27,50.64,2000 -117.33,50.67,2000 -117.39,50.70,2000 -117.46,50.73,2000 -117.52,50.77,2000 -117.58,50.81,2000 -117.65,50.85,2000 -117.71,50.89,2000 -117.77,50.93,2000 -117.81,50.97,2000 -117.84,51.03,2000 -117.84,51.09,2000 -117.82,51.14,2000 -117.66,51.28,2000 
          </coordinates>
        </LinearRing>
      </innerBoundaryIs>
  </Polygon>
 </MultiGeometry>
</Placemark>
<Placemark>
  <name>5%</name>
  <visibility>1</visibility>
  <styleUrl>#poly_5</styleUrl>
  <MultiGeometry>
    <Polygon>
      <outerBoundaryIs>
        <LinearRing>
          <coordinates>
-121.07,48.66,1000 -121.05,48.66,1000 -121.02,48.65,1000 -121.00,48.65,1000 -120.97,48.64,1000 -120.95,48.63,1000 -120.93,48.62,1000 -120.92,48.61,1000 -120.90,48.60,1000 -120.89,48.59,1000 -120.88,48.57,1000 -120.87,48.56,1000 -120.86,48.54,1000 -120.86,48.53,1000 -120.85,48.51,1000 -120.85,48.49,1000 -120.84,48.47,1000 -120.84,48.46,1000 -120.84,48.44,1000 -120.84,48.42,1000 -120.84,48.41,1000 -120.85,48.39,1000 -120.85,48.37,1000 -120.86,48.35,1000 -120.86,48.34,1000 -120.87,48.32,1000 -120.87,48.30,1000 -120.88,48.29,1000 -120.89,48.27,1000 -120.89,48.26,1000 -120.90,48.24,1000 -120.90,48.21,1000 -120.90,48.20,1000 -120.91,48.19,1000 -120.93,48.18,1000 -120.95,48.18,1000 -120.97,48.18,1000 -120.99,48.18,1000 -121.02,48.19,1000 -121.05,48.19,1000 -121.08,48.20,1000 -121.10,48.21,1000 -121.12,48.22,1000 -121.14,48.23,1000 -121.15,48.24,1000 -121.16,48.26,1000 -121.16,48.27,1000 -121.16,48.29,1000 -121.17,48.31,1000 -121.17,48.33,1000 -121.17,48.35,1000 -121.17,48.36,1000 -121.17,48.38,1000 -121.17,48.40,1000 -121.17,48.42,1000 -121.18,48.44,1000 -121.18,48.45,1000 -121.18,48.47,1000 -121.19,48.49,1000 -121.19,48.51,1000 -121.19,48.52,1000 -121.20,48.54,1000 -121.20,48.56,1000 -121.07,48.66,1000 
          </coordinates>
        </LinearRing>
      </outerBoundaryIs>
  </Polygon>
 </MultiGeometry>
</Placemark>
<Placemark>
  <name>10%</name>
  <visibility>1</visibility>
  <styleUrl>#poly_10</styleUrl>
  <MultiGeometry>
    <Polygon>
      <outerBoundaryIs>
        <LinearRing>
          <coordinates>
-122.19,50.62,2000 -122.19,50.62,2000 -122.15,50.62,2000 -122.13,50.62,2000 -122.10,50.63,2000 -122.07,50.63,2000 -122.04,50.63,2000 -122.01,50.64,2000 -121.97,50.63,2000 -121.94,50.63,2000 -121.92,50.62,2000 -121.89,50.62,2000 -121.86,50.61,2000 -121.83,50.60,2000 -121.81,50.59,2000 -121.78,50.57,2000 -121.75,50.56,2000 -121.73,50.55,2000 -121.71,50.53,2000 -121.69,50.52,2000 -121.67,50.50,2000 -121.66,50.48,2000 -121.65,50.46,2000 -121.64,50.44,2000 -121.64,50.42,2000 -121.63,50.40,2000 -121.63,50.38,2000 -121.63,50.36,2000 -121.63,50.34,2000 -121.63,50.32,2000 -121.64,50.30,2000 -121.65,50.28,2000 -121.66,50.25,2000 -121.66,50.23,2000 -121.67,50.21,2000 -121.68,50.20,2000 -121.69,50.18,2000 -121.70,50.16,2000 -121.71,50.14,2000 -121.72,50.13,2000 -121.74,50.12,2000 -121.77,50.11,2000 -121.79,50.10,2000 -121.82,50.10,2000 -121.85,50.09,2000 -121.89,50.08,2000 -121.92,50.08,2000 -121.96,50.07,2000 -121.99,50.07,2000 -122.02,50.07,2000 -122.05,50.07,2000 -122.08,50.08,2000 -122.11,50.09,2000 -122.14,50.09,2000 -122.16,50.10,2000 -122.19,50.11,2000 -122.21,50.12,2000 -122.24,50.13,2000 -122.26,50.14,2000 -122.28,50.15,2000 -122.31,50.16,2000 -122.33,50.17,2000 -122.35,50.18,2000 -122.38,50.20,2000 -122.40,50.21,2000 -122.42,50.23,2000 -122.44,50.25,2000 -122.45,50.27,2000 -122.46,50.28,2000 -122.46,50.30,2000 -122.47,50.33,2000 -122.47,50.35,2000 -122.47,50.37,2000 -122.47,50.39,2000 -122.47,50.41,2000 -122.47,50.42,2000 -122.46,50.44,2000 -122.45,50.46,2000 -122.44,50.47,2000 -122.41,50.49,2000 -122.39,50.50,2000 -122.37,50.51,2000 -122.35,50.53,2000 -122.33,50.54,2000 -122.31,50.56,2000 -122.28,50.57,2000 -122.25,50.59,2000 -122.23,50.60,2000 -122.20,50.62,2000 -122.19,50.62,2000 
          </coordinates>
        </LinearRing>
      </outerBoundaryIs>
      <innerBoundaryIs>
        <LinearRing>
          <coordinates>
-122.16,50.51,3000 -122.14,50.51,3000 -122.12,50.51,3000 -122.10,50.51,3000 -122.08,50.51,3000 -122.06,50.51,3000 -122.04,50.51,3000 -122.03,50.51,3000 -122.01,50.51,3000 -121.99,50.51,3000 -121.98,50.51,3000 -121.96,50.51,3000 -121.95,50.51,3000 -121.93,50.51,3000 -121.92,50.51,3000 -121.91,50.51,3000 -121.90,50.51,3000 -121.87,50.51,3000 -121.87,50.51,3000 -121.87,50.49,3000 -121.87,50.48,3000 -121.86,50.48,3000 -121.86,50.47,3000 -121.86,50.46,3000 -121.85,50.45,3000 -121.85,50.43,3000 -121.84,50.42,3000 -121.84,50.41,3000 -121.83,50.40,3000 -121.83,50.39,3000 -121.82,50.38,3000 -121.82,50.36,3000 -121.82,50.35,3000 -121.81,50.34,3000 -121.81,50.34,3000 -121.81,50.33,3000 -121.80,50.31,3000 -121.80,50.31,3000 -121.81,50.31,3000 -121.83,50.30,3000 -121.84,50.30,3000 -121.85,50.29,3000 -121.86,50.29,3000 -121.87,50.28,3000 -121.89,50.28,3000 -121.90,50.27,3000 -121.92,50.27,3000 -121.93,50.26,3000 -121.95,50.26,3000 -121.97,50.25,3000 -121.98,50.25,3000 -122.00,50.24,3000 -122.02,50.24,3000 -122.03,50.24,3000 -122.05,50.23,3000 -122.06,50.23,3000 -122.07,50.23,3000 -122.09,50.23,3000 -122.10,50.23,3000 -122.12,50.23,3000 -122.13,50.24,3000 -122.15,50.24,3000 -122.16,50.25,3000 -122.17,50.25,3000 -122.18,50.26,3000 -122.19,50.27,3000 -122.20,50.28,3000 -122.21,50.29,3000 -122.21,50.29,3000 -122.21,50.30,3000 -122.22,50.31,3000 -122.22,50.32,3000 -122.23,50.33,3000 -122.23,50.34,3000 -122.23,50.35,3000 -122.24,50.36,3000 -122.24,50.37,3000 -122.24,50.38,3000 -122.24,50.39,3000 -122.24,50.41,3000 -122.25,50.42,3000 -122.25,50.43,3000 -122.25,50.44,3000 -122.16,50.51,3000 
          </coordinates>
        </LinearRing>
      </innerBoundaryIs>
  </Polygon>
 </MultiGeometry>
</Placemark>
<Placemark>
  <name>10%</name>
  <visibility>1</visibility>
  <styleUrl>#poly_10</styleUrl>
  <MultiGeometry>
    <Polygon>
      <outerBoundaryIs>
        <LinearRing>
          <coordinates>
-117.66,51.28,2000 -117.58,51.31,2000 -117.50,51.33,2000 -117.41,51.34,2000 -117.34,51.34,2000 -117.28,51.34,2000 -117.21,51.33,2000 -117.14,51.30,2000 -117.09,51.27,2000 -117.04,51.23,2000 -116.98,51.19,2000 -116.93,51.15,2000 -116.88,51.11,2000 -116.83,51.07,2000 -116.77,51.03,2000 -116.71,50.99,2000 -116.66,50.96,2000 -116.61,50.93,2000 -116.57,50.90,2000 -116.53,50.86,2000 -116.50,50.83,2000 -116.45,50.78,2000 -116.41,50.74,2000 -116.36,50.69,2000 -116.32,50.64,2000 -116.27,50.59,2000 -116.23,50.53,2000 -116.20,50.48,2000 -116.18,50.42,2000 -116.17,50.37,2000 -116.17,50.31,2000 -116.17,50.25,2000 -116.17,50.20,2000 -116.17,50.15,2000 -116.15,50.08,2000 -116.13,50.03,2000 -116.13,49.98,2000 -116.15,49.93,2000 -116.19,49.89,2000 -116.25,49.85,2000 -116.32,49.82,2000 -116.41,49.81,2000 -116.50,49.81,2000 -116.56,49.83,2000 -116.63,49.85,2000 -116.69,49.89,2000 -116.74,49.92,2000 -116.78,49.95,2000 -116.82,49.98,2000 -116.85,50.02,2000 -116.89,50.07,2000 -116.92,50.11,2000 -116.95,50.17,2000 -116.97,50.23,2000 -117.00,50.29,2000 -117.03,50.34,2000 -117.06,50.39,2000 -117.09,50.44,2000 -117.12,50.48,2000 -117.15,50.52,2000 -117.18,50.56,2000 -117.22,50.60,2000 -117.27,50.64,2000 -117.33,50.67,2000 -117.39,50.70,2000 -117.46,50.73,2000 -117.52,50.77,2000 -117.58,50.81,2000 -117.65,50.85,2000 -117.71,50.89,2000 -117.77,50.93,2000 -117.81,50.97,2000 -117.84,51.03,2000 -117.84,51.09,2000 -117.82,51.14,2000 -117.66,51.28,2000 
          </coordinates>
        </LinearRing>
      </outerBoundaryIs>
      <innerBoundaryIs>
        <LinearRing>
          <coordinates>
-117.63,51.16,3000 -117.57,51.19,3000 -117.51,51.23,3000 -117.45,51.25,3000 -117.39,51.26,3000 -117.33,51.26,3000 -117.28,51.24,3000 -117.22,51.22,3000 -117.17,51.20,3000 -117.11,51.17,3000 -117.06,51.14,3000 -117.00,51.10,3000 -116.95,51.06,3000 -116.91,51.03,3000 -116.88,51.00,3000 -116.85,50.97,3000 -116.82,50.93,3000 -116.77,50.89,3000 -116.73,50.86,3000 -116.68,50.82,3000 -116.63,50.78,3000 -116.58,50.73,3000 -116.52,50.69,3000 -116.48,50.65,3000 -116.44,50.62,3000 -116.39,50.58,3000 -116.35,50.54,3000 -116.33,50.51,3000 -116.31,50.46,3000 -116.30,50.42,3000 -116.30,50.38,3000 -116.30,50.33,3000 -116.30,50.28,3000 -116.30,50.23,3000 -116.31,50.18,3000 -116.32,50.14,3000 -116.34,50.09,3000 -116.36,50.05,3000 -116.39,50.01,3000 -116.42,49.97,3000 -116.45,49.95,3000 -116.49,49.91,3000 -116.55,49.94,3000 -116.58,49.96,3000 -116.62,50.00,3000 -116.66,50.04,3000 -116.70,50.08,3000 -116.75,50.12,3000 -116.79,50.17,3000 -116.82,50.21,3000 -116.85,50.24,3000 -116.88,50.29,3000 -116.90,50.33,3000 -116.91,50.36,3000 -116.92,50.40,3000 -116.93,50.44,3000 -116.94,50.48,3000 -116.96,50.52,3000 -116.98,50.56,3000 -117.02,50.60,3000 -117.07,50.64,3000 -117.12,50.67,3000 -117.18,50.71,3000 -117.23,50.74,3000 -117.28,50.76,3000 -117.34,50.79,3000 -117.39,50.81,3000 -117.44,50.84,3000 -117.49,50.88,3000 -117.55,50.91,3000 -117.59,50.95,3000 -117.64,50.99,3000 -117.63,51.16,3000 
          </coordinates>
        </LinearRing>
      </innerBoundaryIs>
  </Polygon>
 </MultiGeometry>
</Placemark>
<Placemark>
  <name>20%</name>
  <visibility>1</visibility>
  <styleUrl>#poly_20</styleUrl>
  <MultiGeometry>
    <Polygon>
      <outerBoundaryIs>
        <LinearRing>
          <coordinates>
-117.63,51.16,3000 -117.57,51.19,3000 -117.51,51.23,3000 -117.45,51.25,3000 -117.39,51.26,3000 -117.33,51.26,3000 -117.28,51.24,3000 -117.22,51.22,3000 -117.17,51.20,3000 -117.11,51.17,3000 -117.06,51.14,3000 -117.00,51.10,3000 -116.95,51.06,3000 -116.91,51.03,3000 -116.88,51.00,3000 -116.85,50.97,3000 -116.82,50.93,3000 -116.77,50.89,3000 -116.73,50.86,3000 -116.68,50.82,3000 -116.63,50.78,3000 -116.58,50.73,3000 -116.52,50.69,3000 -116.48,50.65,3000 -116.44,50.62,3000 -116.39,50.58,3000 -116.35,50.54,3000 -116.33,50.51,3000 -116.31,50.46,3000 -116.30,50.42,3000 -116.30,50.38,3000 -116.30,50.33,3000 -116.30,50.28,3000 -116.30,50.23,3000 -116.31,50.18,3000 -116.32,50.14,3000 -116.34,50.09,3000 -116.36,50.05,3000 -116.39,50.01,3000 -116.42,49.97,3000 -116.45,49.95,3000 -116.49,49.91,3000 -116.55,49.94,3000 -116.58,49.96,3000 -116.62,50.00,3000 -116.66,50.04,3000 -116.70,50.08,3000 -116.75,50.12,3000 -116.79,50.17,3000 -116.82,50.21,3000 -116.85,50.24,3000 -116.88,50.29,3000 -116.90,50.33,3000 -116.91,50.36,3000 -116.92,50.40,3000 -116.93,50.44,3000 -116.94,50.48,3000 -116.96,50.52,3000 -116.98,50.56,3000 -117.02,50.60,3000 -117.07,50.64,3000 -117.12,50.67,3000 -117.18,50.71,3000 -117.23,50.74,3000 -117.28,50.76,3000 -117.34,50.79,3000 -117.39,50.81,3000 -117.44,50.84,3000 -117.49,50.88,3000 -117.55,50.91,3000 -117.59,50.95,3000 -117.64,50.99,3000 -117.63,51.16,3000 
          </coordinates>
        </LinearRing>
      </outerBoundaryIs>
      <innerBoundaryIs>
        <LinearRing>
          <coordinates>
-117.37,51.17,4000 -117.34,51.16,4000 -117.32,51.15,4000 -117.29,51.14,4000 -117.27,51.13,4000 -117.24,51.12,4000 -117.22,51.11,4000 -117.20,51.10,4000 -117.18,51.09,4000 -117.16,51.08,4000 -117.14,51.07,4000 -117.12,51.07,4000 -117.11,51.06,4000 -117.09,51.06,4000 -117.08,51.05,4000 -117.07,51.04,4000 -117.06,51.03,4000 -117.05,51.02,4000 -117.04,51.01,4000 -117.03,51.00,4000 -117.02,50.98,4000 -117.01,50.97,4000 -116.99,50.95,4000 -116.98,50.93,4000 -116.97,50.92,4000 -116.97,50.90,4000 -116.96,50.89,4000 -116.96,50.87,4000 -116.95,50.86,4000 -116.95,50.84,4000 -116.95,50.82,4000 -116.95,50.80,4000 -116.95,50.78,4000 -116.96,50.77,4000 -116.97,50.75,4000 -116.98,50.74,4000 -116.99,50.74,4000 -117.00,50.74,4000 -117.02,50.74,4000 -117.04,50.75,4000 -117.06,50.76,4000 -117.09,50.76,4000 -117.11,50.77,4000 -117.14,50.79,4000 -117.16,50.80,4000 -117.19,50.81,4000 -117.21,50.82,4000 -117.23,50.83,4000 -117.25,50.84,4000 -117.27,50.84,4000 -117.28,50.85,4000 -117.30,50.86,4000 -117.31,50.87,4000 -117.32,50.88,4000 -117.33,50.89,4000 -117.34,50.90,4000 -117.36,50.91,4000 -117.37,50.92,4000 -117.39,50.94,4000 -117.40,50.95,4000 -117.42,50.96,4000 -117.44,50.98,4000 -117.45,50.99,4000 -117.47,51.01,4000 -117.37,51.17,4000 
          </coordinates>
        </LinearRing>
      </innerBoundaryIs>
      <innerBoundaryIs>
        <LinearRing>
          <coordinates>
-116.72,50.70,4000 -116.71,50.69,4000 -116.69,50.67,4000 -116.68,50.65,4000 -116.66,50.64,4000 -116.64,50.62,4000 -116.62,50.60,4000 -116.60,50.59,4000 -116.58,50.57,4000 -116.56,50.55,4000 -116.53,50.54,4000 -116.50,50.52,4000 -116.48,50.50,4000 -116.46,50.49,4000 -116.44,50.47,4000 -116.43,50.45,4000 -116.42,50.43,4000 -116.42,50.41,4000 -116.42,50.39,4000 -116.43,50.37,4000 -116.43,50.34,4000 -116.44,50.32,4000 -116.45,50.30,4000 -116.46,50.28,4000 -116.47,50.26,4000 -116.48,50.24,4000 -116.49,50.21,4000 -116.50,50.19,4000 -116.51,50.17,4000 -116.53,50.15,4000 -116.54,50.14,4000 -116.56,50.12,4000 -116.57,50.12,4000 -116.59,50.12,4000 -116.61,50.13,4000 -116.63,50.15,4000 -116.65,50.17,4000 -116.67,50.19,4000 -116.70,50.22,4000 -116.71,50.24,4000 -116.73,50.26,4000 -116.74,50.28,4000 -116.76,50.30,4000 -116.77,50.31,4000 -116.78,50.33,4000 -116.78,50.35,4000 -116.79,50.37,4000 -116.80,50.39,4000 -116.80,50.41,4000 -116.80,50.43,4000 -116.80,50.45,4000 -116.80,50.47,4000 -116.80,50.49,4000 -116.79,50.51,4000 -116.79,50.54,4000 -116.79,50.56,4000 -116.78,50.58,4000 -116.72,50.70,4000 
          </coordinates>
        </LinearRing>
      </innerBoundaryIs>
  </Polygon>
 </MultiGeometry>
</Placemark>
<Placemark>
  <name>20%</name>
  <visibility>1</visibility>
  <styleUrl>#poly_20</styleUrl>
  <MultiGeometry>
    <Polygon>
      <outerBoundaryIs>
        <LinearRing>
          <coordinates>
-122.16,50.51,3000 -122.14,50.51,3000 -122.12,50.51,3000 -122.10,50.51,3000 -122.08,50.51,3000 -122.06,50.51,3000 -122.04,50.51,3000 -122.03,50.51,3000 -122.01,50.51,3000 -121.99,50.51,3000 -121.98,50.51,3000 -121.96,50.51,3000 -121.95,50.51,3000 -121.93,50.51,3000 -121.92,50.51,3000 -121.91,50.51,3000 -121.90,50.51,3000 -121.87,50.51,3000 -121.87,50.51,3000 -121.87,50.49,3000 -121.87,50.48,3000 -121.86,50.48,3000 -121.86,50.47,3000 -121.86,50.46,3000 -121.85,50.45,3000 -121.85,50.43,3000 -121.84,50.42,3000 -121.84,50.41,3000 -121.83,50.40,3000 -121.83,50.39,3000 -121.82,50.38,3000 -121.82,50.36,3000 -121.82,50.35,3000 -121.81,50.34,3000 -121.81,50.34,3000 -121.81,50.33,3000 -121.80,50.31,3000 -121.80,50.31,3000 -121.81,50.31,3000 -121.83,50.30,3000 -121.84,50.30,3000 -121.85,50.29,3000 -121.86,50.29,3000 -121.87,50.28,3000 -121.89,50.28,3000 -121.90,50.27,3000 -121.92,50.27,3000 -121.93,50.26,3000 -121.95,50.26,3000 -121.97,50.25,3000 -121.98,50.25,3000 -122.00,50.24,3000 -122.02,50.24,3000 -122.03,50.24,3000 -122.05,50.23,3000 -122.06,50.23,3000 -122.07,50.23,3000 -122.09,50.23,3000 -122.10,50.23,3000 -122.12,50.23,3000 -122.13,50.24,3000 -122.15,50.24,3000 -122.16,50.25,3000 -122.17,50.25,3000 -122.18,50.26,3000 -122.19,50.27,3000 -122.20,50.28,3000 -122.21,50.29,3000 -122.21,50.29,3000 -122.21,50.30,3000 -122.22,50.31,3000 -122.22,50.32,3000 -122.23,50.33,3000 -122.23,50.34,3000 -122.23,50.35,3000 -122.24,50.36,3000 -122.24,50.37,3000 -122.24,50.38,3000 -122.24,50.39,3000 -122.24,50.41,3000 -122.25,50.42,3000 -122.25,50.43,3000 -122.25,50.44,3000 -122.16,50.51,3000 
          </coordinates>
        </LinearRing>
      </outerBoundaryIs>
  </Polygon>
 </MultiGeometry>
</Placemark>
<Placemark>
  <name>30%</name>
  <visibility>1</visibility>
  <styleUrl>#poly_30</styleUrl>
  <MultiGeometry>
    <Polygon>
      <outerBoundaryIs>
        <LinearRing>
          <coordinates>
-117.37,51.17,4000 -117.34,51.16,4000 -117.32,51.15,4000 -117.29,51.14,4000 -117.27,51.13,4000 -117.24,51.12,4000 -117.22,51.11,4000 -117.20,51.10,4000 -117.18,51.09,4000 -117.16,51.08,4000 -117.14,51.07,4000 -117.12,51.07,4000 -117.11,51.06,4000 -117.09,51.06,4000 -117.08,51.05,4000 -117.07,51.04,4000 -117.06,51.03,4000 -117.05,51.02,4000 -117.04,51.01,4000 -117.03,51.00,4000 -117.02,50.98,4000 -117.01,50.97,4000 -116.99,50.95,4000 -116.98,50.93,4000 -116.97,50.92,4000 -116.97,50.90,4000 -116.96,50.89,4000 -116.96,50.87,4000 -116.95,50.86,4000 -116.95,50.84,4000 -116.95,50.82,4000 -116.95,50.80,4000 -116.95,50.78,4000 -116.96,50.77,4000 -116.97,50.75,4000 -116.98,50.74,4000 -116.99,50.74,4000 -117.00,50.74,4000 -117.02,50.74,4000 -117.04,50.75,4000 -117.06,50.76,4000 -117.09,50.76,4000 -117.11,50.77,4000 -117.14,50.79,4000 -117.16,50.80,4000 -117.19,50.81,4000 -117.21,50.82,4000 -117.23,50.83,4000 -117.25,50.84,4000 -117.27,50.84,4000 -117.28,50.85,4000 -117.30,50.86,4000 -117.31,50.87,4000 -117.32,50.88,4000 -117.33,50.89,4000 -117.34,50.90,4000 -117.36,50.91,4000 -117.37,50.92,4000 -117.39,50.94,4000 -117.40,50.95,4000 -117.42,50.96,4000 -117.44,50.98,4000 -117.45,50.99,4000 -117.47,51.01,4000 -117.37,51.17,4000 
          </coordinates>
        </LinearRing>
      </outerBoundaryIs>
  </Polygon>
 </MultiGeometry>
</Placemark>
<Placemark>
  <name>30%</name>
  <visibility>1</visibility>
  <styleUrl>#poly_30</styleUrl>
  <MultiGeometry>
    <Polygon>
      <outerBoundaryIs>
        <LinearRing>
          <coordinates>
-116.72,50.70,4000 -116.71,50.69,4000 -116.69,50.67,4000 -116.68,50.65,4000 -116.66,50.64,4000 -116.64,50.62,4000 -116.62,50.60,4000 -116.60,50.59,4000 -116.58,50.57,4000 -116.56,50.55,4000 -116.53,50.54,4000 -116.50,50.52,4000 -116.48,50.50,4000 -116.46,50.49,4000 -116.44,50.47,4000 -116.43,50.45,4000 -116.42,50.43,4000 -116.42,50.41,4000 -116.42,50.39,4000 -116.43,50.37,4000 -116.43,50.34,4000 -116.44,50.32,4000 -116.45,50.30,4000 -116.46,50.28,4000 -116.47,50.26,4000 -116.48,50.24,4000 -116.49,50.21,4000 -116.50,50.19,4000 -116.51,50.17,4000 -116.53,50.15,4000 -116.54,50.14,4000 -116.56,50.12,4000 -116.57,50.12,4000 -116.59,50.12,4000 -116.61,50.13,4000 -116.63,50.15,4000 -116.65,50.17,4000 -116.67,50.19,4000 -116.70,50.22,4000 -116.71,50.24,4000 -116.73,50.26,4000 -116.74,50.28,4000 -116.76,50.30,4000 -116.77,50.31,4000 -116.78,50.33,4000 -116.78,50.35,4000 -116.79,50.37,4000 -116.80,50.39,4000 -116.80,50.41,4000 -116.80,50.43,4000 -116.80,50.45,4000 -116.80,50.47,4000 -116.80,50.49,4000 -116.79,50.51,4000 -116.79,50.54,4000 -116.79,50.56,4000 -116.78,50.58,4000 -116.72,50.70,4000 
          </coordinates>
        </LinearRing>
      </outerBoundaryIs>
  </Polygon>
 </MultiGeometry>
</Placemark>
    </Folder>
  </Document>
</kml>
