<?xml version="1.0" encoding="UTF-8"?>
<kml xmlns="http://www.opengis.net/kml/2.2">
<Document id="prb_72hsnow_ge02_f072">
<name>WPC 72-Hr Prob of Snow > 2"</name>
  <open>1</open>
  <snippet>Valid 12Z 10/04/2026 - 12Z 10/07/2026</snippet>
  <description></description>
    <Style id="poly_1">
        <IconStyle>
           <color>00000000</color>
           <scale>1</scale>
        </IconStyle>
        <LabelStyle>
            <color>ff26478b</color>
            <scale>0.8</scale>
        </LabelStyle>
        <LineStyle>
            <color>6626478b</color>
            <width>0</width>
        </LineStyle>
	<PolyStyle>
            <color>6626478b</color>
	</PolyStyle>
        <BalloonStyle>
            <text>
                <![CDATA[ <table border=0 width="300"><tr><td style="font-size:10pt;">
                During this forecast period, there is a <b>1-5%</b> probability of snowfall exceeding the depicted amount in the enclosed area.
                <br/><br/>
                *<span style="font-size:8pt;">Note that in cases where this contour is embedded within a 5% contour, 
                the probability of snowfall exceeding the depicted amount is &lt;1%.</span>
                </td></tr></table>]]>
            </text>
        </BalloonStyle>
    </Style>

    <Style id="poly_5">
        <IconStyle>
           <color>00000000</color>
           <scale>1</scale>
        </IconStyle>
        <LabelStyle>
            <color>ff00eeee</color>
            <scale>0.8</scale>
        </LabelStyle>
        <LineStyle>
            <color>6600eeee</color>
            <width>0.4</width>
        </LineStyle>
	<PolyStyle>
	    <color>6600eeee</color>
	</PolyStyle>
        <BalloonStyle>
            <text>
                <![CDATA[ <table border=0 width="300"><tr><td style="font-size:10pt;">
                During this forecast period, there is a <b>5-10%</b> probability of snowfall exceeding the depicted amount in the enclosed area.
                <br/><br/>
                *<span style="font-size:8pt;">Note that in cases where this contour is embedded within a 10% contour, 
                the probability of snowfall exceeding the depicted amount is &lt;5%.</span>
                </td></tr></table>]]>
            </text>
        </BalloonStyle>
    </Style>

    <Style id="poly_10">
        <IconStyle>
           <color>00000000</color>
           <scale>1</scale>
        </IconStyle>
        <LabelStyle>
            <color>ff00ff7f</color>
            <scale>0.8</scale>
        </LabelStyle>
        <LineStyle>
            <color>6600ff7f</color>
            <width>0.4</width>
        </LineStyle>
	<PolyStyle>
	    <color>6600ff7f</color>
	</PolyStyle>
        <BalloonStyle>
            <text>
                <![CDATA[ <table border=0 width="300"><tr><td style="font-size:10pt;">
                During this forecast period, there is a <b>10-20%</b> probability of snowfall exceeding the depicted amount in the enclosed area.
                <br/><br/>
                *<span style="font-size:8pt;">Note that in cases where this contour is embedded within a 20% contour, 
                the probability of snowfall exceeding the depicted amount is &lt;10%.</span>
                </td></tr></table>]]>
            </text>
        </BalloonStyle>
    </Style>
    
    <Style id="poly_20">
        <IconStyle>
            <color>00000000</color>
            <scale>1</scale>
        </IconStyle>
        <LabelStyle>
            <color>ff00cd00</color>
            <scale>0.8</scale>
        </LabelStyle>
        <LineStyle>
            <color>6600cd00</color>
	    <width>0.4</width>
	</LineStyle>
	<PolyStyle>
	    <color>6600cd00</color>
	</PolyStyle>
        <BalloonStyle>
            <text>
                <![CDATA[ <table border=0 width="300"><tr><td style="font-size:10pt;">
                During this forecast period, there is a <b>20-30%</b> probability of snowfall exceeding the depicted amount in the enclosed area.
                <br/><br/>
                *<span style="font-size:8pt;">Note that in cases where this contour is embedded within a 30% contour, 
                the probability of snowfall exceeding the depicted amount is &lt;20%.</span>
                </td></tr></table>]]>
            </text>
        </BalloonStyle>
    </Style>

    <Style id="poly_30">
        <IconStyle>
            <color>00000000</color>
            <scale>1</scale>
        </IconStyle>
        <LabelStyle>
            <color>ff008b00</color>
            <scale>0.8</scale>
        </LabelStyle>
        <LineStyle>
            <color>66008b00</color>
	    <width>0.4</width>
	</LineStyle>
	<PolyStyle>
	    <color>66008b00</color>
	</PolyStyle>
        <BalloonStyle>
            <text>
                <![CDATA[ <table border=0 width="300"><tr><td style="font-size:10pt;">
                During this forecast period, there is a <b>30-40%</b> probability of snowfall exceeding the depicted amount in the enclosed area.
                <br/><br/>
                *<span style="font-size:8pt;">Note that in cases where this contour is embedded within a 40% contour, 
                the probability of snowfall exceeding the depicted amount is &lt;30%.</span>
                </td></tr></table>]]>
            </text>
        </BalloonStyle>
    </Style>

    <Style id="poly_40">
        <IconStyle>
            <color>00000000</color>
            <scale>1</scale>
        </IconStyle>
        <LabelStyle>
            <color>ff8b4e10</color>
            <scale>0.8</scale>
        </LabelStyle>
        <LineStyle>
            <color>668b4e10</color>
	    <width>0.4</width>
	</LineStyle>
	<PolyStyle>
	    <color>668b4e10</color>
	</PolyStyle>
        <BalloonStyle>
            <text>
                <![CDATA[ <table border=0 width="300"><tr><td style="font-size:10pt;">
                During this forecast period, there is a <b>40-50%</b> probability of snowfall exceeding the depicted amount in the enclosed area.
                <br/><br/>
                *<span style="font-size:8pt;">Note that in cases where this contour is embedded within a 50% contour, 
                the probability of snowfall exceeding the depicted amount is &lt;40%.</span>
                </td></tr></table>]]>
            </text>
        </BalloonStyle>
    </Style>

    <Style id="poly_50">
        <IconStyle>
            <color>00000000</color>
            <scale>1</scale>
        </IconStyle>
        <LabelStyle>
            <color>ffff901e</color>
            <scale>0.8</scale>
        </LabelStyle>
        <LineStyle>
            <color>66ff901e</color>
	    <width>0.4</width>
	</LineStyle>
	<PolyStyle>
	    <color>66ff901e</color>
	</PolyStyle>
        <BalloonStyle>
            <text>
                <![CDATA[ <table border=0 width="300"><tr><td style="font-size:10pt;">
                During this forecast period, there is a <b>50-60%</b> probability of snowfall exceeding the depicted amount in the enclosed area.
                <br/><br/>
                *<span style="font-size:8pt;">Note that in cases where this contour is embedded within a 60% contour, 
                the probability of snowfall exceeding the depicted amount is &lt;50%.</span>
                </td></tr></table>]]>
            </text>
        </BalloonStyle>
    </Style>

    <Style id="poly_60">
        <IconStyle>
            <color>00000000</color>
            <scale>1</scale>
        </IconStyle>
        <LabelStyle>
            <color>ffeeb200</color>
            <scale>0.8</scale>
        </LabelStyle>
        <LineStyle>
            <color>66eeb200</color>
	    <width>0.4</width>
	</LineStyle>
	<PolyStyle>
	    <color>66eeb200</color>
	</PolyStyle>
        <BalloonStyle>
            <text>
                <![CDATA[ <table border=0 width="300"><tr><td style="font-size:10pt;">
                During this forecast period, there is a <b>60-70%</b> probability of snowfall exceeding the depicted amount in the enclosed area.
                <br/><br/>
                *<span style="font-size:8pt;">Note that in cases where this contour is embedded within a 70% contour, 
                the probability of snowfall exceeding the depicted amount is &lt;60%.</span>
                </td></tr></table>]]>
            </text>
        </BalloonStyle>
    </Style>
    
    <Style id="poly_70">
        <IconStyle>
            <color>00000000</color>
            <scale>1</scale>
        </IconStyle>
        <LabelStyle>
            <color>ffeeee00</color>
            <scale>0.8</scale>
        </LabelStyle>
        <LineStyle>
            <color>66eeee00</color>
	    <width>0.4</width>
	</LineStyle>
	<PolyStyle>
	    <color>66eeee00</color>
	</PolyStyle>
        <BalloonStyle>
            <text>
                <![CDATA[ <table border=0 width="300"><tr><td style="font-size:10pt;">
                During this forecast period, there is a <b>70-80%</b> probability of snowfall exceeding the depicted amount in the enclosed area.
                <br/><br/>
                *<span style="font-size:8pt;">Note that in cases where this contour is embedded within a 80% contour, 
                the probability of snowfall exceeding the depicted amount is &lt;70%.</span>
                </td></tr></table>]]>
            </text>
        </BalloonStyle>
    </Style>

    <Style id="poly_80">
        <IconStyle>
            <color>00000000</color>
            <scale>1</scale>
        </IconStyle>
        <LabelStyle>
            <color>ff4782ff</color>
            <scale>0.8</scale>
        </LabelStyle>
        <LineStyle>
            <color>664782ff</color>
	    <width>0.4</width>
	</LineStyle>
	<PolyStyle>
	    <color>664782ff</color>
	</PolyStyle>
        <BalloonStyle>
            <text>
                <![CDATA[ <table border=0 width="300"><tr><td style="font-size:10pt;">
                During this forecast period, there is a <b>80-90%</b> probability of snowfall exceeding the depicted amount in the enclosed area.
                <br/><br/>
                *<span style="font-size:8pt;">Note that in cases where this contour is embedded within a 90% contour, 
                the probability of snowfall exceeding the depicted amount is &lt;80%.</span>
                </td></tr></table>]]>
            </text>
        </BalloonStyle>
    </Style>

    <Style id="poly_90">
        <IconStyle>
            <color>00000000</color>
            <scale>1</scale>
        </IconStyle>
        <LabelStyle>
            <color>ff2c2cee</color>
            <scale>0.8</scale>
        </LabelStyle>
        <LineStyle>
            <color>662c2cee</color>
            <width>0.4</width>
        </LineStyle>
        <PolyStyle>
            <color>662c2cee</color>
        </PolyStyle>
        <BalloonStyle>
            <text>
                <![CDATA[ <table border=0 width="300"><tr><td style="font-size:10pt;">
                During this forecast period, there is a <b>90-95%</b> probability of snowfall exceeding the depicted amount in the enclosed area.
                <br/><br/>
                *<span style="font-size:8pt;">Note that in cases where this contour is embedded within a 95% contour, 
                the probability of snowfall exceeding the depicted amount is &lt;90%.</span>
                </td></tr></table>]]>
            </text>
        </BalloonStyle>
    </Style>

    <Style id="poly_95">
        <IconStyle>
            <color>00000000</color>
            <scale>1</scale>
        </IconStyle>
        <LabelStyle>
            <color>ff00008b</color>
            <scale>0.8</scale>
        </LabelStyle>
        <LineStyle>
            <color>6600008b</color>
	    <width>0.4</width>
	</LineStyle>
	<PolyStyle>
	    <color>6600008b</color>
	</PolyStyle>
        <BalloonStyle>
            <text>
                <![CDATA[ <table border=0 width="300"><tr><td style="font-size:10pt;">
                The probability of snowfall exceeding the depicted amount is <b>&ge;95%</b> in the enclosed area during this forecast period.
                </td></tr></table>]]>
            </text>
        </BalloonStyle>
    </Style>

  <ScreenOverlay>
    <name>Logos</name>
    <description></description>
    <Icon>
      <href>https://www.wpc.ncep.noaa.gov/images/noaa_and_nws_logo.png</href>
    </Icon>
   <overlayXY x=".01" y=".01" xunits="fraction" yunits="fraction" />
   <screenXY x=".01" y=".01" xunits="fraction" yunits="fraction" />
   <rotationXY x="0" y="0" xunits="fraction" yunits="fraction" />
   <size x="-1" y="-1" xunits="fraction" yunits="fraction" />
  </ScreenOverlay>
    <Folder>
      <name>Snow Probabilities</name>
      <open>0</open>
<Placemark>
  <name>1%</name>
  <visibility>1</visibility>
  <styleUrl>#poly_1</styleUrl>
  <MultiGeometry>
    <Polygon>
      <outerBoundaryIs>
        <LinearRing>
          <coordinates>
-66.14,49.34,0 -66.10,49.34,0 -66.05,49.34,0 -66.01,49.34,0 -65.96,49.34,0 -65.92,49.34,0 -65.88,49.33,0 -65.84,49.32,0 -65.79,49.31,0 -65.75,49.30,0 -65.71,49.29,0 -65.67,49.28,0 -65.64,49.26,0 -65.61,49.24,0 -65.57,49.21,0 -65.55,49.19,0 -65.53,49.16,0 -65.51,49.13,0 -65.50,49.10,0 -65.50,49.08,0 -65.50,49.05,0 -65.50,49.02,0 -65.50,48.99,0 -65.50,48.96,0 -65.50,48.93,0 -65.51,48.90,0 -65.52,48.87,0 -65.53,48.84,0 -65.53,48.82,0 -65.52,48.79,0 -65.55,48.77,0 -65.56,48.75,0 -65.57,48.72,0 -65.58,48.70,0 -65.60,48.67,0 -65.63,48.64,0 -65.66,48.62,0 -65.69,48.60,0 -65.73,48.59,0 -65.77,48.57,0 -65.81,48.55,0 -65.85,48.54,0 -65.89,48.53,0 -65.93,48.52,0 -65.98,48.52,0 -66.03,48.53,0 -66.07,48.53,0 -66.11,48.54,0 -66.14,48.54,0 -66.17,48.55,0 -66.19,48.55,0 -66.22,48.54,0 -66.26,48.53,0 -66.31,48.52,0 -66.36,48.51,0 -66.41,48.50,0 -66.45,48.49,0 -66.50,48.48,0 -66.54,48.48,0 -66.59,48.47,0 -66.64,48.46,0 -66.68,48.46,0 -66.72,48.46,0 -66.77,48.46,0 -66.81,48.46,0 -66.86,48.47,0 -66.90,48.48,0 -66.93,48.49,0 -66.96,48.51,0 -66.98,48.53,0 -67.00,48.56,0 -67.02,48.59,0 -67.04,48.61,0 -67.05,48.64,0 -67.06,48.67,0 -67.07,48.70,0 -67.07,48.73,0 -67.06,48.76,0 -67.06,48.79,0 -67.05,48.81,0 -67.04,48.84,0 -67.03,48.87,0 -67.01,48.90,0 -66.99,48.93,0 -66.97,48.96,0 -66.94,48.99,0 -66.91,49.01,0 -66.87,49.03,0 -66.83,49.05,0 -66.79,49.07,0 -66.76,49.09,0 -66.73,49.10,0 -66.72,49.12,0 -66.70,49.13,0 -66.67,49.14,0 -66.63,49.16,0 -66.59,49.17,0 -66.54,49.19,0 -66.50,49.21,0 -66.46,49.22,0 -66.43,49.23,0 -66.39,49.25,0 -66.14,49.34,0 
          </coordinates>
        </LinearRing>
      </outerBoundaryIs>
      <innerBoundaryIs>
        <LinearRing>
          <coordinates>
-65.91,49.23,1000 -65.89,49.22,1000 -65.87,49.21,1000 -65.84,49.19,1000 -65.82,49.18,1000 -65.80,49.17,1000 -65.78,49.16,1000 -65.76,49.15,1000 -65.74,49.14,1000 -65.72,49.13,1000 -65.70,49.11,1000 -65.69,49.09,1000 -65.67,49.08,1000 -65.65,49.06,1000 -65.64,49.04,1000 -65.63,49.01,1000 -65.62,48.99,1000 -65.61,48.97,1000 -65.61,48.95,1000 -65.61,48.93,1000 -65.61,48.91,1000 -65.61,48.89,1000 -65.62,48.87,1000 -65.63,48.85,1000 -65.64,48.83,1000 -65.65,48.81,1000 -65.67,48.79,1000 -65.69,48.78,1000 -65.71,48.76,1000 -65.74,48.75,1000 -65.76,48.73,1000 -65.79,48.72,1000 -65.81,48.71,1000 -65.83,48.70,1000 -65.86,48.69,1000 -65.88,48.68,1000 -65.91,48.68,1000 -65.93,48.67,1000 -65.96,48.67,1000 -65.98,48.66,1000 -66.01,48.65,1000 -66.05,48.65,1000 -66.08,48.64,1000 -66.11,48.64,1000 -66.14,48.64,1000 -66.17,48.64,1000 -66.20,48.64,1000 -66.23,48.64,1000 -66.26,48.65,1000 -66.30,48.65,1000 -66.33,48.65,1000 -66.36,48.66,1000 -66.39,48.67,1000 -66.42,48.67,1000 -66.46,48.68,1000 -66.49,48.69,1000 -66.52,48.70,1000 -66.55,48.71,1000 -66.58,48.72,1000 -66.60,48.73,1000 -66.63,48.74,1000 -66.65,48.75,1000 -66.66,48.76,1000 -66.67,48.78,1000 -66.67,48.80,1000 -66.67,48.82,1000 -66.68,48.84,1000 -66.67,48.86,1000 -66.67,48.89,1000 -66.67,48.91,1000 -66.66,48.93,1000 -66.65,48.95,1000 -66.63,48.97,1000 -66.61,48.98,1000 -66.58,49.00,1000 -66.56,49.01,1000 -66.53,49.02,1000 -66.51,49.03,1000 -66.49,49.04,1000 -66.48,49.06,1000 -66.48,49.07,1000 -66.45,49.09,1000 -66.43,49.10,1000 -66.41,49.11,1000 -66.38,49.12,1000 -66.35,49.14,1000 -66.32,49.15,1000 -66.29,49.17,1000 -66.26,49.18,1000 -66.23,49.19,1000 -66.20,49.20,1000 -66.18,49.21,1000 -66.13,49.22,1000 -66.11,49.22,1000 -66.09,49.21,1000 -65.91,49.23,1000 
          </coordinates>
        </LinearRing>
      </innerBoundaryIs>
  </Polygon>
 </MultiGeometry>
</Placemark>
<Placemark>
  <name>1%</name>
  <visibility>1</visibility>
  <styleUrl>#poly_1</styleUrl>
  <MultiGeometry>
    <Polygon>
      <outerBoundaryIs>
        <LinearRing>
          <coordinates>
-71.07,49.24,0 -71.02,49.26,0 -70.98,49.27,0 -70.93,49.29,0 -70.89,49.30,0 -70.84,49.31,0 -70.80,49.31,0 -70.75,49.31,0 -70.70,49.30,0 -70.65,49.29,0 -70.60,49.27,0 -70.56,49.25,0 -70.52,49.23,0 -70.49,49.20,0 -70.45,49.17,0 -70.42,49.14,0 -70.39,49.12,0 -70.37,49.10,0 -70.35,49.08,0 -70.33,49.06,0 -70.30,49.04,0 -70.27,49.01,0 -70.24,48.99,0 -70.20,48.96,0 -70.17,48.93,0 -70.14,48.90,0 -70.11,48.87,0 -70.08,48.84,0 -70.04,48.80,0 -70.02,48.77,0 -70.00,48.74,0 -69.98,48.71,0 -69.97,48.68,0 -69.97,48.64,0 -69.98,48.61,0 -70.00,48.58,0 -70.01,48.55,0 -70.03,48.52,0 -70.04,48.48,0 -70.07,48.45,0 -70.09,48.42,0 -70.12,48.39,0 -70.16,48.36,0 -70.20,48.35,0 -70.25,48.33,0 -70.30,48.32,0 -70.35,48.31,0 -70.40,48.31,0 -70.45,48.31,0 -70.51,48.31,0 -70.56,48.31,0 -70.61,48.31,0 -70.66,48.32,0 -70.71,48.32,0 -70.76,48.33,0 -70.81,48.34,0 -70.86,48.35,0 -70.91,48.37,0 -70.96,48.38,0 -71.00,48.40,0 -71.04,48.42,0 -71.08,48.44,0 -71.10,48.46,0 -71.13,48.49,0 -71.15,48.51,0 -71.17,48.53,0 -71.20,48.56,0 -71.22,48.59,0 -71.24,48.61,0 -71.27,48.64,0 -71.30,48.66,0 -71.32,48.70,0 -71.33,48.73,0 -71.34,48.77,0 -71.35,48.81,0 -71.35,48.84,0 -71.35,48.88,0 -71.35,48.91,0 -71.34,48.95,0 -71.33,48.98,0 -71.32,49.01,0 -71.30,49.04,0 -71.28,49.07,0 -71.25,49.10,0 -71.22,49.13,0 -71.18,49.16,0 -71.15,49.19,0 -71.07,49.24,0 
          </coordinates>
        </LinearRing>
      </outerBoundaryIs>
      <innerBoundaryIs>
        <LinearRing>
          <coordinates>
-70.86,49.09,1000 -70.82,49.09,1000 -70.78,49.08,1000 -70.74,49.08,1000 -70.71,49.07,1000 -70.67,49.07,1000 -70.64,49.06,1000 -70.61,49.05,1000 -70.58,49.04,1000 -70.55,49.02,1000 -70.53,49.00,1000 -70.51,48.99,1000 -70.49,48.97,1000 -70.47,48.95,1000 -70.45,48.94,1000 -70.43,48.93,1000 -70.40,48.91,1000 -70.39,48.90,1000 -70.37,48.88,1000 -70.35,48.86,1000 -70.32,48.84,1000 -70.30,48.82,1000 -70.28,48.80,1000 -70.26,48.78,1000 -70.24,48.76,1000 -70.23,48.74,1000 -70.22,48.72,1000 -70.22,48.69,1000 -70.22,48.67,1000 -70.22,48.64,1000 -70.23,48.62,1000 -70.23,48.60,1000 -70.23,48.59,1000 -70.22,48.57,1000 -70.24,48.56,1000 -70.26,48.55,1000 -70.28,48.54,1000 -70.31,48.53,1000 -70.33,48.51,1000 -70.37,48.50,1000 -70.40,48.48,1000 -70.43,48.47,1000 -70.46,48.46,1000 -70.49,48.45,1000 -70.52,48.44,1000 -70.56,48.44,1000 -70.59,48.44,1000 -70.63,48.44,1000 -70.67,48.45,1000 -70.70,48.46,1000 -70.74,48.47,1000 -70.77,48.48,1000 -70.80,48.49,1000 -70.83,48.51,1000 -70.86,48.52,1000 -70.89,48.54,1000 -70.92,48.56,1000 -70.95,48.57,1000 -70.97,48.59,1000 -70.99,48.60,1000 -71.02,48.62,1000 -71.04,48.63,1000 -71.06,48.65,1000 -71.07,48.67,1000 -71.08,48.69,1000 -71.09,48.71,1000 -71.10,48.73,1000 -71.11,48.75,1000 -71.11,48.78,1000 -71.12,48.80,1000 -71.12,48.83,1000 -71.12,48.85,1000 -71.12,48.87,1000 -71.11,48.89,1000 -71.10,48.91,1000 -71.08,48.93,1000 -71.07,48.95,1000 -71.05,48.97,1000 -71.04,48.99,1000 -71.02,49.01,1000 -70.86,49.09,1000 
          </coordinates>
        </LinearRing>
      </innerBoundaryIs>
  </Polygon>
 </MultiGeometry>
</Placemark>
<Placemark>
  <name>1%</name>
  <visibility>1</visibility>
  <styleUrl>#poly_1</styleUrl>
  <MultiGeometry>
    <Polygon>
      <outerBoundaryIs>
        <LinearRing>
          <coordinates>
-73.77,48.71,0 -73.75,48.72,0 -73.73,48.72,0 -73.71,48.73,0 -73.70,48.74,0 -73.68,48.74,0 -73.66,48.75,0 -73.64,48.75,0 -73.63,48.76,0 -73.61,48.76,0 -73.59,48.77,0 -73.58,48.77,0 -73.56,48.77,0 -73.55,48.77,0 -73.54,48.77,0 -73.52,48.77,0 -73.51,48.77,0 -73.50,48.77,0 -73.49,48.77,0 -73.48,48.76,0 -73.47,48.75,0 -73.46,48.74,0 -73.45,48.73,0 -73.44,48.72,0 -73.43,48.71,0 -73.43,48.70,0 -73.42,48.68,0 -73.42,48.67,0 -73.41,48.66,0 -73.41,48.65,0 -73.41,48.63,0 -73.41,48.62,0 -73.41,48.61,0 -73.41,48.60,0 -73.41,48.59,0 -73.42,48.58,0 -73.42,48.57,0 -73.43,48.56,0 -73.44,48.54,0 -73.45,48.53,0 -73.46,48.52,0 -73.48,48.51,0 -73.49,48.50,0 -73.50,48.49,0 -73.52,48.49,0 -73.53,48.48,0 -73.54,48.48,0 -73.56,48.47,0 -73.57,48.47,0 -73.58,48.47,0 -73.59,48.47,0 -73.61,48.48,0 -73.62,48.48,0 -73.64,48.49,0 -73.65,48.49,0 -73.67,48.50,0 -73.68,48.51,0 -73.70,48.52,0 -73.72,48.53,0 -73.73,48.54,0 -73.74,48.54,0 -73.76,48.55,0 -73.77,48.56,0 -73.78,48.57,0 -73.79,48.57,0 -73.80,48.58,0 -73.82,48.59,0 -73.83,48.60,0 -73.84,48.61,0 -73.84,48.62,0 -73.84,48.63,0 -73.84,48.64,0 -73.77,48.71,0 
          </coordinates>
        </LinearRing>
      </outerBoundaryIs>
  </Polygon>
 </MultiGeometry>
</Placemark>
<Placemark>
  <name>1%</name>
  <visibility>1</visibility>
  <styleUrl>#poly_1</styleUrl>
  <MultiGeometry>
    <Polygon>
      <outerBoundaryIs>
        <LinearRing>
          <coordinates>
-71.58,48.32,0 -71.52,48.32,0 -71.45,48.33,0 -71.39,48.33,0 -71.32,48.33,0 -71.26,48.33,0 -71.20,48.33,0 -71.13,48.33,0 -71.07,48.32,0 -71.01,48.31,0 -70.94,48.30,0 -70.87,48.29,0 -70.81,48.28,0 -70.74,48.27,0 -70.68,48.25,0 -70.63,48.24,0 -70.58,48.22,0 -70.52,48.19,0 -70.47,48.15,0 -70.44,48.11,0 -70.41,48.08,0 -70.38,48.04,0 -70.35,48.00,0 -70.32,47.96,0 -70.30,47.93,0 -70.29,47.89,0 -70.29,47.85,0 -70.29,47.81,0 -70.30,47.78,0 -70.32,47.74,0 -70.35,47.71,0 -70.38,47.69,0 -70.43,47.66,0 -70.47,47.63,0 -70.51,47.59,0 -70.53,47.56,0 -70.55,47.52,0 -70.58,47.47,0 -70.60,47.43,0 -70.62,47.38,0 -70.64,47.34,0 -70.67,47.30,0 -70.70,47.27,0 -70.75,47.24,0 -70.80,47.21,0 -70.85,47.19,0 -70.91,47.17,0 -70.97,47.16,0 -71.03,47.14,0 -71.09,47.12,0 -71.15,47.10,0 -71.21,47.09,0 -71.27,47.07,0 -71.33,47.06,0 -71.40,47.06,0 -71.46,47.06,0 -71.52,47.07,0 -71.58,47.08,0 -71.65,47.09,0 -71.72,47.10,0 -71.78,47.12,0 -71.83,47.13,0 -71.88,47.15,0 -71.94,47.18,0 -71.98,47.21,0 -72.02,47.25,0 -72.05,47.29,0 -72.08,47.34,0 -72.10,47.37,0 -72.12,47.41,0 -72.14,47.45,0 -72.16,47.49,0 -72.18,47.53,0 -72.19,47.58,0 -72.19,47.62,0 -72.19,47.66,0 -72.18,47.70,0 -72.17,47.75,0 -72.16,47.79,0 -72.14,47.83,0 -72.13,47.88,0 -72.11,47.92,0 -72.09,47.95,0 -72.06,48.00,0 -72.02,48.04,0 -71.97,48.08,0 -71.93,48.11,0 -71.88,48.14,0 -71.58,48.32,0 
          </coordinates>
        </LinearRing>
      </outerBoundaryIs>
      <innerBoundaryIs>
        <LinearRing>
          <coordinates>
-71.34,48.24,1000 -71.29,48.25,1000 -71.24,48.25,1000 -71.19,48.25,1000 -71.14,48.25,1000 -71.09,48.25,1000 -71.04,48.24,1000 -70.99,48.23,1000 -70.94,48.22,1000 -70.89,48.20,1000 -70.85,48.19,1000 -70.80,48.17,1000 -70.77,48.15,1000 -70.74,48.13,1000 -70.70,48.11,1000 -70.67,48.10,1000 -70.63,48.07,1000 -70.60,48.05,1000 -70.57,48.02,1000 -70.54,47.99,1000 -70.52,47.96,1000 -70.50,47.93,1000 -70.49,47.90,1000 -70.49,47.86,1000 -70.49,47.83,1000 -70.50,47.79,1000 -70.51,47.76,1000 -70.52,47.73,1000 -70.53,47.69,1000 -70.55,47.66,1000 -70.57,47.63,1000 -70.59,47.60,1000 -70.62,47.57,1000 -70.65,47.53,1000 -70.68,47.50,1000 -70.71,47.47,1000 -70.74,47.45,1000 -70.78,47.42,1000 -70.81,47.40,1000 -70.84,47.38,1000 -70.86,47.35,1000 -70.90,47.32,1000 -70.93,47.30,1000 -70.97,47.28,1000 -71.01,47.26,1000 -71.05,47.24,1000 -71.10,47.23,1000 -71.15,47.22,1000 -71.20,47.21,1000 -71.25,47.21,1000 -71.31,47.20,1000 -71.36,47.20,1000 -71.41,47.20,1000 -71.46,47.20,1000 -71.51,47.21,1000 -71.56,47.21,1000 -71.61,47.22,1000 -71.66,47.23,1000 -71.71,47.25,1000 -71.76,47.26,1000 -71.80,47.28,1000 -71.84,47.30,1000 -71.88,47.33,1000 -71.91,47.35,1000 -71.93,47.39,1000 -71.95,47.42,1000 -71.96,47.45,1000 -71.97,47.48,1000 -71.98,47.52,1000 -71.99,47.56,1000 -71.99,47.59,1000 -71.99,47.62,1000 -71.98,47.66,1000 -71.98,47.69,1000 -71.97,47.73,1000 -71.96,47.76,1000 -71.95,47.79,1000 -71.94,47.82,1000 -71.93,47.86,1000 -71.92,47.89,1000 -71.90,47.92,1000 -71.88,47.95,1000 -71.86,47.99,1000 -71.83,48.02,1000 -71.81,48.05,1000 -71.78,48.08,1000 -71.74,48.11,1000 -71.70,48.13,1000 -71.66,48.15,1000 -71.62,48.17,1000 -71.58,48.18,1000 -71.54,48.19,1000 -71.49,48.20,1000 -71.45,48.21,1000 -71.34,48.24,1000 
          </coordinates>
        </LinearRing>
      </innerBoundaryIs>
  </Polygon>
 </MultiGeometry>
</Placemark>
<Placemark>
  <name>5%</name>
  <visibility>1</visibility>
  <styleUrl>#poly_5</styleUrl>
  <MultiGeometry>
    <Polygon>
      <outerBoundaryIs>
        <LinearRing>
          <coordinates>
-71.34,48.24,1000 -71.29,48.25,1000 -71.24,48.25,1000 -71.19,48.25,1000 -71.14,48.25,1000 -71.09,48.25,1000 -71.04,48.24,1000 -70.99,48.23,1000 -70.94,48.22,1000 -70.89,48.20,1000 -70.85,48.19,1000 -70.80,48.17,1000 -70.77,48.15,1000 -70.74,48.13,1000 -70.70,48.11,1000 -70.67,48.10,1000 -70.63,48.07,1000 -70.60,48.05,1000 -70.57,48.02,1000 -70.54,47.99,1000 -70.52,47.96,1000 -70.50,47.93,1000 -70.49,47.90,1000 -70.49,47.86,1000 -70.49,47.83,1000 -70.50,47.79,1000 -70.51,47.76,1000 -70.52,47.73,1000 -70.53,47.69,1000 -70.55,47.66,1000 -70.57,47.63,1000 -70.59,47.60,1000 -70.62,47.57,1000 -70.65,47.53,1000 -70.68,47.50,1000 -70.71,47.47,1000 -70.74,47.45,1000 -70.78,47.42,1000 -70.81,47.40,1000 -70.84,47.38,1000 -70.86,47.35,1000 -70.90,47.32,1000 -70.93,47.30,1000 -70.97,47.28,1000 -71.01,47.26,1000 -71.05,47.24,1000 -71.10,47.23,1000 -71.15,47.22,1000 -71.20,47.21,1000 -71.25,47.21,1000 -71.31,47.20,1000 -71.36,47.20,1000 -71.41,47.20,1000 -71.46,47.20,1000 -71.51,47.21,1000 -71.56,47.21,1000 -71.61,47.22,1000 -71.66,47.23,1000 -71.71,47.25,1000 -71.76,47.26,1000 -71.80,47.28,1000 -71.84,47.30,1000 -71.88,47.33,1000 -71.91,47.35,1000 -71.93,47.39,1000 -71.95,47.42,1000 -71.96,47.45,1000 -71.97,47.48,1000 -71.98,47.52,1000 -71.99,47.56,1000 -71.99,47.59,1000 -71.99,47.62,1000 -71.98,47.66,1000 -71.98,47.69,1000 -71.97,47.73,1000 -71.96,47.76,1000 -71.95,47.79,1000 -71.94,47.82,1000 -71.93,47.86,1000 -71.92,47.89,1000 -71.90,47.92,1000 -71.88,47.95,1000 -71.86,47.99,1000 -71.83,48.02,1000 -71.81,48.05,1000 -71.78,48.08,1000 -71.74,48.11,1000 -71.70,48.13,1000 -71.66,48.15,1000 -71.62,48.17,1000 -71.58,48.18,1000 -71.54,48.19,1000 -71.49,48.20,1000 -71.45,48.21,1000 -71.34,48.24,1000 
          </coordinates>
        </LinearRing>
      </outerBoundaryIs>
      <innerBoundaryIs>
        <LinearRing>
          <coordinates>
-71.36,48.17,2000 -71.31,48.17,2000 -71.26,48.17,2000 -71.21,48.17,2000 -71.16,48.17,2000 -71.11,48.17,2000 -71.06,48.16,2000 -71.01,48.16,2000 -70.96,48.15,2000 -70.92,48.14,2000 -70.87,48.12,2000 -70.84,48.10,2000 -70.80,48.08,2000 -70.76,48.06,2000 -70.73,48.03,2000 -70.70,48.01,2000 -70.67,47.99,2000 -70.65,47.97,2000 -70.63,47.94,2000 -70.62,47.92,2000 -70.61,47.89,2000 -70.60,47.86,2000 -70.59,47.83,2000 -70.59,47.80,2000 -70.59,47.77,2000 -70.60,47.74,2000 -70.61,47.71,2000 -70.63,47.68,2000 -70.65,47.66,2000 -70.67,47.63,2000 -70.69,47.61,2000 -70.72,47.58,2000 -70.74,47.57,2000 -70.77,47.55,2000 -70.79,47.52,2000 -70.80,47.49,2000 -70.84,47.46,2000 -70.87,47.44,2000 -70.90,47.42,2000 -70.94,47.40,2000 -70.98,47.37,2000 -71.02,47.35,2000 -71.06,47.33,2000 -71.08,47.32,2000 -71.10,47.32,2000 -71.13,47.31,2000 -71.17,47.30,2000 -71.21,47.29,2000 -71.26,47.28,2000 -71.31,47.27,2000 -71.35,47.26,2000 -71.40,47.26,2000 -71.45,47.26,2000 -71.50,47.26,2000 -71.54,47.27,2000 -71.59,47.28,2000 -71.63,47.30,2000 -71.67,47.32,2000 -71.71,47.34,2000 -71.75,47.36,2000 -71.78,47.38,2000 -71.80,47.40,2000 -71.81,47.42,2000 -71.82,47.44,2000 -71.84,47.47,2000 -71.86,47.50,2000 -71.88,47.53,2000 -71.90,47.56,2000 -71.91,47.59,2000 -71.91,47.62,2000 -71.91,47.65,2000 -71.91,47.69,2000 -71.90,47.72,2000 -71.89,47.75,2000 -71.88,47.78,2000 -71.87,47.81,2000 -71.86,47.84,2000 -71.85,47.87,2000 -71.84,47.89,2000 -71.82,47.92,2000 -71.80,47.95,2000 -71.77,47.97,2000 -71.74,47.99,2000 -71.71,48.02,2000 -71.67,48.04,2000 -71.64,48.06,2000 -71.36,48.17,2000 
          </coordinates>
        </LinearRing>
      </innerBoundaryIs>
  </Polygon>
 </MultiGeometry>
</Placemark>
<Placemark>
  <name>5%</name>
  <visibility>1</visibility>
  <styleUrl>#poly_5</styleUrl>
  <MultiGeometry>
    <Polygon>
      <outerBoundaryIs>
        <LinearRing>
          <coordinates>
-70.86,49.09,1000 -70.82,49.09,1000 -70.78,49.08,1000 -70.74,49.08,1000 -70.71,49.07,1000 -70.67,49.07,1000 -70.64,49.06,1000 -70.61,49.05,1000 -70.58,49.04,1000 -70.55,49.02,1000 -70.53,49.00,1000 -70.51,48.99,1000 -70.49,48.97,1000 -70.47,48.95,1000 -70.45,48.94,1000 -70.43,48.93,1000 -70.40,48.91,1000 -70.39,48.90,1000 -70.37,48.88,1000 -70.35,48.86,1000 -70.32,48.84,1000 -70.30,48.82,1000 -70.28,48.80,1000 -70.26,48.78,1000 -70.24,48.76,1000 -70.23,48.74,1000 -70.22,48.72,1000 -70.22,48.69,1000 -70.22,48.67,1000 -70.22,48.64,1000 -70.23,48.62,1000 -70.23,48.60,1000 -70.23,48.59,1000 -70.22,48.57,1000 -70.24,48.56,1000 -70.26,48.55,1000 -70.28,48.54,1000 -70.31,48.53,1000 -70.33,48.51,1000 -70.37,48.50,1000 -70.40,48.48,1000 -70.43,48.47,1000 -70.46,48.46,1000 -70.49,48.45,1000 -70.52,48.44,1000 -70.56,48.44,1000 -70.59,48.44,1000 -70.63,48.44,1000 -70.67,48.45,1000 -70.70,48.46,1000 -70.74,48.47,1000 -70.77,48.48,1000 -70.80,48.49,1000 -70.83,48.51,1000 -70.86,48.52,1000 -70.89,48.54,1000 -70.92,48.56,1000 -70.95,48.57,1000 -70.97,48.59,1000 -70.99,48.60,1000 -71.02,48.62,1000 -71.04,48.63,1000 -71.06,48.65,1000 -71.07,48.67,1000 -71.08,48.69,1000 -71.09,48.71,1000 -71.10,48.73,1000 -71.11,48.75,1000 -71.11,48.78,1000 -71.12,48.80,1000 -71.12,48.83,1000 -71.12,48.85,1000 -71.12,48.87,1000 -71.11,48.89,1000 -71.10,48.91,1000 -71.08,48.93,1000 -71.07,48.95,1000 -71.05,48.97,1000 -71.04,48.99,1000 -71.02,49.01,1000 -70.86,49.09,1000 
          </coordinates>
        </LinearRing>
      </outerBoundaryIs>
      <innerBoundaryIs>
        <LinearRing>
          <coordinates>
-70.92,48.86,2000 -70.90,48.87,2000 -70.88,48.87,2000 -70.86,48.88,2000 -70.84,48.89,2000 -70.82,48.89,2000 -70.80,48.90,2000 -70.78,48.90,2000 -70.76,48.91,2000 -70.74,48.91,2000 -70.72,48.91,2000 -70.70,48.91,2000 -70.69,48.91,2000 -70.67,48.91,2000 -70.65,48.91,2000 -70.63,48.91,2000 -70.62,48.90,2000 -70.60,48.89,2000 -70.58,48.89,2000 -70.57,48.88,2000 -70.55,48.87,2000 -70.53,48.85,2000 -70.52,48.84,2000 -70.50,48.83,2000 -70.49,48.82,2000 -70.47,48.81,2000 -70.46,48.80,2000 -70.45,48.79,2000 -70.44,48.79,2000 -70.43,48.78,2000 -70.41,48.77,2000 -70.41,48.76,2000 -70.41,48.75,2000 -70.41,48.74,2000 -70.40,48.73,2000 -70.40,48.71,2000 -70.40,48.70,2000 -70.40,48.68,2000 -70.40,48.67,2000 -70.40,48.65,2000 -70.40,48.64,2000 -70.40,48.62,2000 -70.40,48.61,2000 -70.40,48.60,2000 -70.40,48.59,2000 -70.41,48.58,2000 -70.42,48.56,2000 -70.43,48.56,2000 -70.44,48.55,2000 -70.46,48.55,2000 -70.49,48.55,2000 -70.50,48.55,2000 -70.52,48.55,2000 -70.54,48.55,2000 -70.56,48.55,2000 -70.58,48.55,2000 -70.60,48.55,2000 -70.62,48.55,2000 -70.65,48.56,2000 -70.67,48.56,2000 -70.69,48.56,2000 -70.71,48.56,2000 -70.72,48.57,2000 -70.74,48.57,2000 -70.76,48.58,2000 -70.78,48.58,2000 -70.79,48.59,2000 -70.80,48.60,2000 -70.82,48.61,2000 -70.83,48.62,2000 -70.84,48.64,2000 -70.85,48.65,2000 -70.86,48.66,2000 -70.87,48.67,2000 -70.88,48.69,2000 -70.88,48.70,2000 -70.89,48.71,2000 -70.90,48.73,2000 -70.91,48.74,2000 -70.92,48.76,2000 -70.92,48.77,2000 -70.93,48.78,2000 -70.94,48.79,2000 -70.94,48.80,2000 -70.95,48.82,2000 -70.95,48.83,2000 -70.95,48.83,2000 -70.92,48.86,2000 
          </coordinates>
        </LinearRing>
      </innerBoundaryIs>
  </Polygon>
 </MultiGeometry>
</Placemark>
<Placemark>
  <name>5%</name>
  <visibility>1</visibility>
  <styleUrl>#poly_5</styleUrl>
  <MultiGeometry>
    <Polygon>
      <outerBoundaryIs>
        <LinearRing>
          <coordinates>
-65.91,49.23,1000 -65.89,49.22,1000 -65.87,49.21,1000 -65.84,49.19,1000 -65.82,49.18,1000 -65.80,49.17,1000 -65.78,49.16,1000 -65.76,49.15,1000 -65.74,49.14,1000 -65.72,49.13,1000 -65.70,49.11,1000 -65.69,49.09,1000 -65.67,49.08,1000 -65.65,49.06,1000 -65.64,49.04,1000 -65.63,49.01,1000 -65.62,48.99,1000 -65.61,48.97,1000 -65.61,48.95,1000 -65.61,48.93,1000 -65.61,48.91,1000 -65.61,48.89,1000 -65.62,48.87,1000 -65.63,48.85,1000 -65.64,48.83,1000 -65.65,48.81,1000 -65.67,48.79,1000 -65.69,48.78,1000 -65.71,48.76,1000 -65.74,48.75,1000 -65.76,48.73,1000 -65.79,48.72,1000 -65.81,48.71,1000 -65.83,48.70,1000 -65.86,48.69,1000 -65.88,48.68,1000 -65.91,48.68,1000 -65.93,48.67,1000 -65.96,48.67,1000 -65.98,48.66,1000 -66.01,48.65,1000 -66.05,48.65,1000 -66.08,48.64,1000 -66.11,48.64,1000 -66.14,48.64,1000 -66.17,48.64,1000 -66.20,48.64,1000 -66.23,48.64,1000 -66.26,48.65,1000 -66.30,48.65,1000 -66.33,48.65,1000 -66.36,48.66,1000 -66.39,48.67,1000 -66.42,48.67,1000 -66.46,48.68,1000 -66.49,48.69,1000 -66.52,48.70,1000 -66.55,48.71,1000 -66.58,48.72,1000 -66.60,48.73,1000 -66.63,48.74,1000 -66.65,48.75,1000 -66.66,48.76,1000 -66.67,48.78,1000 -66.67,48.80,1000 -66.67,48.82,1000 -66.68,48.84,1000 -66.67,48.86,1000 -66.67,48.89,1000 -66.67,48.91,1000 -66.66,48.93,1000 -66.65,48.95,1000 -66.63,48.97,1000 -66.61,48.98,1000 -66.58,49.00,1000 -66.56,49.01,1000 -66.53,49.02,1000 -66.51,49.03,1000 -66.49,49.04,1000 -66.48,49.06,1000 -66.48,49.07,1000 -66.45,49.09,1000 -66.43,49.10,1000 -66.41,49.11,1000 -66.38,49.12,1000 -66.35,49.14,1000 -66.32,49.15,1000 -66.29,49.17,1000 -66.26,49.18,1000 -66.23,49.19,1000 -66.20,49.20,1000 -66.18,49.21,1000 -66.13,49.22,1000 -66.11,49.22,1000 -66.09,49.21,1000 -65.91,49.23,1000 
          </coordinates>
        </LinearRing>
      </outerBoundaryIs>
      <innerBoundaryIs>
        <LinearRing>
          <coordinates>
-66.21,49.12,2000 -66.19,49.13,2000 -66.16,49.13,2000 -66.14,49.14,2000 -66.11,49.14,2000 -66.09,49.15,2000 -66.07,49.15,2000 -66.05,49.16,2000 -66.02,49.16,2000 -66.00,49.16,2000 -65.98,49.16,2000 -65.96,49.15,2000 -65.94,49.15,2000 -65.92,49.14,2000 -65.91,49.14,2000 -65.89,49.13,2000 -65.87,49.12,2000 -65.85,49.11,2000 -65.84,49.09,2000 -65.82,49.08,2000 -65.80,49.07,2000 -65.79,49.05,2000 -65.78,49.04,2000 -65.76,49.03,2000 -65.75,49.01,2000 -65.75,49.00,2000 -65.74,48.99,2000 -65.73,48.98,2000 -65.73,48.96,2000 -65.73,48.94,2000 -65.73,48.93,2000 -65.73,48.91,2000 -65.74,48.90,2000 -65.74,48.88,2000 -65.75,48.87,2000 -65.76,48.86,2000 -65.78,48.84,2000 -65.79,48.83,2000 -65.80,48.82,2000 -65.82,48.81,2000 -65.84,48.80,2000 -65.86,48.79,2000 -65.88,48.78,2000 -65.90,48.78,2000 -65.92,48.77,2000 -65.95,48.76,2000 -65.97,48.75,2000 -65.99,48.75,2000 -66.02,48.74,2000 -66.04,48.74,2000 -66.06,48.73,2000 -66.08,48.73,2000 -66.10,48.73,2000 -66.13,48.73,2000 -66.15,48.73,2000 -66.18,48.73,2000 -66.20,48.73,2000 -66.22,48.74,2000 -66.24,48.74,2000 -66.26,48.75,2000 -66.28,48.75,2000 -66.30,48.76,2000 -66.32,48.77,2000 -66.34,48.78,2000 -66.35,48.79,2000 -66.37,48.80,2000 -66.38,48.81,2000 -66.40,48.82,2000 -66.41,48.84,2000 -66.43,48.85,2000 -66.44,48.87,2000 -66.45,48.88,2000 -66.45,48.89,2000 -66.46,48.91,2000 -66.46,48.92,2000 -66.46,48.93,2000 -66.45,48.94,2000 -66.45,48.96,2000 -66.44,48.97,2000 -66.43,48.98,2000 -66.42,49.00,2000 -66.40,49.01,2000 -66.39,49.02,2000 -66.37,49.03,2000 -66.35,49.05,2000 -66.34,49.06,2000 -66.32,49.07,2000 -66.21,49.12,2000 
          </coordinates>
        </LinearRing>
      </innerBoundaryIs>
  </Polygon>
 </MultiGeometry>
</Placemark>
<Placemark>
  <name>10%</name>
  <visibility>1</visibility>
  <styleUrl>#poly_10</styleUrl>
  <MultiGeometry>
    <Polygon>
      <outerBoundaryIs>
        <LinearRing>
          <coordinates>
-66.21,49.12,2000 -66.19,49.13,2000 -66.16,49.13,2000 -66.14,49.14,2000 -66.11,49.14,2000 -66.09,49.15,2000 -66.07,49.15,2000 -66.05,49.16,2000 -66.02,49.16,2000 -66.00,49.16,2000 -65.98,49.16,2000 -65.96,49.15,2000 -65.94,49.15,2000 -65.92,49.14,2000 -65.91,49.14,2000 -65.89,49.13,2000 -65.87,49.12,2000 -65.85,49.11,2000 -65.84,49.09,2000 -65.82,49.08,2000 -65.80,49.07,2000 -65.79,49.05,2000 -65.78,49.04,2000 -65.76,49.03,2000 -65.75,49.01,2000 -65.75,49.00,2000 -65.74,48.99,2000 -65.73,48.98,2000 -65.73,48.96,2000 -65.73,48.94,2000 -65.73,48.93,2000 -65.73,48.91,2000 -65.74,48.90,2000 -65.74,48.88,2000 -65.75,48.87,2000 -65.76,48.86,2000 -65.78,48.84,2000 -65.79,48.83,2000 -65.80,48.82,2000 -65.82,48.81,2000 -65.84,48.80,2000 -65.86,48.79,2000 -65.88,48.78,2000 -65.90,48.78,2000 -65.92,48.77,2000 -65.95,48.76,2000 -65.97,48.75,2000 -65.99,48.75,2000 -66.02,48.74,2000 -66.04,48.74,2000 -66.06,48.73,2000 -66.08,48.73,2000 -66.10,48.73,2000 -66.13,48.73,2000 -66.15,48.73,2000 -66.18,48.73,2000 -66.20,48.73,2000 -66.22,48.74,2000 -66.24,48.74,2000 -66.26,48.75,2000 -66.28,48.75,2000 -66.30,48.76,2000 -66.32,48.77,2000 -66.34,48.78,2000 -66.35,48.79,2000 -66.37,48.80,2000 -66.38,48.81,2000 -66.40,48.82,2000 -66.41,48.84,2000 -66.43,48.85,2000 -66.44,48.87,2000 -66.45,48.88,2000 -66.45,48.89,2000 -66.46,48.91,2000 -66.46,48.92,2000 -66.46,48.93,2000 -66.45,48.94,2000 -66.45,48.96,2000 -66.44,48.97,2000 -66.43,48.98,2000 -66.42,49.00,2000 -66.40,49.01,2000 -66.39,49.02,2000 -66.37,49.03,2000 -66.35,49.05,2000 -66.34,49.06,2000 -66.32,49.07,2000 -66.21,49.12,2000 
          </coordinates>
        </LinearRing>
      </outerBoundaryIs>
  </Polygon>
 </MultiGeometry>
</Placemark>
<Placemark>
  <name>10%</name>
  <visibility>1</visibility>
  <styleUrl>#poly_10</styleUrl>
  <MultiGeometry>
    <Polygon>
      <outerBoundaryIs>
        <LinearRing>
          <coordinates>
-70.92,48.86,2000 -70.90,48.87,2000 -70.88,48.87,2000 -70.86,48.88,2000 -70.84,48.89,2000 -70.82,48.89,2000 -70.80,48.90,2000 -70.78,48.90,2000 -70.76,48.91,2000 -70.74,48.91,2000 -70.72,48.91,2000 -70.70,48.91,2000 -70.69,48.91,2000 -70.67,48.91,2000 -70.65,48.91,2000 -70.63,48.91,2000 -70.62,48.90,2000 -70.60,48.89,2000 -70.58,48.89,2000 -70.57,48.88,2000 -70.55,48.87,2000 -70.53,48.85,2000 -70.52,48.84,2000 -70.50,48.83,2000 -70.49,48.82,2000 -70.47,48.81,2000 -70.46,48.80,2000 -70.45,48.79,2000 -70.44,48.79,2000 -70.43,48.78,2000 -70.41,48.77,2000 -70.41,48.76,2000 -70.41,48.75,2000 -70.41,48.74,2000 -70.40,48.73,2000 -70.40,48.71,2000 -70.40,48.70,2000 -70.40,48.68,2000 -70.40,48.67,2000 -70.40,48.65,2000 -70.40,48.64,2000 -70.40,48.62,2000 -70.40,48.61,2000 -70.40,48.60,2000 -70.40,48.59,2000 -70.41,48.58,2000 -70.42,48.56,2000 -70.43,48.56,2000 -70.44,48.55,2000 -70.46,48.55,2000 -70.49,48.55,2000 -70.50,48.55,2000 -70.52,48.55,2000 -70.54,48.55,2000 -70.56,48.55,2000 -70.58,48.55,2000 -70.60,48.55,2000 -70.62,48.55,2000 -70.65,48.56,2000 -70.67,48.56,2000 -70.69,48.56,2000 -70.71,48.56,2000 -70.72,48.57,2000 -70.74,48.57,2000 -70.76,48.58,2000 -70.78,48.58,2000 -70.79,48.59,2000 -70.80,48.60,2000 -70.82,48.61,2000 -70.83,48.62,2000 -70.84,48.64,2000 -70.85,48.65,2000 -70.86,48.66,2000 -70.87,48.67,2000 -70.88,48.69,2000 -70.88,48.70,2000 -70.89,48.71,2000 -70.90,48.73,2000 -70.91,48.74,2000 -70.92,48.76,2000 -70.92,48.77,2000 -70.93,48.78,2000 -70.94,48.79,2000 -70.94,48.80,2000 -70.95,48.82,2000 -70.95,48.83,2000 -70.95,48.83,2000 -70.92,48.86,2000 
          </coordinates>
        </LinearRing>
      </outerBoundaryIs>
  </Polygon>
 </MultiGeometry>
</Placemark>
<Placemark>
  <name>10%</name>
  <visibility>1</visibility>
  <styleUrl>#poly_10</styleUrl>
  <MultiGeometry>
    <Polygon>
      <outerBoundaryIs>
        <LinearRing>
          <coordinates>
-71.36,48.17,2000 -71.31,48.17,2000 -71.26,48.17,2000 -71.21,48.17,2000 -71.16,48.17,2000 -71.11,48.17,2000 -71.06,48.16,2000 -71.01,48.16,2000 -70.96,48.15,2000 -70.92,48.14,2000 -70.87,48.12,2000 -70.84,48.10,2000 -70.80,48.08,2000 -70.76,48.06,2000 -70.73,48.03,2000 -70.70,48.01,2000 -70.67,47.99,2000 -70.65,47.97,2000 -70.63,47.94,2000 -70.62,47.92,2000 -70.61,47.89,2000 -70.60,47.86,2000 -70.59,47.83,2000 -70.59,47.80,2000 -70.59,47.77,2000 -70.60,47.74,2000 -70.61,47.71,2000 -70.63,47.68,2000 -70.65,47.66,2000 -70.67,47.63,2000 -70.69,47.61,2000 -70.72,47.58,2000 -70.74,47.57,2000 -70.77,47.55,2000 -70.79,47.52,2000 -70.80,47.49,2000 -70.84,47.46,2000 -70.87,47.44,2000 -70.90,47.42,2000 -70.94,47.40,2000 -70.98,47.37,2000 -71.02,47.35,2000 -71.06,47.33,2000 -71.08,47.32,2000 -71.10,47.32,2000 -71.13,47.31,2000 -71.17,47.30,2000 -71.21,47.29,2000 -71.26,47.28,2000 -71.31,47.27,2000 -71.35,47.26,2000 -71.40,47.26,2000 -71.45,47.26,2000 -71.50,47.26,2000 -71.54,47.27,2000 -71.59,47.28,2000 -71.63,47.30,2000 -71.67,47.32,2000 -71.71,47.34,2000 -71.75,47.36,2000 -71.78,47.38,2000 -71.80,47.40,2000 -71.81,47.42,2000 -71.82,47.44,2000 -71.84,47.47,2000 -71.86,47.50,2000 -71.88,47.53,2000 -71.90,47.56,2000 -71.91,47.59,2000 -71.91,47.62,2000 -71.91,47.65,2000 -71.91,47.69,2000 -71.90,47.72,2000 -71.89,47.75,2000 -71.88,47.78,2000 -71.87,47.81,2000 -71.86,47.84,2000 -71.85,47.87,2000 -71.84,47.89,2000 -71.82,47.92,2000 -71.80,47.95,2000 -71.77,47.97,2000 -71.74,47.99,2000 -71.71,48.02,2000 -71.67,48.04,2000 -71.64,48.06,2000 -71.36,48.17,2000 
          </coordinates>
        </LinearRing>
      </outerBoundaryIs>
      <innerBoundaryIs>
        <LinearRing>
          <coordinates>
-71.38,48.09,3000 -71.34,48.10,3000 -71.30,48.10,3000 -71.27,48.11,3000 -71.23,48.11,3000 -71.19,48.11,3000 -71.16,48.11,3000 -71.12,48.11,3000 -71.08,48.10,3000 -71.04,48.09,3000 -70.99,48.08,3000 -70.96,48.07,3000 -70.92,48.05,3000 -70.89,48.04,3000 -70.86,48.02,3000 -70.83,48.01,3000 -70.82,47.99,3000 -70.80,47.96,3000 -70.79,47.94,3000 -70.78,47.92,3000 -70.76,47.89,3000 -70.75,47.87,3000 -70.75,47.84,3000 -70.74,47.81,3000 -70.74,47.79,3000 -70.74,47.76,3000 -70.75,47.74,3000 -70.77,47.71,3000 -70.78,47.68,3000 -70.80,47.66,3000 -70.82,47.63,3000 -70.84,47.61,3000 -70.86,47.58,3000 -70.89,47.56,3000 -70.91,47.54,3000 -70.94,47.51,3000 -70.96,47.50,3000 -70.98,47.48,3000 -71.00,47.46,3000 -71.02,47.45,3000 -71.05,47.44,3000 -71.07,47.43,3000 -71.10,47.42,3000 -71.14,47.41,3000 -71.17,47.40,3000 -71.21,47.38,3000 -71.25,47.37,3000 -71.29,47.37,3000 -71.32,47.36,3000 -71.36,47.36,3000 -71.39,47.36,3000 -71.43,47.36,3000 -71.47,47.36,3000 -71.50,47.37,3000 -71.54,47.38,3000 -71.57,47.39,3000 -71.60,47.41,3000 -71.62,47.43,3000 -71.65,47.45,3000 -71.68,47.48,3000 -71.70,47.50,3000 -71.72,47.53,3000 -71.74,47.55,3000 -71.75,47.57,3000 -71.76,47.60,3000 -71.76,47.61,3000 -71.75,47.63,3000 -71.75,47.65,3000 -71.76,47.68,3000 -71.76,47.71,3000 -71.76,47.74,3000 -71.75,47.76,3000 -71.74,47.79,3000 -71.72,47.81,3000 -71.71,47.83,3000 -71.70,47.85,3000 -71.70,47.87,3000 -71.68,47.90,3000 -71.66,47.92,3000 -71.64,47.93,3000 -71.62,47.95,3000 -71.59,47.98,3000 -71.56,48.00,3000 -71.52,48.03,3000 -71.49,48.05,3000 -71.38,48.09,3000 
          </coordinates>
        </LinearRing>
      </innerBoundaryIs>
  </Polygon>
 </MultiGeometry>
</Placemark>
<Placemark>
  <name>20%</name>
  <visibility>1</visibility>
  <styleUrl>#poly_20</styleUrl>
  <MultiGeometry>
    <Polygon>
      <outerBoundaryIs>
        <LinearRing>
          <coordinates>
-71.38,48.09,3000 -71.34,48.10,3000 -71.30,48.10,3000 -71.27,48.11,3000 -71.23,48.11,3000 -71.19,48.11,3000 -71.16,48.11,3000 -71.12,48.11,3000 -71.08,48.10,3000 -71.04,48.09,3000 -70.99,48.08,3000 -70.96,48.07,3000 -70.92,48.05,3000 -70.89,48.04,3000 -70.86,48.02,3000 -70.83,48.01,3000 -70.82,47.99,3000 -70.80,47.96,3000 -70.79,47.94,3000 -70.78,47.92,3000 -70.76,47.89,3000 -70.75,47.87,3000 -70.75,47.84,3000 -70.74,47.81,3000 -70.74,47.79,3000 -70.74,47.76,3000 -70.75,47.74,3000 -70.77,47.71,3000 -70.78,47.68,3000 -70.80,47.66,3000 -70.82,47.63,3000 -70.84,47.61,3000 -70.86,47.58,3000 -70.89,47.56,3000 -70.91,47.54,3000 -70.94,47.51,3000 -70.96,47.50,3000 -70.98,47.48,3000 -71.00,47.46,3000 -71.02,47.45,3000 -71.05,47.44,3000 -71.07,47.43,3000 -71.10,47.42,3000 -71.14,47.41,3000 -71.17,47.40,3000 -71.21,47.38,3000 -71.25,47.37,3000 -71.29,47.37,3000 -71.32,47.36,3000 -71.36,47.36,3000 -71.39,47.36,3000 -71.43,47.36,3000 -71.47,47.36,3000 -71.50,47.37,3000 -71.54,47.38,3000 -71.57,47.39,3000 -71.60,47.41,3000 -71.62,47.43,3000 -71.65,47.45,3000 -71.68,47.48,3000 -71.70,47.50,3000 -71.72,47.53,3000 -71.74,47.55,3000 -71.75,47.57,3000 -71.76,47.60,3000 -71.76,47.61,3000 -71.75,47.63,3000 -71.75,47.65,3000 -71.76,47.68,3000 -71.76,47.71,3000 -71.76,47.74,3000 -71.75,47.76,3000 -71.74,47.79,3000 -71.72,47.81,3000 -71.71,47.83,3000 -71.70,47.85,3000 -71.70,47.87,3000 -71.68,47.90,3000 -71.66,47.92,3000 -71.64,47.93,3000 -71.62,47.95,3000 -71.59,47.98,3000 -71.56,48.00,3000 -71.52,48.03,3000 -71.49,48.05,3000 -71.38,48.09,3000 
          </coordinates>
        </LinearRing>
      </outerBoundaryIs>
      <innerBoundaryIs>
        <LinearRing>
          <coordinates>
-71.14,48.04,4000 -71.11,48.03,4000 -71.07,48.02,4000 -71.04,48.01,4000 -71.01,48.00,4000 -70.99,47.99,4000 -70.96,47.98,4000 -70.93,47.97,4000 -70.91,47.95,4000 -70.90,47.93,4000 -70.88,47.92,4000 -70.87,47.89,4000 -70.85,47.87,4000 -70.84,47.85,4000 -70.83,47.82,4000 -70.83,47.80,4000 -70.83,47.78,4000 -70.84,47.76,4000 -70.85,47.74,4000 -70.86,47.72,4000 -70.87,47.70,4000 -70.88,47.68,4000 -70.90,47.66,4000 -70.91,47.64,4000 -70.93,47.62,4000 -70.94,47.60,4000 -70.96,47.59,4000 -70.98,47.58,4000 -71.00,47.56,4000 -71.02,47.55,4000 -71.04,47.54,4000 -71.06,47.52,4000 -71.08,47.51,4000 -71.10,47.50,4000 -71.13,47.49,4000 -71.15,47.48,4000 -71.18,47.47,4000 -71.21,47.45,4000 -71.24,47.44,4000 -71.27,47.43,4000 -71.30,47.43,4000 -71.33,47.43,4000 -71.36,47.43,4000 -71.39,47.44,4000 -71.42,47.44,4000 -71.46,47.45,4000 -71.49,47.45,4000 -71.52,47.46,4000 -71.54,47.47,4000 -71.57,47.48,4000 -71.59,47.49,4000 -71.61,47.51,4000 -71.62,47.53,4000 -71.63,47.55,4000 -71.64,47.57,4000 -71.64,47.59,4000 -71.65,47.61,4000 -71.66,47.63,4000 -71.66,47.66,4000 -71.66,47.68,4000 -71.66,47.71,4000 -71.66,47.73,4000 -71.66,47.75,4000 -71.65,47.77,4000 -71.64,47.79,4000 -71.63,47.81,4000 -71.62,47.83,4000 -71.61,47.85,4000 -71.60,47.87,4000 -71.58,47.89,4000 -71.56,47.91,4000 -71.54,47.93,4000 -71.51,47.95,4000 -71.48,47.96,4000 -71.46,47.98,4000 -71.43,47.99,4000 -71.41,48.00,4000 -71.38,48.01,4000 -71.35,48.02,4000 -71.32,48.02,4000 -71.30,48.02,4000 -71.14,48.04,4000 
          </coordinates>
        </LinearRing>
      </innerBoundaryIs>
  </Polygon>
 </MultiGeometry>
</Placemark>
<Placemark>
  <name>30%</name>
  <visibility>1</visibility>
  <styleUrl>#poly_30</styleUrl>
  <MultiGeometry>
    <Polygon>
      <outerBoundaryIs>
        <LinearRing>
          <coordinates>
-71.14,48.04,4000 -71.11,48.03,4000 -71.07,48.02,4000 -71.04,48.01,4000 -71.01,48.00,4000 -70.99,47.99,4000 -70.96,47.98,4000 -70.93,47.97,4000 -70.91,47.95,4000 -70.90,47.93,4000 -70.88,47.92,4000 -70.87,47.89,4000 -70.85,47.87,4000 -70.84,47.85,4000 -70.83,47.82,4000 -70.83,47.80,4000 -70.83,47.78,4000 -70.84,47.76,4000 -70.85,47.74,4000 -70.86,47.72,4000 -70.87,47.70,4000 -70.88,47.68,4000 -70.90,47.66,4000 -70.91,47.64,4000 -70.93,47.62,4000 -70.94,47.60,4000 -70.96,47.59,4000 -70.98,47.58,4000 -71.00,47.56,4000 -71.02,47.55,4000 -71.04,47.54,4000 -71.06,47.52,4000 -71.08,47.51,4000 -71.10,47.50,4000 -71.13,47.49,4000 -71.15,47.48,4000 -71.18,47.47,4000 -71.21,47.45,4000 -71.24,47.44,4000 -71.27,47.43,4000 -71.30,47.43,4000 -71.33,47.43,4000 -71.36,47.43,4000 -71.39,47.44,4000 -71.42,47.44,4000 -71.46,47.45,4000 -71.49,47.45,4000 -71.52,47.46,4000 -71.54,47.47,4000 -71.57,47.48,4000 -71.59,47.49,4000 -71.61,47.51,4000 -71.62,47.53,4000 -71.63,47.55,4000 -71.64,47.57,4000 -71.64,47.59,4000 -71.65,47.61,4000 -71.66,47.63,4000 -71.66,47.66,4000 -71.66,47.68,4000 -71.66,47.71,4000 -71.66,47.73,4000 -71.66,47.75,4000 -71.65,47.77,4000 -71.64,47.79,4000 -71.63,47.81,4000 -71.62,47.83,4000 -71.61,47.85,4000 -71.60,47.87,4000 -71.58,47.89,4000 -71.56,47.91,4000 -71.54,47.93,4000 -71.51,47.95,4000 -71.48,47.96,4000 -71.46,47.98,4000 -71.43,47.99,4000 -71.41,48.00,4000 -71.38,48.01,4000 -71.35,48.02,4000 -71.32,48.02,4000 -71.30,48.02,4000 -71.14,48.04,4000 
          </coordinates>
        </LinearRing>
      </outerBoundaryIs>
      <innerBoundaryIs>
        <LinearRing>
          <coordinates>
-71.43,47.92,5000 -71.40,47.93,5000 -71.38,47.94,5000 -71.35,47.95,5000 -71.33,47.96,5000 -71.30,47.97,5000 -71.28,47.97,5000 -71.25,47.98,5000 -71.23,47.98,5000 -71.21,47.98,5000 -71.18,47.98,5000 -71.16,47.98,5000 -71.14,47.97,5000 -71.12,47.97,5000 -71.10,47.96,5000 -71.08,47.94,5000 -71.05,47.93,5000 -71.03,47.92,5000 -71.01,47.90,5000 -71.00,47.89,5000 -70.98,47.87,5000 -70.96,47.86,5000 -70.95,47.85,5000 -70.94,47.84,5000 -70.91,47.82,5000 -70.92,47.81,5000 -70.92,47.80,5000 -70.93,47.78,5000 -70.94,47.77,5000 -70.95,47.75,5000 -70.96,47.73,5000 -70.97,47.72,5000 -70.97,47.70,5000 -70.98,47.69,5000 -70.98,47.67,5000 -70.98,47.67,5000 -71.01,47.65,5000 -71.02,47.64,5000 -71.04,47.63,5000 -71.06,47.62,5000 -71.08,47.61,5000 -71.10,47.60,5000 -71.13,47.58,5000 -71.15,47.57,5000 -71.18,47.56,5000 -71.20,47.55,5000 -71.22,47.53,5000 -71.24,47.52,5000 -71.26,47.52,5000 -71.27,47.51,5000 -71.28,47.51,5000 -71.29,47.51,5000 -71.31,47.51,5000 -71.34,47.52,5000 -71.36,47.52,5000 -71.38,47.53,5000 -71.40,47.53,5000 -71.43,47.54,5000 -71.46,47.54,5000 -71.48,47.55,5000 -71.50,47.56,5000 -71.52,47.57,5000 -71.53,47.58,5000 -71.54,47.60,5000 -71.55,47.61,5000 -71.56,47.63,5000 -71.56,47.65,5000 -71.57,47.67,5000 -71.57,47.68,5000 -71.57,47.70,5000 -71.57,47.72,5000 -71.57,47.74,5000 -71.56,47.75,5000 -71.56,47.77,5000 -71.55,47.78,5000 -71.54,47.80,5000 -71.53,47.82,5000 -71.52,47.83,5000 -71.51,47.85,5000 -71.50,47.86,5000 -71.49,47.88,5000 -71.43,47.92,5000 
          </coordinates>
        </LinearRing>
      </innerBoundaryIs>
  </Polygon>
 </MultiGeometry>
</Placemark>
<Placemark>
  <name>40%</name>
  <visibility>1</visibility>
  <styleUrl>#poly_40</styleUrl>
  <MultiGeometry>
    <Polygon>
      <outerBoundaryIs>
        <LinearRing>
          <coordinates>
-71.43,47.92,5000 -71.40,47.93,5000 -71.38,47.94,5000 -71.35,47.95,5000 -71.33,47.96,5000 -71.30,47.97,5000 -71.28,47.97,5000 -71.25,47.98,5000 -71.23,47.98,5000 -71.21,47.98,5000 -71.18,47.98,5000 -71.16,47.98,5000 -71.14,47.97,5000 -71.12,47.97,5000 -71.10,47.96,5000 -71.08,47.94,5000 -71.05,47.93,5000 -71.03,47.92,5000 -71.01,47.90,5000 -71.00,47.89,5000 -70.98,47.87,5000 -70.96,47.86,5000 -70.95,47.85,5000 -70.94,47.84,5000 -70.91,47.82,5000 -70.92,47.81,5000 -70.92,47.80,5000 -70.93,47.78,5000 -70.94,47.77,5000 -70.95,47.75,5000 -70.96,47.73,5000 -70.97,47.72,5000 -70.97,47.70,5000 -70.98,47.69,5000 -70.98,47.67,5000 -70.98,47.67,5000 -71.01,47.65,5000 -71.02,47.64,5000 -71.04,47.63,5000 -71.06,47.62,5000 -71.08,47.61,5000 -71.10,47.60,5000 -71.13,47.58,5000 -71.15,47.57,5000 -71.18,47.56,5000 -71.20,47.55,5000 -71.22,47.53,5000 -71.24,47.52,5000 -71.26,47.52,5000 -71.27,47.51,5000 -71.28,47.51,5000 -71.29,47.51,5000 -71.31,47.51,5000 -71.34,47.52,5000 -71.36,47.52,5000 -71.38,47.53,5000 -71.40,47.53,5000 -71.43,47.54,5000 -71.46,47.54,5000 -71.48,47.55,5000 -71.50,47.56,5000 -71.52,47.57,5000 -71.53,47.58,5000 -71.54,47.60,5000 -71.55,47.61,5000 -71.56,47.63,5000 -71.56,47.65,5000 -71.57,47.67,5000 -71.57,47.68,5000 -71.57,47.70,5000 -71.57,47.72,5000 -71.57,47.74,5000 -71.56,47.75,5000 -71.56,47.77,5000 -71.55,47.78,5000 -71.54,47.80,5000 -71.53,47.82,5000 -71.52,47.83,5000 -71.51,47.85,5000 -71.50,47.86,5000 -71.49,47.88,5000 -71.43,47.92,5000 
          </coordinates>
        </LinearRing>
      </outerBoundaryIs>
      <innerBoundaryIs>
        <LinearRing>
          <coordinates>
-71.18,47.90,6000 -71.16,47.90,6000 -71.15,47.89,6000 -71.13,47.89,6000 -71.12,47.88,6000 -71.10,47.87,6000 -71.09,47.87,6000 -71.08,47.86,6000 -71.07,47.85,6000 -71.06,47.84,6000 -71.06,47.83,6000 -71.06,47.82,6000 -71.06,47.81,6000 -71.06,47.80,6000 -71.06,47.79,6000 -71.07,47.78,6000 -71.07,47.77,6000 -71.07,47.76,6000 -71.08,47.74,6000 -71.09,47.73,6000 -71.09,47.72,6000 -71.10,47.71,6000 -71.10,47.70,6000 -71.11,47.69,6000 -71.12,47.68,6000 -71.12,47.67,6000 -71.13,47.66,6000 -71.14,47.65,6000 -71.15,47.64,6000 -71.16,47.63,6000 -71.17,47.62,6000 -71.19,47.61,6000 -71.20,47.61,6000 -71.21,47.60,6000 -71.23,47.60,6000 -71.24,47.60,6000 -71.26,47.60,6000 -71.27,47.60,6000 -71.29,47.60,6000 -71.30,47.61,6000 -71.32,47.61,6000 -71.33,47.62,6000 -71.35,47.62,6000 -71.37,47.63,6000 -71.39,47.64,6000 -71.40,47.64,6000 -71.42,47.65,6000 -71.43,47.66,6000 -71.45,47.67,6000 -71.46,47.68,6000 -71.47,47.68,6000 -71.48,47.69,6000 -71.48,47.70,6000 -71.48,47.71,6000 -71.48,47.72,6000 -71.48,47.72,6000 -71.48,47.73,6000 -71.47,47.74,6000 -71.47,47.75,6000 -71.46,47.76,6000 -71.45,47.77,6000 -71.44,47.78,6000 -71.43,47.79,6000 -71.42,47.80,6000 -71.41,47.81,6000 -71.40,47.82,6000 -71.39,47.83,6000 -71.38,47.84,6000 -71.36,47.85,6000 -71.35,47.86,6000 -71.18,47.90,6000 
          </coordinates>
        </LinearRing>
      </innerBoundaryIs>
  </Polygon>
 </MultiGeometry>
</Placemark>
<Placemark>
  <name>50%</name>
  <visibility>1</visibility>
  <styleUrl>#poly_50</styleUrl>
  <MultiGeometry>
    <Polygon>
      <outerBoundaryIs>
        <LinearRing>
          <coordinates>
-71.18,47.90,6000 -71.16,47.90,6000 -71.15,47.89,6000 -71.13,47.89,6000 -71.12,47.88,6000 -71.10,47.87,6000 -71.09,47.87,6000 -71.08,47.86,6000 -71.07,47.85,6000 -71.06,47.84,6000 -71.06,47.83,6000 -71.06,47.82,6000 -71.06,47.81,6000 -71.06,47.80,6000 -71.06,47.79,6000 -71.07,47.78,6000 -71.07,47.77,6000 -71.07,47.76,6000 -71.08,47.74,6000 -71.09,47.73,6000 -71.09,47.72,6000 -71.10,47.71,6000 -71.10,47.70,6000 -71.11,47.69,6000 -71.12,47.68,6000 -71.12,47.67,6000 -71.13,47.66,6000 -71.14,47.65,6000 -71.15,47.64,6000 -71.16,47.63,6000 -71.17,47.62,6000 -71.19,47.61,6000 -71.20,47.61,6000 -71.21,47.60,6000 -71.23,47.60,6000 -71.24,47.60,6000 -71.26,47.60,6000 -71.27,47.60,6000 -71.29,47.60,6000 -71.30,47.61,6000 -71.32,47.61,6000 -71.33,47.62,6000 -71.35,47.62,6000 -71.37,47.63,6000 -71.39,47.64,6000 -71.40,47.64,6000 -71.42,47.65,6000 -71.43,47.66,6000 -71.45,47.67,6000 -71.46,47.68,6000 -71.47,47.68,6000 -71.48,47.69,6000 -71.48,47.70,6000 -71.48,47.71,6000 -71.48,47.72,6000 -71.48,47.72,6000 -71.48,47.73,6000 -71.47,47.74,6000 -71.47,47.75,6000 -71.46,47.76,6000 -71.45,47.77,6000 -71.44,47.78,6000 -71.43,47.79,6000 -71.42,47.80,6000 -71.41,47.81,6000 -71.40,47.82,6000 -71.39,47.83,6000 -71.38,47.84,6000 -71.36,47.85,6000 -71.35,47.86,6000 -71.18,47.90,6000 
          </coordinates>
        </LinearRing>
      </outerBoundaryIs>
  </Polygon>
 </MultiGeometry>
</Placemark>
    </Folder>
  </Document>
</kml>
