<?xml version="1.0" encoding="UTF-8"?>
<kml xmlns="http://www.opengis.net/kml/2.2">
<Document id="prb_72hsnow_ge02_f072">
<name>WPC 72-Hr Prob of Snow > 2"</name>
  <open>1</open>
  <snippet>Valid 12Z 06/12/2026 - 12Z 06/15/2026</snippet>
  <description></description>
    <Style id="poly_1">
        <IconStyle>
           <color>00000000</color>
           <scale>1</scale>
        </IconStyle>
        <LabelStyle>
            <color>ff26478b</color>
            <scale>0.8</scale>
        </LabelStyle>
        <LineStyle>
            <color>6626478b</color>
            <width>0</width>
        </LineStyle>
	<PolyStyle>
            <color>6626478b</color>
	</PolyStyle>
        <BalloonStyle>
            <text>
                <![CDATA[ <table border=0 width="300"><tr><td style="font-size:10pt;">
                During this forecast period, there is a <b>1-5%</b> probability of snowfall exceeding the depicted amount in the enclosed area.
                <br/><br/>
                *<span style="font-size:8pt;">Note that in cases where this contour is embedded within a 5% contour, 
                the probability of snowfall exceeding the depicted amount is &lt;1%.</span>
                </td></tr></table>]]>
            </text>
        </BalloonStyle>
    </Style>

    <Style id="poly_5">
        <IconStyle>
           <color>00000000</color>
           <scale>1</scale>
        </IconStyle>
        <LabelStyle>
            <color>ff00eeee</color>
            <scale>0.8</scale>
        </LabelStyle>
        <LineStyle>
            <color>6600eeee</color>
            <width>0.4</width>
        </LineStyle>
	<PolyStyle>
	    <color>6600eeee</color>
	</PolyStyle>
        <BalloonStyle>
            <text>
                <![CDATA[ <table border=0 width="300"><tr><td style="font-size:10pt;">
                During this forecast period, there is a <b>5-10%</b> probability of snowfall exceeding the depicted amount in the enclosed area.
                <br/><br/>
                *<span style="font-size:8pt;">Note that in cases where this contour is embedded within a 10% contour, 
                the probability of snowfall exceeding the depicted amount is &lt;5%.</span>
                </td></tr></table>]]>
            </text>
        </BalloonStyle>
    </Style>

    <Style id="poly_10">
        <IconStyle>
           <color>00000000</color>
           <scale>1</scale>
        </IconStyle>
        <LabelStyle>
            <color>ff00ff7f</color>
            <scale>0.8</scale>
        </LabelStyle>
        <LineStyle>
            <color>6600ff7f</color>
            <width>0.4</width>
        </LineStyle>
	<PolyStyle>
	    <color>6600ff7f</color>
	</PolyStyle>
        <BalloonStyle>
            <text>
                <![CDATA[ <table border=0 width="300"><tr><td style="font-size:10pt;">
                During this forecast period, there is a <b>10-20%</b> probability of snowfall exceeding the depicted amount in the enclosed area.
                <br/><br/>
                *<span style="font-size:8pt;">Note that in cases where this contour is embedded within a 20% contour, 
                the probability of snowfall exceeding the depicted amount is &lt;10%.</span>
                </td></tr></table>]]>
            </text>
        </BalloonStyle>
    </Style>
    
    <Style id="poly_20">
        <IconStyle>
            <color>00000000</color>
            <scale>1</scale>
        </IconStyle>
        <LabelStyle>
            <color>ff00cd00</color>
            <scale>0.8</scale>
        </LabelStyle>
        <LineStyle>
            <color>6600cd00</color>
	    <width>0.4</width>
	</LineStyle>
	<PolyStyle>
	    <color>6600cd00</color>
	</PolyStyle>
        <BalloonStyle>
            <text>
                <![CDATA[ <table border=0 width="300"><tr><td style="font-size:10pt;">
                During this forecast period, there is a <b>20-30%</b> probability of snowfall exceeding the depicted amount in the enclosed area.
                <br/><br/>
                *<span style="font-size:8pt;">Note that in cases where this contour is embedded within a 30% contour, 
                the probability of snowfall exceeding the depicted amount is &lt;20%.</span>
                </td></tr></table>]]>
            </text>
        </BalloonStyle>
    </Style>

    <Style id="poly_30">
        <IconStyle>
            <color>00000000</color>
            <scale>1</scale>
        </IconStyle>
        <LabelStyle>
            <color>ff008b00</color>
            <scale>0.8</scale>
        </LabelStyle>
        <LineStyle>
            <color>66008b00</color>
	    <width>0.4</width>
	</LineStyle>
	<PolyStyle>
	    <color>66008b00</color>
	</PolyStyle>
        <BalloonStyle>
            <text>
                <![CDATA[ <table border=0 width="300"><tr><td style="font-size:10pt;">
                During this forecast period, there is a <b>30-40%</b> probability of snowfall exceeding the depicted amount in the enclosed area.
                <br/><br/>
                *<span style="font-size:8pt;">Note that in cases where this contour is embedded within a 40% contour, 
                the probability of snowfall exceeding the depicted amount is &lt;30%.</span>
                </td></tr></table>]]>
            </text>
        </BalloonStyle>
    </Style>

    <Style id="poly_40">
        <IconStyle>
            <color>00000000</color>
            <scale>1</scale>
        </IconStyle>
        <LabelStyle>
            <color>ff8b4e10</color>
            <scale>0.8</scale>
        </LabelStyle>
        <LineStyle>
            <color>668b4e10</color>
	    <width>0.4</width>
	</LineStyle>
	<PolyStyle>
	    <color>668b4e10</color>
	</PolyStyle>
        <BalloonStyle>
            <text>
                <![CDATA[ <table border=0 width="300"><tr><td style="font-size:10pt;">
                During this forecast period, there is a <b>40-50%</b> probability of snowfall exceeding the depicted amount in the enclosed area.
                <br/><br/>
                *<span style="font-size:8pt;">Note that in cases where this contour is embedded within a 50% contour, 
                the probability of snowfall exceeding the depicted amount is &lt;40%.</span>
                </td></tr></table>]]>
            </text>
        </BalloonStyle>
    </Style>

    <Style id="poly_50">
        <IconStyle>
            <color>00000000</color>
            <scale>1</scale>
        </IconStyle>
        <LabelStyle>
            <color>ffff901e</color>
            <scale>0.8</scale>
        </LabelStyle>
        <LineStyle>
            <color>66ff901e</color>
	    <width>0.4</width>
	</LineStyle>
	<PolyStyle>
	    <color>66ff901e</color>
	</PolyStyle>
        <BalloonStyle>
            <text>
                <![CDATA[ <table border=0 width="300"><tr><td style="font-size:10pt;">
                During this forecast period, there is a <b>50-60%</b> probability of snowfall exceeding the depicted amount in the enclosed area.
                <br/><br/>
                *<span style="font-size:8pt;">Note that in cases where this contour is embedded within a 60% contour, 
                the probability of snowfall exceeding the depicted amount is &lt;50%.</span>
                </td></tr></table>]]>
            </text>
        </BalloonStyle>
    </Style>

    <Style id="poly_60">
        <IconStyle>
            <color>00000000</color>
            <scale>1</scale>
        </IconStyle>
        <LabelStyle>
            <color>ffeeb200</color>
            <scale>0.8</scale>
        </LabelStyle>
        <LineStyle>
            <color>66eeb200</color>
	    <width>0.4</width>
	</LineStyle>
	<PolyStyle>
	    <color>66eeb200</color>
	</PolyStyle>
        <BalloonStyle>
            <text>
                <![CDATA[ <table border=0 width="300"><tr><td style="font-size:10pt;">
                During this forecast period, there is a <b>60-70%</b> probability of snowfall exceeding the depicted amount in the enclosed area.
                <br/><br/>
                *<span style="font-size:8pt;">Note that in cases where this contour is embedded within a 70% contour, 
                the probability of snowfall exceeding the depicted amount is &lt;60%.</span>
                </td></tr></table>]]>
            </text>
        </BalloonStyle>
    </Style>
    
    <Style id="poly_70">
        <IconStyle>
            <color>00000000</color>
            <scale>1</scale>
        </IconStyle>
        <LabelStyle>
            <color>ffeeee00</color>
            <scale>0.8</scale>
        </LabelStyle>
        <LineStyle>
            <color>66eeee00</color>
	    <width>0.4</width>
	</LineStyle>
	<PolyStyle>
	    <color>66eeee00</color>
	</PolyStyle>
        <BalloonStyle>
            <text>
                <![CDATA[ <table border=0 width="300"><tr><td style="font-size:10pt;">
                During this forecast period, there is a <b>70-80%</b> probability of snowfall exceeding the depicted amount in the enclosed area.
                <br/><br/>
                *<span style="font-size:8pt;">Note that in cases where this contour is embedded within a 80% contour, 
                the probability of snowfall exceeding the depicted amount is &lt;70%.</span>
                </td></tr></table>]]>
            </text>
        </BalloonStyle>
    </Style>

    <Style id="poly_80">
        <IconStyle>
            <color>00000000</color>
            <scale>1</scale>
        </IconStyle>
        <LabelStyle>
            <color>ff4782ff</color>
            <scale>0.8</scale>
        </LabelStyle>
        <LineStyle>
            <color>664782ff</color>
	    <width>0.4</width>
	</LineStyle>
	<PolyStyle>
	    <color>664782ff</color>
	</PolyStyle>
        <BalloonStyle>
            <text>
                <![CDATA[ <table border=0 width="300"><tr><td style="font-size:10pt;">
                During this forecast period, there is a <b>80-90%</b> probability of snowfall exceeding the depicted amount in the enclosed area.
                <br/><br/>
                *<span style="font-size:8pt;">Note that in cases where this contour is embedded within a 90% contour, 
                the probability of snowfall exceeding the depicted amount is &lt;80%.</span>
                </td></tr></table>]]>
            </text>
        </BalloonStyle>
    </Style>

    <Style id="poly_90">
        <IconStyle>
            <color>00000000</color>
            <scale>1</scale>
        </IconStyle>
        <LabelStyle>
            <color>ff2c2cee</color>
            <scale>0.8</scale>
        </LabelStyle>
        <LineStyle>
            <color>662c2cee</color>
            <width>0.4</width>
        </LineStyle>
        <PolyStyle>
            <color>662c2cee</color>
        </PolyStyle>
        <BalloonStyle>
            <text>
                <![CDATA[ <table border=0 width="300"><tr><td style="font-size:10pt;">
                During this forecast period, there is a <b>90-95%</b> probability of snowfall exceeding the depicted amount in the enclosed area.
                <br/><br/>
                *<span style="font-size:8pt;">Note that in cases where this contour is embedded within a 95% contour, 
                the probability of snowfall exceeding the depicted amount is &lt;90%.</span>
                </td></tr></table>]]>
            </text>
        </BalloonStyle>
    </Style>

    <Style id="poly_95">
        <IconStyle>
            <color>00000000</color>
            <scale>1</scale>
        </IconStyle>
        <LabelStyle>
            <color>ff00008b</color>
            <scale>0.8</scale>
        </LabelStyle>
        <LineStyle>
            <color>6600008b</color>
	    <width>0.4</width>
	</LineStyle>
	<PolyStyle>
	    <color>6600008b</color>
	</PolyStyle>
        <BalloonStyle>
            <text>
                <![CDATA[ <table border=0 width="300"><tr><td style="font-size:10pt;">
                The probability of snowfall exceeding the depicted amount is <b>&ge;95%</b> in the enclosed area during this forecast period.
                </td></tr></table>]]>
            </text>
        </BalloonStyle>
    </Style>

  <ScreenOverlay>
    <name>Logos</name>
    <description></description>
    <Icon>
      <href>https://www.wpc.ncep.noaa.gov/images/noaa_and_nws_logo.png</href>
    </Icon>
   <overlayXY x=".01" y=".01" xunits="fraction" yunits="fraction" />
   <screenXY x=".01" y=".01" xunits="fraction" yunits="fraction" />
   <rotationXY x="0" y="0" xunits="fraction" yunits="fraction" />
   <size x="-1" y="-1" xunits="fraction" yunits="fraction" />
  </ScreenOverlay>
    <Folder>
      <name>Snow Probabilities</name>
      <open>0</open>
<Placemark>
  <name>1%</name>
  <visibility>1</visibility>
  <styleUrl>#poly_1</styleUrl>
  <MultiGeometry>
    <Polygon>
      <outerBoundaryIs>
        <LinearRing>
          <coordinates>
-110.12,45.59,0 -110.07,45.60,0 -110.02,45.60,0 -109.98,45.61,0 -109.93,45.61,0 -109.88,45.61,0 -109.84,45.61,0 -109.79,45.61,0 -109.75,45.60,0 -109.71,45.59,0 -109.67,45.59,0 -109.63,45.58,0 -109.59,45.56,0 -109.55,45.55,0 -109.52,45.53,0 -109.49,45.51,0 -109.45,45.49,0 -109.41,45.48,0 -109.36,45.46,0 -109.33,45.44,0 -109.29,45.43,0 -109.25,45.41,0 -109.21,45.39,0 -109.18,45.36,0 -109.16,45.34,0 -109.14,45.31,0 -109.13,45.28,0 -109.12,45.25,0 -109.11,45.22,0 -109.10,45.19,0 -109.09,45.16,0 -109.09,45.12,0 -109.08,45.09,0 -109.08,45.05,0 -109.08,45.02,0 -109.08,44.99,0 -109.08,44.95,0 -109.08,44.92,0 -109.09,44.88,0 -109.10,44.85,0 -109.12,44.82,0 -109.15,44.79,0 -109.18,44.76,0 -109.21,44.74,0 -109.25,44.72,0 -109.28,44.71,0 -109.32,44.70,0 -109.36,44.69,0 -109.41,44.68,0 -109.45,44.67,0 -109.49,44.67,0 -109.54,44.67,0 -109.59,44.66,0 -109.64,44.67,0 -109.69,44.67,0 -109.73,44.68,0 -109.77,44.70,0 -109.81,44.72,0 -109.85,44.75,0 -109.88,44.77,0 -109.91,44.79,0 -109.94,44.81,0 -109.97,44.82,0 -110.00,44.84,0 -110.03,44.86,0 -110.07,44.87,0 -110.11,44.89,0 -110.15,44.92,0 -110.18,44.94,0 -110.21,44.97,0 -110.23,45.00,0 -110.25,45.04,0 -110.27,45.07,0 -110.28,45.10,0 -110.28,45.13,0 -110.29,45.15,0 -110.31,45.17,0 -110.34,45.19,0 -110.36,45.22,0 -110.39,45.24,0 -110.40,45.27,0 -110.40,45.30,0 -110.38,45.33,0 -110.36,45.36,0 -110.34,45.39,0 -110.33,45.41,0 -110.33,45.44,0 -110.12,45.59,0 
          </coordinates>
        </LinearRing>
      </outerBoundaryIs>
      <innerBoundaryIs>
        <LinearRing>
          <coordinates>
-110.09,45.43,1000 -110.06,45.44,1000 -110.03,45.45,1000 -109.99,45.46,1000 -109.96,45.47,1000 -109.93,45.47,1000 -109.89,45.48,1000 -109.86,45.48,1000 -109.83,45.48,1000 -109.79,45.48,1000 -109.75,45.48,1000 -109.72,45.47,1000 -109.68,45.47,1000 -109.64,45.46,1000 -109.61,45.45,1000 -109.58,45.44,1000 -109.55,45.43,1000 -109.52,45.41,1000 -109.49,45.40,1000 -109.46,45.38,1000 -109.43,45.36,1000 -109.41,45.35,1000 -109.39,45.34,1000 -109.36,45.32,1000 -109.36,45.32,1000 -109.34,45.30,1000 -109.32,45.29,1000 -109.30,45.27,1000 -109.27,45.25,1000 -109.25,45.23,1000 -109.23,45.21,1000 -109.21,45.19,1000 -109.20,45.17,1000 -109.19,45.14,1000 -109.18,45.12,1000 -109.18,45.09,1000 -109.18,45.07,1000 -109.18,45.04,1000 -109.18,45.02,1000 -109.19,44.99,1000 -109.20,44.97,1000 -109.22,44.94,1000 -109.24,44.92,1000 -109.26,44.90,1000 -109.28,44.88,1000 -109.31,44.86,1000 -109.35,44.85,1000 -109.38,44.84,1000 -109.41,44.83,1000 -109.43,44.82,1000 -109.46,44.80,1000 -109.48,44.79,1000 -109.50,44.78,1000 -109.53,44.78,1000 -109.55,44.79,1000 -109.58,44.80,1000 -109.61,44.81,1000 -109.64,44.81,1000 -109.67,44.81,1000 -109.71,44.82,1000 -109.75,44.83,1000 -109.78,44.84,1000 -109.81,44.85,1000 -109.84,44.87,1000 -109.87,44.89,1000 -109.90,44.91,1000 -109.93,44.92,1000 -109.96,44.94,1000 -109.98,44.95,1000 -110.00,44.97,1000 -110.01,44.98,1000 -110.02,45.00,1000 -110.04,45.01,1000 -110.07,45.03,1000 -110.09,45.05,1000 -110.12,45.07,1000 -110.15,45.09,1000 -110.17,45.11,1000 -110.18,45.13,1000 -110.19,45.15,1000 -110.20,45.18,1000 -110.21,45.20,1000 -110.21,45.23,1000 -110.22,45.25,1000 -110.22,45.28,1000 -110.09,45.43,1000 
          </coordinates>
        </LinearRing>
      </innerBoundaryIs>
  </Polygon>
 </MultiGeometry>
</Placemark>
<Placemark>
  <name>1%</name>
  <visibility>1</visibility>
  <styleUrl>#poly_1</styleUrl>
  <MultiGeometry>
    <Polygon>
      <outerBoundaryIs>
        <LinearRing>
          <coordinates>
-108.08,45.04,0 -108.02,45.06,0 -107.97,45.08,0 -107.91,45.10,0 -107.85,45.11,0 -107.79,45.12,0 -107.73,45.12,0 -107.67,45.11,0 -107.61,45.10,0 -107.56,45.08,0 -107.50,45.05,0 -107.45,45.02,0 -107.40,44.99,0 -107.37,44.97,0 -107.35,44.97,0 -107.31,44.96,0 -107.26,44.95,0 -107.20,44.94,0 -107.15,44.92,0 -107.10,44.91,0 -107.04,44.88,0 -107.00,44.85,0 -106.96,44.82,0 -106.92,44.80,0 -106.88,44.79,0 -106.84,44.77,0 -106.80,44.75,0 -106.75,44.73,0 -106.70,44.70,0 -106.66,44.67,0 -106.63,44.63,0 -106.62,44.59,0 -106.60,44.54,0 -106.59,44.50,0 -106.58,44.46,0 -106.57,44.41,0 -106.56,44.37,0 -106.56,44.33,0 -106.56,44.29,0 -106.55,44.24,0 -106.56,44.20,0 -106.57,44.16,0 -106.60,44.12,0 -106.63,44.08,0 -106.67,44.05,0 -106.71,44.01,0 -106.74,43.99,0 -106.79,43.97,0 -106.83,43.97,0 -106.87,43.95,0 -106.92,43.92,0 -106.97,43.91,0 -107.02,43.92,0 -107.08,43.94,0 -107.13,43.95,0 -107.17,43.95,0 -107.22,43.95,0 -107.27,43.95,0 -107.33,43.95,0 -107.40,43.96,0 -107.46,43.97,0 -107.50,43.99,0 -107.55,44.01,0 -107.59,44.03,0 -107.63,44.06,0 -107.66,44.09,0 -107.69,44.13,0 -107.70,44.18,0 -107.71,44.22,0 -107.72,44.26,0 -107.73,44.30,0 -107.74,44.32,0 -107.75,44.35,0 -107.78,44.37,0 -107.82,44.39,0 -107.86,44.42,0 -107.89,44.45,0 -107.93,44.48,0 -107.96,44.52,0 -108.00,44.55,0 -108.02,44.57,0 -108.05,44.58,0 -108.07,44.60,0 -108.11,44.63,0 -108.15,44.67,0 -108.18,44.70,0 -108.20,44.74,0 -108.21,44.78,0 -108.21,44.82,0 -108.20,44.87,0 -108.19,44.91,0 -108.08,45.04,0 
          </coordinates>
        </LinearRing>
      </outerBoundaryIs>
      <innerBoundaryIs>
        <LinearRing>
          <coordinates>
-107.83,44.93,1000 -107.79,44.93,1000 -107.75,44.94,1000 -107.71,44.94,1000 -107.66,44.94,1000 -107.62,44.93,1000 -107.58,44.93,1000 -107.54,44.92,1000 -107.49,44.91,1000 -107.45,44.90,1000 -107.40,44.88,1000 -107.36,44.87,1000 -107.33,44.86,1000 -107.28,44.84,1000 -107.25,44.82,1000 -107.21,44.81,1000 -107.17,44.80,1000 -107.13,44.80,1000 -107.08,44.78,1000 -107.05,44.76,1000 -107.01,44.74,1000 -106.96,44.72,1000 -106.92,44.70,1000 -106.89,44.68,1000 -106.86,44.66,1000 -106.83,44.63,1000 -106.82,44.61,1000 -106.80,44.59,1000 -106.77,44.57,1000 -106.74,44.55,1000 -106.71,44.53,1000 -106.69,44.50,1000 -106.67,44.47,1000 -106.66,44.44,1000 -106.65,44.40,1000 -106.65,44.37,1000 -106.65,44.33,1000 -106.66,44.30,1000 -106.67,44.27,1000 -106.69,44.24,1000 -106.71,44.21,1000 -106.73,44.18,1000 -106.76,44.15,1000 -106.79,44.13,1000 -106.81,44.10,1000 -106.85,44.08,1000 -106.88,44.06,1000 -106.91,44.04,1000 -106.95,44.02,1000 -106.98,44.01,1000 -107.03,44.00,1000 -107.08,44.00,1000 -107.12,44.00,1000 -107.17,44.00,1000 -107.22,44.01,1000 -107.26,44.02,1000 -107.30,44.04,1000 -107.35,44.05,1000 -107.39,44.07,1000 -107.42,44.09,1000 -107.45,44.10,1000 -107.48,44.12,1000 -107.50,44.14,1000 -107.53,44.16,1000 -107.56,44.18,1000 -107.60,44.21,1000 -107.63,44.23,1000 -107.65,44.26,1000 -107.67,44.29,1000 -107.68,44.32,1000 -107.69,44.35,1000 -107.70,44.38,1000 -107.71,44.40,1000 -107.72,44.43,1000 -107.74,44.46,1000 -107.75,44.49,1000 -107.76,44.52,1000 -107.78,44.54,1000 -107.80,44.56,1000 -107.82,44.57,1000 -107.85,44.59,1000 -107.86,44.61,1000 -107.88,44.64,1000 -107.90,44.66,1000 -107.91,44.69,1000 -107.93,44.73,1000 -107.95,44.76,1000 -107.83,44.93,1000 
          </coordinates>
        </LinearRing>
      </innerBoundaryIs>
  </Polygon>
 </MultiGeometry>
</Placemark>
<Placemark>
  <name>5%</name>
  <visibility>1</visibility>
  <styleUrl>#poly_5</styleUrl>
  <MultiGeometry>
    <Polygon>
      <outerBoundaryIs>
        <LinearRing>
          <coordinates>
-110.09,45.43,1000 -110.06,45.44,1000 -110.03,45.45,1000 -109.99,45.46,1000 -109.96,45.47,1000 -109.93,45.47,1000 -109.89,45.48,1000 -109.86,45.48,1000 -109.83,45.48,1000 -109.79,45.48,1000 -109.75,45.48,1000 -109.72,45.47,1000 -109.68,45.47,1000 -109.64,45.46,1000 -109.61,45.45,1000 -109.58,45.44,1000 -109.55,45.43,1000 -109.52,45.41,1000 -109.49,45.40,1000 -109.46,45.38,1000 -109.43,45.36,1000 -109.41,45.35,1000 -109.39,45.34,1000 -109.36,45.32,1000 -109.36,45.32,1000 -109.34,45.30,1000 -109.32,45.29,1000 -109.30,45.27,1000 -109.27,45.25,1000 -109.25,45.23,1000 -109.23,45.21,1000 -109.21,45.19,1000 -109.20,45.17,1000 -109.19,45.14,1000 -109.18,45.12,1000 -109.18,45.09,1000 -109.18,45.07,1000 -109.18,45.04,1000 -109.18,45.02,1000 -109.19,44.99,1000 -109.20,44.97,1000 -109.22,44.94,1000 -109.24,44.92,1000 -109.26,44.90,1000 -109.28,44.88,1000 -109.31,44.86,1000 -109.35,44.85,1000 -109.38,44.84,1000 -109.41,44.83,1000 -109.43,44.82,1000 -109.46,44.80,1000 -109.48,44.79,1000 -109.50,44.78,1000 -109.53,44.78,1000 -109.55,44.79,1000 -109.58,44.80,1000 -109.61,44.81,1000 -109.64,44.81,1000 -109.67,44.81,1000 -109.71,44.82,1000 -109.75,44.83,1000 -109.78,44.84,1000 -109.81,44.85,1000 -109.84,44.87,1000 -109.87,44.89,1000 -109.90,44.91,1000 -109.93,44.92,1000 -109.96,44.94,1000 -109.98,44.95,1000 -110.00,44.97,1000 -110.01,44.98,1000 -110.02,45.00,1000 -110.04,45.01,1000 -110.07,45.03,1000 -110.09,45.05,1000 -110.12,45.07,1000 -110.15,45.09,1000 -110.17,45.11,1000 -110.18,45.13,1000 -110.19,45.15,1000 -110.20,45.18,1000 -110.21,45.20,1000 -110.21,45.23,1000 -110.22,45.25,1000 -110.22,45.28,1000 -110.09,45.43,1000 
          </coordinates>
        </LinearRing>
      </outerBoundaryIs>
      <innerBoundaryIs>
        <LinearRing>
          <coordinates>
-110.07,45.30,2000 -110.05,45.32,2000 -110.03,45.33,2000 -110.01,45.35,2000 -109.98,45.36,2000 -109.96,45.38,2000 -109.94,45.39,2000 -109.92,45.40,2000 -109.90,45.41,2000 -109.87,45.41,2000 -109.85,45.42,2000 -109.82,45.42,2000 -109.79,45.42,2000 -109.76,45.42,2000 -109.73,45.41,2000 -109.70,45.41,2000 -109.67,45.40,2000 -109.65,45.39,2000 -109.62,45.39,2000 -109.60,45.38,2000 -109.57,45.37,2000 -109.55,45.36,2000 -109.54,45.35,2000 -109.51,45.33,2000 -109.49,45.32,2000 -109.48,45.31,2000 -109.46,45.29,2000 -109.44,45.28,2000 -109.42,45.26,2000 -109.40,45.25,2000 -109.38,45.23,2000 -109.36,45.21,2000 -109.34,45.20,2000 -109.33,45.18,2000 -109.32,45.16,2000 -109.31,45.14,2000 -109.30,45.12,2000 -109.29,45.10,2000 -109.29,45.09,2000 -109.29,45.07,2000 -109.29,45.05,2000 -109.29,45.03,2000 -109.30,45.01,2000 -109.31,44.99,2000 -109.32,44.98,2000 -109.34,44.96,2000 -109.36,44.95,2000 -109.38,44.93,2000 -109.40,44.91,2000 -109.43,44.90,2000 -109.45,44.89,2000 -109.48,44.88,2000 -109.50,44.87,2000 -109.52,44.86,2000 -109.55,44.86,2000 -109.57,44.85,2000 -109.60,44.86,2000 -109.63,44.86,2000 -109.66,44.86,2000 -109.69,44.87,2000 -109.71,44.88,2000 -109.74,44.88,2000 -109.76,44.89,2000 -109.79,44.90,2000 -109.81,44.91,2000 -109.83,44.92,2000 -109.84,44.93,2000 -109.86,44.94,2000 -109.88,44.96,2000 -109.90,44.97,2000 -109.91,44.99,2000 -109.93,45.00,2000 -109.95,45.02,2000 -109.97,45.04,2000 -109.98,45.06,2000 -110.00,45.08,2000 -110.02,45.09,2000 -110.03,45.11,2000 -110.04,45.12,2000 -110.05,45.15,2000 -110.05,45.16,2000 -110.05,45.18,2000 -110.05,45.20,2000 -110.06,45.21,2000 -110.06,45.23,2000 -110.07,45.25,2000 -110.07,45.27,2000 -110.08,45.29,2000 -110.07,45.30,2000 
          </coordinates>
        </LinearRing>
      </innerBoundaryIs>
  </Polygon>
 </MultiGeometry>
</Placemark>
<Placemark>
  <name>5%</name>
  <visibility>1</visibility>
  <styleUrl>#poly_5</styleUrl>
  <MultiGeometry>
    <Polygon>
      <outerBoundaryIs>
        <LinearRing>
          <coordinates>
-107.83,44.93,1000 -107.79,44.93,1000 -107.75,44.94,1000 -107.71,44.94,1000 -107.66,44.94,1000 -107.62,44.93,1000 -107.58,44.93,1000 -107.54,44.92,1000 -107.49,44.91,1000 -107.45,44.90,1000 -107.40,44.88,1000 -107.36,44.87,1000 -107.33,44.86,1000 -107.28,44.84,1000 -107.25,44.82,1000 -107.21,44.81,1000 -107.17,44.80,1000 -107.13,44.80,1000 -107.08,44.78,1000 -107.05,44.76,1000 -107.01,44.74,1000 -106.96,44.72,1000 -106.92,44.70,1000 -106.89,44.68,1000 -106.86,44.66,1000 -106.83,44.63,1000 -106.82,44.61,1000 -106.80,44.59,1000 -106.77,44.57,1000 -106.74,44.55,1000 -106.71,44.53,1000 -106.69,44.50,1000 -106.67,44.47,1000 -106.66,44.44,1000 -106.65,44.40,1000 -106.65,44.37,1000 -106.65,44.33,1000 -106.66,44.30,1000 -106.67,44.27,1000 -106.69,44.24,1000 -106.71,44.21,1000 -106.73,44.18,1000 -106.76,44.15,1000 -106.79,44.13,1000 -106.81,44.10,1000 -106.85,44.08,1000 -106.88,44.06,1000 -106.91,44.04,1000 -106.95,44.02,1000 -106.98,44.01,1000 -107.03,44.00,1000 -107.08,44.00,1000 -107.12,44.00,1000 -107.17,44.00,1000 -107.22,44.01,1000 -107.26,44.02,1000 -107.30,44.04,1000 -107.35,44.05,1000 -107.39,44.07,1000 -107.42,44.09,1000 -107.45,44.10,1000 -107.48,44.12,1000 -107.50,44.14,1000 -107.53,44.16,1000 -107.56,44.18,1000 -107.60,44.21,1000 -107.63,44.23,1000 -107.65,44.26,1000 -107.67,44.29,1000 -107.68,44.32,1000 -107.69,44.35,1000 -107.70,44.38,1000 -107.71,44.40,1000 -107.72,44.43,1000 -107.74,44.46,1000 -107.75,44.49,1000 -107.76,44.52,1000 -107.78,44.54,1000 -107.80,44.56,1000 -107.82,44.57,1000 -107.85,44.59,1000 -107.86,44.61,1000 -107.88,44.64,1000 -107.90,44.66,1000 -107.91,44.69,1000 -107.93,44.73,1000 -107.95,44.76,1000 -107.83,44.93,1000 
          </coordinates>
        </LinearRing>
      </outerBoundaryIs>
      <innerBoundaryIs>
        <LinearRing>
          <coordinates>
-107.57,44.82,2000 -107.55,44.81,2000 -107.52,44.80,2000 -107.48,44.79,2000 -107.45,44.79,2000 -107.43,44.79,2000 -107.39,44.79,2000 -107.36,44.78,2000 -107.32,44.78,2000 -107.29,44.77,2000 -107.25,44.77,2000 -107.21,44.76,2000 -107.17,44.75,2000 -107.13,44.74,2000 -107.10,44.73,2000 -107.07,44.72,2000 -107.03,44.71,2000 -107.01,44.69,2000 -106.99,44.67,2000 -106.96,44.65,2000 -106.94,44.63,2000 -106.92,44.61,2000 -106.89,44.58,2000 -106.87,44.56,2000 -106.84,44.53,2000 -106.82,44.51,2000 -106.81,44.49,2000 -106.79,44.46,2000 -106.79,44.44,2000 -106.79,44.42,2000 -106.78,44.40,2000 -106.77,44.37,2000 -106.76,44.34,2000 -106.76,44.32,2000 -106.78,44.30,2000 -106.79,44.28,2000 -106.81,44.26,2000 -106.82,44.24,2000 -106.84,44.21,2000 -106.86,44.18,2000 -106.87,44.16,2000 -106.89,44.14,2000 -106.91,44.12,2000 -106.93,44.10,2000 -106.96,44.09,2000 -106.99,44.08,2000 -107.02,44.08,2000 -107.05,44.07,2000 -107.09,44.07,2000 -107.13,44.07,2000 -107.17,44.07,2000 -107.20,44.07,2000 -107.23,44.07,2000 -107.27,44.08,2000 -107.29,44.09,2000 -107.32,44.11,2000 -107.34,44.12,2000 -107.37,44.14,2000 -107.41,44.16,2000 -107.44,44.18,2000 -107.47,44.19,2000 -107.49,44.21,2000 -107.52,44.23,2000 -107.54,44.24,2000 -107.56,44.27,2000 -107.57,44.29,2000 -107.58,44.31,2000 -107.60,44.33,2000 -107.61,44.36,2000 -107.63,44.38,2000 -107.64,44.41,2000 -107.65,44.43,2000 -107.66,44.45,2000 -107.67,44.48,2000 -107.69,44.50,2000 -107.70,44.53,2000 -107.71,44.55,2000 -107.72,44.58,2000 -107.72,44.60,2000 -107.72,44.63,2000 -107.72,44.65,2000 -107.72,44.68,2000 -107.71,44.70,2000 -107.71,44.73,2000 -107.70,44.75,2000 -107.69,44.78,2000 -107.57,44.82,2000 
          </coordinates>
        </LinearRing>
      </innerBoundaryIs>
  </Polygon>
 </MultiGeometry>
</Placemark>
<Placemark>
  <name>10%</name>
  <visibility>1</visibility>
  <styleUrl>#poly_10</styleUrl>
  <MultiGeometry>
    <Polygon>
      <outerBoundaryIs>
        <LinearRing>
          <coordinates>
-110.07,45.30,2000 -110.05,45.32,2000 -110.03,45.33,2000 -110.01,45.35,2000 -109.98,45.36,2000 -109.96,45.38,2000 -109.94,45.39,2000 -109.92,45.40,2000 -109.90,45.41,2000 -109.87,45.41,2000 -109.85,45.42,2000 -109.82,45.42,2000 -109.79,45.42,2000 -109.76,45.42,2000 -109.73,45.41,2000 -109.70,45.41,2000 -109.67,45.40,2000 -109.65,45.39,2000 -109.62,45.39,2000 -109.60,45.38,2000 -109.57,45.37,2000 -109.55,45.36,2000 -109.54,45.35,2000 -109.51,45.33,2000 -109.49,45.32,2000 -109.48,45.31,2000 -109.46,45.29,2000 -109.44,45.28,2000 -109.42,45.26,2000 -109.40,45.25,2000 -109.38,45.23,2000 -109.36,45.21,2000 -109.34,45.20,2000 -109.33,45.18,2000 -109.32,45.16,2000 -109.31,45.14,2000 -109.30,45.12,2000 -109.29,45.10,2000 -109.29,45.09,2000 -109.29,45.07,2000 -109.29,45.05,2000 -109.29,45.03,2000 -109.30,45.01,2000 -109.31,44.99,2000 -109.32,44.98,2000 -109.34,44.96,2000 -109.36,44.95,2000 -109.38,44.93,2000 -109.40,44.91,2000 -109.43,44.90,2000 -109.45,44.89,2000 -109.48,44.88,2000 -109.50,44.87,2000 -109.52,44.86,2000 -109.55,44.86,2000 -109.57,44.85,2000 -109.60,44.86,2000 -109.63,44.86,2000 -109.66,44.86,2000 -109.69,44.87,2000 -109.71,44.88,2000 -109.74,44.88,2000 -109.76,44.89,2000 -109.79,44.90,2000 -109.81,44.91,2000 -109.83,44.92,2000 -109.84,44.93,2000 -109.86,44.94,2000 -109.88,44.96,2000 -109.90,44.97,2000 -109.91,44.99,2000 -109.93,45.00,2000 -109.95,45.02,2000 -109.97,45.04,2000 -109.98,45.06,2000 -110.00,45.08,2000 -110.02,45.09,2000 -110.03,45.11,2000 -110.04,45.12,2000 -110.05,45.15,2000 -110.05,45.16,2000 -110.05,45.18,2000 -110.05,45.20,2000 -110.06,45.21,2000 -110.06,45.23,2000 -110.07,45.25,2000 -110.07,45.27,2000 -110.08,45.29,2000 -110.07,45.30,2000 
          </coordinates>
        </LinearRing>
      </outerBoundaryIs>
      <innerBoundaryIs>
        <LinearRing>
          <coordinates>
-109.83,45.29,3000 -109.81,45.29,3000 -109.79,45.29,3000 -109.78,45.28,3000 -109.76,45.28,3000 -109.74,45.28,3000 -109.73,45.28,3000 -109.71,45.28,3000 -109.69,45.27,3000 -109.68,45.27,3000 -109.66,45.27,3000 -109.65,45.27,3000 -109.63,45.26,3000 -109.62,45.26,3000 -109.60,45.26,3000 -109.59,45.25,3000 -109.58,45.25,3000 -109.56,45.24,3000 -109.55,45.24,3000 -109.53,45.23,3000 -109.51,45.23,3000 -109.50,45.22,3000 -109.49,45.21,3000 -109.48,45.20,3000 -109.47,45.19,3000 -109.46,45.18,3000 -109.46,45.17,3000 -109.46,45.16,3000 -109.46,45.15,3000 -109.46,45.14,3000 -109.46,45.13,3000 -109.46,45.12,3000 -109.46,45.10,3000 -109.47,45.09,3000 -109.47,45.08,3000 -109.47,45.06,3000 -109.48,45.05,3000 -109.48,45.04,3000 -109.49,45.03,3000 -109.49,45.02,3000 -109.49,45.01,3000 -109.50,45.00,3000 -109.50,44.99,3000 -109.51,44.97,3000 -109.52,44.97,3000 -109.53,44.97,3000 -109.54,44.97,3000 -109.55,44.97,3000 -109.57,44.97,3000 -109.59,44.97,3000 -109.61,44.98,3000 -109.62,44.98,3000 -109.64,44.99,3000 -109.65,44.99,3000 -109.67,45.00,3000 -109.68,45.00,3000 -109.70,45.01,3000 -109.71,45.01,3000 -109.73,45.02,3000 -109.75,45.02,3000 -109.76,45.03,3000 -109.78,45.03,3000 -109.79,45.04,3000 -109.80,45.05,3000 -109.82,45.06,3000 -109.83,45.06,3000 -109.84,45.07,3000 -109.85,45.08,3000 -109.86,45.09,3000 -109.87,45.10,3000 -109.88,45.11,3000 -109.89,45.12,3000 -109.90,45.13,3000 -109.83,45.29,3000 
          </coordinates>
        </LinearRing>
      </innerBoundaryIs>
  </Polygon>
 </MultiGeometry>
</Placemark>
<Placemark>
  <name>10%</name>
  <visibility>1</visibility>
  <styleUrl>#poly_10</styleUrl>
  <MultiGeometry>
    <Polygon>
      <outerBoundaryIs>
        <LinearRing>
          <coordinates>
-107.57,44.82,2000 -107.55,44.81,2000 -107.52,44.80,2000 -107.48,44.79,2000 -107.45,44.79,2000 -107.43,44.79,2000 -107.39,44.79,2000 -107.36,44.78,2000 -107.32,44.78,2000 -107.29,44.77,2000 -107.25,44.77,2000 -107.21,44.76,2000 -107.17,44.75,2000 -107.13,44.74,2000 -107.10,44.73,2000 -107.07,44.72,2000 -107.03,44.71,2000 -107.01,44.69,2000 -106.99,44.67,2000 -106.96,44.65,2000 -106.94,44.63,2000 -106.92,44.61,2000 -106.89,44.58,2000 -106.87,44.56,2000 -106.84,44.53,2000 -106.82,44.51,2000 -106.81,44.49,2000 -106.79,44.46,2000 -106.79,44.44,2000 -106.79,44.42,2000 -106.78,44.40,2000 -106.77,44.37,2000 -106.76,44.34,2000 -106.76,44.32,2000 -106.78,44.30,2000 -106.79,44.28,2000 -106.81,44.26,2000 -106.82,44.24,2000 -106.84,44.21,2000 -106.86,44.18,2000 -106.87,44.16,2000 -106.89,44.14,2000 -106.91,44.12,2000 -106.93,44.10,2000 -106.96,44.09,2000 -106.99,44.08,2000 -107.02,44.08,2000 -107.05,44.07,2000 -107.09,44.07,2000 -107.13,44.07,2000 -107.17,44.07,2000 -107.20,44.07,2000 -107.23,44.07,2000 -107.27,44.08,2000 -107.29,44.09,2000 -107.32,44.11,2000 -107.34,44.12,2000 -107.37,44.14,2000 -107.41,44.16,2000 -107.44,44.18,2000 -107.47,44.19,2000 -107.49,44.21,2000 -107.52,44.23,2000 -107.54,44.24,2000 -107.56,44.27,2000 -107.57,44.29,2000 -107.58,44.31,2000 -107.60,44.33,2000 -107.61,44.36,2000 -107.63,44.38,2000 -107.64,44.41,2000 -107.65,44.43,2000 -107.66,44.45,2000 -107.67,44.48,2000 -107.69,44.50,2000 -107.70,44.53,2000 -107.71,44.55,2000 -107.72,44.58,2000 -107.72,44.60,2000 -107.72,44.63,2000 -107.72,44.65,2000 -107.72,44.68,2000 -107.71,44.70,2000 -107.71,44.73,2000 -107.70,44.75,2000 -107.69,44.78,2000 -107.57,44.82,2000 
          </coordinates>
        </LinearRing>
      </outerBoundaryIs>
      <innerBoundaryIs>
        <LinearRing>
          <coordinates>
-107.31,44.69,3000 -107.29,44.68,3000 -107.26,44.67,3000 -107.24,44.67,3000 -107.22,44.66,3000 -107.20,44.65,3000 -107.18,44.65,3000 -107.16,44.64,3000 -107.13,44.63,3000 -107.11,44.63,3000 -107.09,44.62,3000 -107.06,44.61,3000 -107.04,44.60,3000 -107.03,44.59,3000 -107.01,44.58,3000 -106.99,44.56,3000 -106.97,44.55,3000 -106.95,44.53,3000 -106.93,44.51,3000 -106.91,44.50,3000 -106.90,44.48,3000 -106.89,44.46,3000 -106.88,44.44,3000 -106.87,44.42,3000 -106.87,44.40,3000 -106.86,44.38,3000 -106.86,44.37,3000 -106.86,44.35,3000 -106.87,44.33,3000 -106.87,44.31,3000 -106.88,44.29,3000 -106.89,44.28,3000 -106.90,44.26,3000 -106.92,44.24,3000 -106.93,44.23,3000 -106.95,44.21,3000 -106.97,44.20,3000 -106.99,44.19,3000 -107.01,44.18,3000 -107.03,44.17,3000 -107.06,44.17,3000 -107.08,44.16,3000 -107.11,44.16,3000 -107.14,44.16,3000 -107.16,44.16,3000 -107.19,44.16,3000 -107.22,44.17,3000 -107.24,44.17,3000 -107.26,44.18,3000 -107.29,44.19,3000 -107.31,44.20,3000 -107.33,44.21,3000 -107.35,44.22,3000 -107.38,44.24,3000 -107.40,44.25,3000 -107.41,44.27,3000 -107.43,44.28,3000 -107.44,44.30,3000 -107.46,44.31,3000 -107.47,44.33,3000 -107.48,44.35,3000 -107.49,44.37,3000 -107.50,44.39,3000 -107.51,44.41,3000 -107.51,44.42,3000 -107.52,44.43,3000 -107.53,44.44,3000 -107.53,44.45,3000 -107.53,44.47,3000 -107.53,44.49,3000 -107.53,44.51,3000 -107.53,44.53,3000 -107.53,44.54,3000 -107.53,44.56,3000 -107.52,44.58,3000 -107.52,44.60,3000 -107.52,44.62,3000 -107.31,44.69,3000 
          </coordinates>
        </LinearRing>
      </innerBoundaryIs>
  </Polygon>
 </MultiGeometry>
</Placemark>
<Placemark>
  <name>20%</name>
  <visibility>1</visibility>
  <styleUrl>#poly_20</styleUrl>
  <MultiGeometry>
    <Polygon>
      <outerBoundaryIs>
        <LinearRing>
          <coordinates>
-107.31,44.69,3000 -107.29,44.68,3000 -107.26,44.67,3000 -107.24,44.67,3000 -107.22,44.66,3000 -107.20,44.65,3000 -107.18,44.65,3000 -107.16,44.64,3000 -107.13,44.63,3000 -107.11,44.63,3000 -107.09,44.62,3000 -107.06,44.61,3000 -107.04,44.60,3000 -107.03,44.59,3000 -107.01,44.58,3000 -106.99,44.56,3000 -106.97,44.55,3000 -106.95,44.53,3000 -106.93,44.51,3000 -106.91,44.50,3000 -106.90,44.48,3000 -106.89,44.46,3000 -106.88,44.44,3000 -106.87,44.42,3000 -106.87,44.40,3000 -106.86,44.38,3000 -106.86,44.37,3000 -106.86,44.35,3000 -106.87,44.33,3000 -106.87,44.31,3000 -106.88,44.29,3000 -106.89,44.28,3000 -106.90,44.26,3000 -106.92,44.24,3000 -106.93,44.23,3000 -106.95,44.21,3000 -106.97,44.20,3000 -106.99,44.19,3000 -107.01,44.18,3000 -107.03,44.17,3000 -107.06,44.17,3000 -107.08,44.16,3000 -107.11,44.16,3000 -107.14,44.16,3000 -107.16,44.16,3000 -107.19,44.16,3000 -107.22,44.17,3000 -107.24,44.17,3000 -107.26,44.18,3000 -107.29,44.19,3000 -107.31,44.20,3000 -107.33,44.21,3000 -107.35,44.22,3000 -107.38,44.24,3000 -107.40,44.25,3000 -107.41,44.27,3000 -107.43,44.28,3000 -107.44,44.30,3000 -107.46,44.31,3000 -107.47,44.33,3000 -107.48,44.35,3000 -107.49,44.37,3000 -107.50,44.39,3000 -107.51,44.41,3000 -107.51,44.42,3000 -107.52,44.43,3000 -107.53,44.44,3000 -107.53,44.45,3000 -107.53,44.47,3000 -107.53,44.49,3000 -107.53,44.51,3000 -107.53,44.53,3000 -107.53,44.54,3000 -107.53,44.56,3000 -107.52,44.58,3000 -107.52,44.60,3000 -107.52,44.62,3000 -107.31,44.69,3000 
          </coordinates>
        </LinearRing>
      </outerBoundaryIs>
      <innerBoundaryIs>
        <LinearRing>
          <coordinates>
-107.30,44.60,4000 -107.28,44.59,4000 -107.26,44.59,4000 -107.24,44.58,4000 -107.22,44.58,4000 -107.20,44.57,4000 -107.18,44.56,4000 -107.17,44.56,4000 -107.15,44.55,4000 -107.13,44.55,4000 -107.12,44.54,4000 -107.10,44.54,4000 -107.09,44.53,4000 -107.07,44.53,4000 -107.06,44.52,4000 -107.05,44.52,4000 -107.03,44.51,4000 -107.01,44.51,4000 -107.00,44.50,4000 -107.00,44.50,4000 -106.99,44.48,4000 -106.99,44.47,4000 -106.98,44.46,4000 -106.98,44.45,4000 -106.98,44.43,4000 -106.98,44.42,4000 -106.97,44.40,4000 -106.97,44.39,4000 -106.97,44.37,4000 -106.97,44.36,4000 -106.97,44.34,4000 -106.97,44.33,4000 -106.97,44.32,4000 -106.97,44.31,4000 -106.97,44.29,4000 -106.98,44.28,4000 -106.98,44.27,4000 -107.00,44.27,4000 -107.02,44.26,4000 -107.03,44.26,4000 -107.05,44.25,4000 -107.06,44.25,4000 -107.08,44.25,4000 -107.10,44.25,4000 -107.12,44.25,4000 -107.14,44.24,4000 -107.16,44.24,4000 -107.18,44.24,4000 -107.20,44.24,4000 -107.22,44.24,4000 -107.24,44.24,4000 -107.25,44.24,4000 -107.27,44.24,4000 -107.29,44.24,4000 -107.30,44.25,4000 -107.32,44.25,4000 -107.33,44.27,4000 -107.34,44.28,4000 -107.35,44.29,4000 -107.35,44.30,4000 -107.36,44.31,4000 -107.37,44.32,4000 -107.37,44.33,4000 -107.38,44.34,4000 -107.38,44.35,4000 -107.39,44.37,4000 -107.40,44.38,4000 -107.40,44.39,4000 -107.41,44.41,4000 -107.42,44.42,4000 -107.42,44.44,4000 -107.43,44.45,4000 -107.30,44.60,4000 
          </coordinates>
        </LinearRing>
      </innerBoundaryIs>
  </Polygon>
 </MultiGeometry>
</Placemark>
<Placemark>
  <name>20%</name>
  <visibility>1</visibility>
  <styleUrl>#poly_20</styleUrl>
  <MultiGeometry>
    <Polygon>
      <outerBoundaryIs>
        <LinearRing>
          <coordinates>
-109.83,45.29,3000 -109.81,45.29,3000 -109.79,45.29,3000 -109.78,45.28,3000 -109.76,45.28,3000 -109.74,45.28,3000 -109.73,45.28,3000 -109.71,45.28,3000 -109.69,45.27,3000 -109.68,45.27,3000 -109.66,45.27,3000 -109.65,45.27,3000 -109.63,45.26,3000 -109.62,45.26,3000 -109.60,45.26,3000 -109.59,45.25,3000 -109.58,45.25,3000 -109.56,45.24,3000 -109.55,45.24,3000 -109.53,45.23,3000 -109.51,45.23,3000 -109.50,45.22,3000 -109.49,45.21,3000 -109.48,45.20,3000 -109.47,45.19,3000 -109.46,45.18,3000 -109.46,45.17,3000 -109.46,45.16,3000 -109.46,45.15,3000 -109.46,45.14,3000 -109.46,45.13,3000 -109.46,45.12,3000 -109.46,45.10,3000 -109.47,45.09,3000 -109.47,45.08,3000 -109.47,45.06,3000 -109.48,45.05,3000 -109.48,45.04,3000 -109.49,45.03,3000 -109.49,45.02,3000 -109.49,45.01,3000 -109.50,45.00,3000 -109.50,44.99,3000 -109.51,44.97,3000 -109.52,44.97,3000 -109.53,44.97,3000 -109.54,44.97,3000 -109.55,44.97,3000 -109.57,44.97,3000 -109.59,44.97,3000 -109.61,44.98,3000 -109.62,44.98,3000 -109.64,44.99,3000 -109.65,44.99,3000 -109.67,45.00,3000 -109.68,45.00,3000 -109.70,45.01,3000 -109.71,45.01,3000 -109.73,45.02,3000 -109.75,45.02,3000 -109.76,45.03,3000 -109.78,45.03,3000 -109.79,45.04,3000 -109.80,45.05,3000 -109.82,45.06,3000 -109.83,45.06,3000 -109.84,45.07,3000 -109.85,45.08,3000 -109.86,45.09,3000 -109.87,45.10,3000 -109.88,45.11,3000 -109.89,45.12,3000 -109.90,45.13,3000 -109.83,45.29,3000 
          </coordinates>
        </LinearRing>
      </outerBoundaryIs>
  </Polygon>
 </MultiGeometry>
</Placemark>
<Placemark>
  <name>30%</name>
  <visibility>1</visibility>
  <styleUrl>#poly_30</styleUrl>
  <MultiGeometry>
    <Polygon>
      <outerBoundaryIs>
        <LinearRing>
          <coordinates>
-107.30,44.60,4000 -107.28,44.59,4000 -107.26,44.59,4000 -107.24,44.58,4000 -107.22,44.58,4000 -107.20,44.57,4000 -107.18,44.56,4000 -107.17,44.56,4000 -107.15,44.55,4000 -107.13,44.55,4000 -107.12,44.54,4000 -107.10,44.54,4000 -107.09,44.53,4000 -107.07,44.53,4000 -107.06,44.52,4000 -107.05,44.52,4000 -107.03,44.51,4000 -107.01,44.51,4000 -107.00,44.50,4000 -107.00,44.50,4000 -106.99,44.48,4000 -106.99,44.47,4000 -106.98,44.46,4000 -106.98,44.45,4000 -106.98,44.43,4000 -106.98,44.42,4000 -106.97,44.40,4000 -106.97,44.39,4000 -106.97,44.37,4000 -106.97,44.36,4000 -106.97,44.34,4000 -106.97,44.33,4000 -106.97,44.32,4000 -106.97,44.31,4000 -106.97,44.29,4000 -106.98,44.28,4000 -106.98,44.27,4000 -107.00,44.27,4000 -107.02,44.26,4000 -107.03,44.26,4000 -107.05,44.25,4000 -107.06,44.25,4000 -107.08,44.25,4000 -107.10,44.25,4000 -107.12,44.25,4000 -107.14,44.24,4000 -107.16,44.24,4000 -107.18,44.24,4000 -107.20,44.24,4000 -107.22,44.24,4000 -107.24,44.24,4000 -107.25,44.24,4000 -107.27,44.24,4000 -107.29,44.24,4000 -107.30,44.25,4000 -107.32,44.25,4000 -107.33,44.27,4000 -107.34,44.28,4000 -107.35,44.29,4000 -107.35,44.30,4000 -107.36,44.31,4000 -107.37,44.32,4000 -107.37,44.33,4000 -107.38,44.34,4000 -107.38,44.35,4000 -107.39,44.37,4000 -107.40,44.38,4000 -107.40,44.39,4000 -107.41,44.41,4000 -107.42,44.42,4000 -107.42,44.44,4000 -107.43,44.45,4000 -107.30,44.60,4000 
          </coordinates>
        </LinearRing>
      </outerBoundaryIs>
  </Polygon>
 </MultiGeometry>
</Placemark>
    </Folder>
  </Document>
</kml>
