<?xml version="1.0" encoding="UTF-8"?>
<kml xmlns="http://www.opengis.net/kml/2.2">
<Document id="prb_72hsnow_ge02_f072">
<name>WPC 72-Hr Prob of Snow > 2"</name>
  <open>1</open>
  <snippet>Valid 12Z 09/28/2026 - 12Z 10/01/2026</snippet>
  <description></description>
    <Style id="poly_1">
        <IconStyle>
           <color>00000000</color>
           <scale>1</scale>
        </IconStyle>
        <LabelStyle>
            <color>ff26478b</color>
            <scale>0.8</scale>
        </LabelStyle>
        <LineStyle>
            <color>6626478b</color>
            <width>0</width>
        </LineStyle>
	<PolyStyle>
            <color>6626478b</color>
	</PolyStyle>
        <BalloonStyle>
            <text>
                <![CDATA[ <table border=0 width="300"><tr><td style="font-size:10pt;">
                During this forecast period, there is a <b>1-5%</b> probability of snowfall exceeding the depicted amount in the enclosed area.
                <br/><br/>
                *<span style="font-size:8pt;">Note that in cases where this contour is embedded within a 5% contour, 
                the probability of snowfall exceeding the depicted amount is &lt;1%.</span>
                </td></tr></table>]]>
            </text>
        </BalloonStyle>
    </Style>

    <Style id="poly_5">
        <IconStyle>
           <color>00000000</color>
           <scale>1</scale>
        </IconStyle>
        <LabelStyle>
            <color>ff00eeee</color>
            <scale>0.8</scale>
        </LabelStyle>
        <LineStyle>
            <color>6600eeee</color>
            <width>0.4</width>
        </LineStyle>
	<PolyStyle>
	    <color>6600eeee</color>
	</PolyStyle>
        <BalloonStyle>
            <text>
                <![CDATA[ <table border=0 width="300"><tr><td style="font-size:10pt;">
                During this forecast period, there is a <b>5-10%</b> probability of snowfall exceeding the depicted amount in the enclosed area.
                <br/><br/>
                *<span style="font-size:8pt;">Note that in cases where this contour is embedded within a 10% contour, 
                the probability of snowfall exceeding the depicted amount is &lt;5%.</span>
                </td></tr></table>]]>
            </text>
        </BalloonStyle>
    </Style>

    <Style id="poly_10">
        <IconStyle>
           <color>00000000</color>
           <scale>1</scale>
        </IconStyle>
        <LabelStyle>
            <color>ff00ff7f</color>
            <scale>0.8</scale>
        </LabelStyle>
        <LineStyle>
            <color>6600ff7f</color>
            <width>0.4</width>
        </LineStyle>
	<PolyStyle>
	    <color>6600ff7f</color>
	</PolyStyle>
        <BalloonStyle>
            <text>
                <![CDATA[ <table border=0 width="300"><tr><td style="font-size:10pt;">
                During this forecast period, there is a <b>10-20%</b> probability of snowfall exceeding the depicted amount in the enclosed area.
                <br/><br/>
                *<span style="font-size:8pt;">Note that in cases where this contour is embedded within a 20% contour, 
                the probability of snowfall exceeding the depicted amount is &lt;10%.</span>
                </td></tr></table>]]>
            </text>
        </BalloonStyle>
    </Style>
    
    <Style id="poly_20">
        <IconStyle>
            <color>00000000</color>
            <scale>1</scale>
        </IconStyle>
        <LabelStyle>
            <color>ff00cd00</color>
            <scale>0.8</scale>
        </LabelStyle>
        <LineStyle>
            <color>6600cd00</color>
	    <width>0.4</width>
	</LineStyle>
	<PolyStyle>
	    <color>6600cd00</color>
	</PolyStyle>
        <BalloonStyle>
            <text>
                <![CDATA[ <table border=0 width="300"><tr><td style="font-size:10pt;">
                During this forecast period, there is a <b>20-30%</b> probability of snowfall exceeding the depicted amount in the enclosed area.
                <br/><br/>
                *<span style="font-size:8pt;">Note that in cases where this contour is embedded within a 30% contour, 
                the probability of snowfall exceeding the depicted amount is &lt;20%.</span>
                </td></tr></table>]]>
            </text>
        </BalloonStyle>
    </Style>

    <Style id="poly_30">
        <IconStyle>
            <color>00000000</color>
            <scale>1</scale>
        </IconStyle>
        <LabelStyle>
            <color>ff008b00</color>
            <scale>0.8</scale>
        </LabelStyle>
        <LineStyle>
            <color>66008b00</color>
	    <width>0.4</width>
	</LineStyle>
	<PolyStyle>
	    <color>66008b00</color>
	</PolyStyle>
        <BalloonStyle>
            <text>
                <![CDATA[ <table border=0 width="300"><tr><td style="font-size:10pt;">
                During this forecast period, there is a <b>30-40%</b> probability of snowfall exceeding the depicted amount in the enclosed area.
                <br/><br/>
                *<span style="font-size:8pt;">Note that in cases where this contour is embedded within a 40% contour, 
                the probability of snowfall exceeding the depicted amount is &lt;30%.</span>
                </td></tr></table>]]>
            </text>
        </BalloonStyle>
    </Style>

    <Style id="poly_40">
        <IconStyle>
            <color>00000000</color>
            <scale>1</scale>
        </IconStyle>
        <LabelStyle>
            <color>ff8b4e10</color>
            <scale>0.8</scale>
        </LabelStyle>
        <LineStyle>
            <color>668b4e10</color>
	    <width>0.4</width>
	</LineStyle>
	<PolyStyle>
	    <color>668b4e10</color>
	</PolyStyle>
        <BalloonStyle>
            <text>
                <![CDATA[ <table border=0 width="300"><tr><td style="font-size:10pt;">
                During this forecast period, there is a <b>40-50%</b> probability of snowfall exceeding the depicted amount in the enclosed area.
                <br/><br/>
                *<span style="font-size:8pt;">Note that in cases where this contour is embedded within a 50% contour, 
                the probability of snowfall exceeding the depicted amount is &lt;40%.</span>
                </td></tr></table>]]>
            </text>
        </BalloonStyle>
    </Style>

    <Style id="poly_50">
        <IconStyle>
            <color>00000000</color>
            <scale>1</scale>
        </IconStyle>
        <LabelStyle>
            <color>ffff901e</color>
            <scale>0.8</scale>
        </LabelStyle>
        <LineStyle>
            <color>66ff901e</color>
	    <width>0.4</width>
	</LineStyle>
	<PolyStyle>
	    <color>66ff901e</color>
	</PolyStyle>
        <BalloonStyle>
            <text>
                <![CDATA[ <table border=0 width="300"><tr><td style="font-size:10pt;">
                During this forecast period, there is a <b>50-60%</b> probability of snowfall exceeding the depicted amount in the enclosed area.
                <br/><br/>
                *<span style="font-size:8pt;">Note that in cases where this contour is embedded within a 60% contour, 
                the probability of snowfall exceeding the depicted amount is &lt;50%.</span>
                </td></tr></table>]]>
            </text>
        </BalloonStyle>
    </Style>

    <Style id="poly_60">
        <IconStyle>
            <color>00000000</color>
            <scale>1</scale>
        </IconStyle>
        <LabelStyle>
            <color>ffeeb200</color>
            <scale>0.8</scale>
        </LabelStyle>
        <LineStyle>
            <color>66eeb200</color>
	    <width>0.4</width>
	</LineStyle>
	<PolyStyle>
	    <color>66eeb200</color>
	</PolyStyle>
        <BalloonStyle>
            <text>
                <![CDATA[ <table border=0 width="300"><tr><td style="font-size:10pt;">
                During this forecast period, there is a <b>60-70%</b> probability of snowfall exceeding the depicted amount in the enclosed area.
                <br/><br/>
                *<span style="font-size:8pt;">Note that in cases where this contour is embedded within a 70% contour, 
                the probability of snowfall exceeding the depicted amount is &lt;60%.</span>
                </td></tr></table>]]>
            </text>
        </BalloonStyle>
    </Style>
    
    <Style id="poly_70">
        <IconStyle>
            <color>00000000</color>
            <scale>1</scale>
        </IconStyle>
        <LabelStyle>
            <color>ffeeee00</color>
            <scale>0.8</scale>
        </LabelStyle>
        <LineStyle>
            <color>66eeee00</color>
	    <width>0.4</width>
	</LineStyle>
	<PolyStyle>
	    <color>66eeee00</color>
	</PolyStyle>
        <BalloonStyle>
            <text>
                <![CDATA[ <table border=0 width="300"><tr><td style="font-size:10pt;">
                During this forecast period, there is a <b>70-80%</b> probability of snowfall exceeding the depicted amount in the enclosed area.
                <br/><br/>
                *<span style="font-size:8pt;">Note that in cases where this contour is embedded within a 80% contour, 
                the probability of snowfall exceeding the depicted amount is &lt;70%.</span>
                </td></tr></table>]]>
            </text>
        </BalloonStyle>
    </Style>

    <Style id="poly_80">
        <IconStyle>
            <color>00000000</color>
            <scale>1</scale>
        </IconStyle>
        <LabelStyle>
            <color>ff4782ff</color>
            <scale>0.8</scale>
        </LabelStyle>
        <LineStyle>
            <color>664782ff</color>
	    <width>0.4</width>
	</LineStyle>
	<PolyStyle>
	    <color>664782ff</color>
	</PolyStyle>
        <BalloonStyle>
            <text>
                <![CDATA[ <table border=0 width="300"><tr><td style="font-size:10pt;">
                During this forecast period, there is a <b>80-90%</b> probability of snowfall exceeding the depicted amount in the enclosed area.
                <br/><br/>
                *<span style="font-size:8pt;">Note that in cases where this contour is embedded within a 90% contour, 
                the probability of snowfall exceeding the depicted amount is &lt;80%.</span>
                </td></tr></table>]]>
            </text>
        </BalloonStyle>
    </Style>

    <Style id="poly_90">
        <IconStyle>
            <color>00000000</color>
            <scale>1</scale>
        </IconStyle>
        <LabelStyle>
            <color>ff2c2cee</color>
            <scale>0.8</scale>
        </LabelStyle>
        <LineStyle>
            <color>662c2cee</color>
            <width>0.4</width>
        </LineStyle>
        <PolyStyle>
            <color>662c2cee</color>
        </PolyStyle>
        <BalloonStyle>
            <text>
                <![CDATA[ <table border=0 width="300"><tr><td style="font-size:10pt;">
                During this forecast period, there is a <b>90-95%</b> probability of snowfall exceeding the depicted amount in the enclosed area.
                <br/><br/>
                *<span style="font-size:8pt;">Note that in cases where this contour is embedded within a 95% contour, 
                the probability of snowfall exceeding the depicted amount is &lt;90%.</span>
                </td></tr></table>]]>
            </text>
        </BalloonStyle>
    </Style>

    <Style id="poly_95">
        <IconStyle>
            <color>00000000</color>
            <scale>1</scale>
        </IconStyle>
        <LabelStyle>
            <color>ff00008b</color>
            <scale>0.8</scale>
        </LabelStyle>
        <LineStyle>
            <color>6600008b</color>
	    <width>0.4</width>
	</LineStyle>
	<PolyStyle>
	    <color>6600008b</color>
	</PolyStyle>
        <BalloonStyle>
            <text>
                <![CDATA[ <table border=0 width="300"><tr><td style="font-size:10pt;">
                The probability of snowfall exceeding the depicted amount is <b>&ge;95%</b> in the enclosed area during this forecast period.
                </td></tr></table>]]>
            </text>
        </BalloonStyle>
    </Style>

  <ScreenOverlay>
    <name>Logos</name>
    <description></description>
    <Icon>
      <href>https://www.wpc.ncep.noaa.gov/images/noaa_and_nws_logo.png</href>
    </Icon>
   <overlayXY x=".01" y=".01" xunits="fraction" yunits="fraction" />
   <screenXY x=".01" y=".01" xunits="fraction" yunits="fraction" />
   <rotationXY x="0" y="0" xunits="fraction" yunits="fraction" />
   <size x="-1" y="-1" xunits="fraction" yunits="fraction" />
  </ScreenOverlay>
    <Folder>
      <name>Snow Probabilities</name>
      <open>0</open>
<Placemark>
  <name>1%</name>
  <visibility>1</visibility>
  <styleUrl>#poly_1</styleUrl>
  <MultiGeometry>
    <Polygon>
      <outerBoundaryIs>
        <LinearRing>
          <coordinates>
-124.16,50.99,0 -124.12,51.00,0 -124.08,51.01,0 -124.04,51.02,0 -123.99,51.03,0 -123.95,51.03,0 -123.91,51.04,0 -123.87,51.05,0 -123.83,51.05,0 -123.79,51.06,0 -123.74,51.06,0 -123.70,51.06,0 -123.66,51.06,0 -123.62,51.05,0 -123.58,51.04,0 -123.54,51.03,0 -123.50,51.01,0 -123.46,51.00,0 -123.43,50.98,0 -123.40,50.96,0 -123.38,50.94,0 -123.36,50.91,0 -123.35,50.88,0 -123.34,50.86,0 -123.33,50.83,0 -123.32,50.80,0 -123.31,50.77,0 -123.30,50.75,0 -123.29,50.72,0 -123.28,50.69,0 -123.28,50.67,0 -123.27,50.64,0 -123.26,50.61,0 -123.25,50.59,0 -123.24,50.56,0 -123.23,50.53,0 -123.23,50.51,0 -123.24,50.48,0 -123.25,50.46,0 -123.27,50.43,0 -123.30,50.41,0 -123.32,50.38,0 -123.35,50.36,0 -123.38,50.34,0 -123.41,50.32,0 -123.45,50.30,0 -123.48,50.29,0 -123.52,50.29,0 -123.57,50.28,0 -123.61,50.28,0 -123.65,50.27,0 -123.69,50.26,0 -123.74,50.26,0 -123.78,50.25,0 -123.82,50.25,0 -123.87,50.25,0 -123.91,50.25,0 -123.95,50.26,0 -123.99,50.27,0 -124.03,50.28,0 -124.07,50.30,0 -124.10,50.31,0 -124.13,50.33,0 -124.16,50.35,0 -124.18,50.37,0 -124.20,50.40,0 -124.21,50.43,0 -124.22,50.45,0 -124.23,50.48,0 -124.24,50.51,0 -124.25,50.54,0 -124.26,50.56,0 -124.27,50.59,0 -124.28,50.62,0 -124.29,50.64,0 -124.30,50.67,0 -124.31,50.70,0 -124.31,50.72,0 -124.32,50.75,0 -124.32,50.78,0 -124.33,50.80,0 -124.33,50.83,0 -124.16,50.99,0 
          </coordinates>
        </LinearRing>
      </outerBoundaryIs>
      <innerBoundaryIs>
        <LinearRing>
          <coordinates>
-124.13,50.89,1000 -124.10,50.91,1000 -124.07,50.93,1000 -124.04,50.94,1000 -124.00,50.96,1000 -123.97,50.97,1000 -123.94,50.98,1000 -123.90,50.99,1000 -123.87,50.99,1000 -123.83,50.99,1000 -123.79,50.99,1000 -123.75,50.98,1000 -123.71,50.98,1000 -123.68,50.97,1000 -123.64,50.96,1000 -123.62,50.96,1000 -123.58,50.96,1000 -123.56,50.94,1000 -123.54,50.93,1000 -123.52,50.91,1000 -123.49,50.90,1000 -123.46,50.88,1000 -123.44,50.86,1000 -123.41,50.84,1000 -123.39,50.82,1000 -123.37,50.80,1000 -123.35,50.78,1000 -123.34,50.76,1000 -123.33,50.73,1000 -123.32,50.71,1000 -123.32,50.69,1000 -123.32,50.66,1000 -123.32,50.64,1000 -123.32,50.62,1000 -123.33,50.59,1000 -123.34,50.57,1000 -123.35,50.54,1000 -123.37,50.52,1000 -123.38,50.50,1000 -123.39,50.48,1000 -123.40,50.46,1000 -123.41,50.43,1000 -123.44,50.42,1000 -123.46,50.41,1000 -123.48,50.40,1000 -123.51,50.38,1000 -123.54,50.37,1000 -123.57,50.35,1000 -123.61,50.34,1000 -123.64,50.33,1000 -123.67,50.32,1000 -123.71,50.32,1000 -123.75,50.32,1000 -123.79,50.32,1000 -123.84,50.33,1000 -123.88,50.34,1000 -123.91,50.34,1000 -123.94,50.35,1000 -123.98,50.36,1000 -124.00,50.38,1000 -124.02,50.39,1000 -124.04,50.41,1000 -124.07,50.42,1000 -124.09,50.44,1000 -124.12,50.46,1000 -124.15,50.48,1000 -124.17,50.50,1000 -124.19,50.52,1000 -124.21,50.54,1000 -124.22,50.56,1000 -124.23,50.59,1000 -124.24,50.61,1000 -124.25,50.63,1000 -124.25,50.66,1000 -124.25,50.68,1000 -124.25,50.70,1000 -124.24,50.72,1000 -124.23,50.74,1000 -124.22,50.76,1000 -124.21,50.79,1000 -124.20,50.81,1000 -124.18,50.83,1000 -124.17,50.85,1000 -124.13,50.89,1000 
          </coordinates>
        </LinearRing>
      </innerBoundaryIs>
  </Polygon>
 </MultiGeometry>
</Placemark>
<Placemark>
  <name>1%</name>
  <visibility>1</visibility>
  <styleUrl>#poly_1</styleUrl>
  <MultiGeometry>
    <Polygon>
      <outerBoundaryIs>
        <LinearRing>
          <coordinates>
-107.45,38.19,0 -107.42,38.19,0 -107.39,38.20,0 -107.36,38.20,0 -107.33,38.20,0 -107.29,38.20,0 -107.26,38.21,0 -107.23,38.21,0 -107.20,38.21,0 -107.17,38.22,0 -107.14,38.22,0 -107.11,38.23,0 -107.08,38.23,0 -107.05,38.23,0 -107.03,38.23,0 -107.00,38.23,0 -106.97,38.23,0 -106.94,38.22,0 -106.91,38.21,0 -106.89,38.20,0 -106.86,38.19,0 -106.84,38.18,0 -106.82,38.17,0 -106.79,38.16,0 -106.77,38.14,0 -106.76,38.13,0 -106.74,38.11,0 -106.72,38.09,0 -106.70,38.07,0 -106.68,38.04,0 -106.67,38.02,0 -106.66,38.00,0 -106.66,37.98,0 -106.67,37.96,0 -106.68,37.93,0 -106.70,37.91,0 -106.71,37.89,0 -106.73,37.87,0 -106.74,37.86,0 -106.75,37.84,0 -106.78,37.82,0 -106.80,37.81,0 -106.82,37.80,0 -106.84,37.78,0 -106.87,37.77,0 -106.89,37.75,0 -106.92,37.74,0 -106.95,37.73,0 -106.98,37.72,0 -107.01,37.72,0 -107.04,37.72,0 -107.07,37.72,0 -107.11,37.71,0 -107.14,37.71,0 -107.17,37.71,0 -107.20,37.71,0 -107.23,37.70,0 -107.26,37.69,0 -107.30,37.69,0 -107.33,37.68,0 -107.36,37.68,0 -107.39,37.68,0 -107.42,37.69,0 -107.45,37.69,0 -107.48,37.71,0 -107.51,37.72,0 -107.54,37.73,0 -107.57,37.74,0 -107.59,37.75,0 -107.61,37.76,0 -107.63,37.77,0 -107.64,37.78,0 -107.66,37.80,0 -107.67,37.82,0 -107.69,37.84,0 -107.71,37.86,0 -107.72,37.89,0 -107.73,37.91,0 -107.74,37.93,0 -107.74,37.96,0 -107.73,37.98,0 -107.72,38.01,0 -107.70,38.03,0 -107.68,38.05,0 -107.67,38.07,0 -107.65,38.09,0 -107.63,38.10,0 -107.61,38.11,0 -107.45,38.19,0 
          </coordinates>
        </LinearRing>
      </outerBoundaryIs>
  </Polygon>
 </MultiGeometry>
</Placemark>
<Placemark>
  <name>1%</name>
  <visibility>1</visibility>
  <styleUrl>#poly_1</styleUrl>
  <MultiGeometry>
    <Polygon>
      <outerBoundaryIs>
        <LinearRing>
          <coordinates>
-118.31,51.71,0 -118.17,51.73,0 -118.04,51.75,0 -117.91,51.77,0 -117.78,51.78,0 -117.67,51.79,0 -117.57,51.79,0 -117.42,51.76,0 -117.30,51.71,0 -117.20,51.69,0 -117.10,51.73,0 -117.02,51.80,0 -116.92,51.86,0 -116.82,51.88,0 -116.70,51.90,0 -116.54,51.91,0 -116.42,51.92,0 -116.29,51.94,0 -116.13,51.96,0 -115.98,51.97,0 -115.84,51.98,0 -115.73,51.99,0 -115.57,51.99,0 -115.46,51.98,0 -115.37,51.95,0 -115.30,51.90,0 -115.24,51.83,0 -115.17,51.75,0 -115.11,51.69,0 -115.04,51.63,0 -114.96,51.57,0 -114.89,51.50,0 -114.84,51.43,0 -114.81,51.36,0 -114.79,51.28,0 -114.77,51.21,0 -114.75,51.14,0 -114.73,51.08,0 -114.66,51.01,0 -114.58,50.95,0 -114.52,50.89,0 -114.48,50.81,0 -114.45,50.73,0 -114.46,50.64,0 -114.50,50.58,0 -114.56,50.50,0 -114.64,50.43,0 -114.71,50.36,0 -114.77,50.31,0 -114.85,50.25,0 -114.93,50.24,0 -115.01,50.23,0 -115.11,50.22,0 -115.22,50.24,0 -115.31,50.27,0 -115.41,50.33,0 -115.51,50.38,0 -115.60,50.42,0 -115.72,50.47,0 -115.83,50.50,0 -115.91,50.50,0 -115.94,50.45,0 -115.93,50.36,0 -115.93,50.27,0 -115.95,50.20,0 -115.99,50.13,0 -116.03,50.05,0 -116.07,49.98,0 -116.11,49.90,0 -116.16,49.83,0 -116.23,49.78,0 -116.34,49.76,0 -116.48,49.76,0 -116.61,49.78,0 -116.73,49.80,0 -116.84,49.84,0 -116.92,49.90,0 -116.99,49.97,0 -117.03,50.04,0 -117.05,50.12,0 -117.11,50.19,0 -117.20,50.23,0 -117.31,50.26,0 -117.43,50.29,0 -117.52,50.33,0 -117.60,50.39,0 -117.64,50.45,0 -117.70,50.50,0 -117.76,50.55,0 -117.83,50.59,0 -117.93,50.63,0 -118.05,50.65,0 -118.20,50.67,0 -118.34,50.69,0 -118.43,50.72,0 -118.43,50.78,0 -118.37,50.85,0 -118.35,50.91,0 -118.44,50.93,0 -118.58,50.93,0 -118.71,50.95,0 -118.80,51.01,0 -118.87,51.08,0 -118.92,51.16,0 -118.93,51.24,0 -118.92,51.33,0 -118.87,51.41,0 -118.81,51.45,0 -118.72,51.49,0 -118.63,51.51,0 -118.52,51.54,0 -118.31,51.71,0 
          </coordinates>
        </LinearRing>
      </outerBoundaryIs>
      <innerBoundaryIs>
        <LinearRing>
          <coordinates>
-118.28,51.61,1000 -118.19,51.66,1000 -118.10,51.70,1000 -118.00,51.73,1000 -117.90,51.74,1000 -117.80,51.74,1000 -117.68,51.73,1000 -117.57,51.71,1000 -117.46,51.68,1000 -117.34,51.65,1000 -117.23,51.64,1000 -117.14,51.66,1000 -117.06,51.70,1000 -116.98,51.75,1000 -116.90,51.79,1000 -116.79,51.83,1000 -116.69,51.86,1000 -116.58,51.88,1000 -116.48,51.90,1000 -116.38,51.91,1000 -116.25,51.92,1000 -116.14,51.93,1000 -116.00,51.93,1000 -115.86,51.93,1000 -115.72,51.93,1000 -115.62,51.93,1000 -115.48,51.92,1000 -115.40,51.88,1000 -115.34,51.84,1000 -115.28,51.78,1000 -115.22,51.72,1000 -115.17,51.66,1000 -115.13,51.59,1000 -115.09,51.52,1000 -115.05,51.46,1000 -115.01,51.40,1000 -114.99,51.35,1000 -114.97,51.30,1000 -114.98,51.25,1000 -115.00,51.19,1000 -114.99,51.10,1000 -114.96,51.04,1000 -114.91,50.98,1000 -114.85,50.90,1000 -114.79,50.82,1000 -114.74,50.75,1000 -114.70,50.68,1000 -114.68,50.62,1000 -114.70,50.54,1000 -114.76,50.47,1000 -114.84,50.42,1000 -114.93,50.39,1000 -115.02,50.38,1000 -115.13,50.38,1000 -115.24,50.40,1000 -115.35,50.42,1000 -115.43,50.45,1000 -115.51,50.49,1000 -115.60,50.54,1000 -115.67,50.58,1000 -115.74,50.61,1000 -115.84,50.65,1000 -115.93,50.68,1000 -115.99,50.66,1000 -116.01,50.61,1000 -116.02,50.54,1000 -116.03,50.46,1000 -116.04,50.38,1000 -116.06,50.30,1000 -116.09,50.23,1000 -116.13,50.16,1000 -116.18,50.09,1000 -116.23,50.04,1000 -116.28,49.99,1000 -116.37,49.94,1000 -116.46,49.92,1000 -116.56,49.92,1000 -116.65,49.94,1000 -116.75,49.97,1000 -116.84,50.02,1000 -116.93,50.07,1000 -116.99,50.12,1000 -117.03,50.19,1000 -117.08,50.25,1000 -117.12,50.32,1000 -117.17,50.37,1000 -117.26,50.43,1000 -117.35,50.46,1000 -117.46,50.51,1000 -117.53,50.55,1000 -117.62,50.59,1000 -117.70,50.63,1000 -117.78,50.68,1000 -117.85,50.72,1000 -117.92,50.78,1000 -117.96,50.84,1000 -118.02,50.89,1000 -118.10,50.94,1000 -118.20,50.96,1000 -118.32,50.98,1000 -118.45,50.99,1000 -118.57,51.00,1000 -118.66,51.02,1000 -118.77,51.07,1000 -118.80,51.14,1000 -118.81,51.20,1000 -118.80,51.28,1000 -118.79,51.36,1000 -118.28,51.61,1000 
          </coordinates>
        </LinearRing>
      </innerBoundaryIs>
  </Polygon>
 </MultiGeometry>
</Placemark>
<Placemark>
  <name>5%</name>
  <visibility>1</visibility>
  <styleUrl>#poly_5</styleUrl>
  <MultiGeometry>
    <Polygon>
      <outerBoundaryIs>
        <LinearRing>
          <coordinates>
-124.13,50.89,1000 -124.10,50.91,1000 -124.07,50.93,1000 -124.04,50.94,1000 -124.00,50.96,1000 -123.97,50.97,1000 -123.94,50.98,1000 -123.90,50.99,1000 -123.87,50.99,1000 -123.83,50.99,1000 -123.79,50.99,1000 -123.75,50.98,1000 -123.71,50.98,1000 -123.68,50.97,1000 -123.64,50.96,1000 -123.62,50.96,1000 -123.58,50.96,1000 -123.56,50.94,1000 -123.54,50.93,1000 -123.52,50.91,1000 -123.49,50.90,1000 -123.46,50.88,1000 -123.44,50.86,1000 -123.41,50.84,1000 -123.39,50.82,1000 -123.37,50.80,1000 -123.35,50.78,1000 -123.34,50.76,1000 -123.33,50.73,1000 -123.32,50.71,1000 -123.32,50.69,1000 -123.32,50.66,1000 -123.32,50.64,1000 -123.32,50.62,1000 -123.33,50.59,1000 -123.34,50.57,1000 -123.35,50.54,1000 -123.37,50.52,1000 -123.38,50.50,1000 -123.39,50.48,1000 -123.40,50.46,1000 -123.41,50.43,1000 -123.44,50.42,1000 -123.46,50.41,1000 -123.48,50.40,1000 -123.51,50.38,1000 -123.54,50.37,1000 -123.57,50.35,1000 -123.61,50.34,1000 -123.64,50.33,1000 -123.67,50.32,1000 -123.71,50.32,1000 -123.75,50.32,1000 -123.79,50.32,1000 -123.84,50.33,1000 -123.88,50.34,1000 -123.91,50.34,1000 -123.94,50.35,1000 -123.98,50.36,1000 -124.00,50.38,1000 -124.02,50.39,1000 -124.04,50.41,1000 -124.07,50.42,1000 -124.09,50.44,1000 -124.12,50.46,1000 -124.15,50.48,1000 -124.17,50.50,1000 -124.19,50.52,1000 -124.21,50.54,1000 -124.22,50.56,1000 -124.23,50.59,1000 -124.24,50.61,1000 -124.25,50.63,1000 -124.25,50.66,1000 -124.25,50.68,1000 -124.25,50.70,1000 -124.24,50.72,1000 -124.23,50.74,1000 -124.22,50.76,1000 -124.21,50.79,1000 -124.20,50.81,1000 -124.18,50.83,1000 -124.17,50.85,1000 -124.13,50.89,1000 
          </coordinates>
        </LinearRing>
      </outerBoundaryIs>
      <innerBoundaryIs>
        <LinearRing>
          <coordinates>
-123.88,50.93,2000 -123.85,50.93,2000 -123.82,50.92,2000 -123.79,50.92,2000 -123.76,50.91,2000 -123.74,50.91,2000 -123.71,50.90,2000 -123.68,50.90,2000 -123.65,50.89,2000 -123.63,50.89,2000 -123.60,50.88,2000 -123.58,50.87,2000 -123.55,50.86,2000 -123.53,50.85,2000 -123.50,50.84,2000 -123.48,50.82,2000 -123.46,50.81,2000 -123.44,50.79,2000 -123.43,50.78,2000 -123.42,50.76,2000 -123.41,50.74,2000 -123.40,50.72,2000 -123.40,50.70,2000 -123.39,50.68,2000 -123.39,50.66,2000 -123.39,50.65,2000 -123.39,50.63,2000 -123.39,50.61,2000 -123.40,50.59,2000 -123.41,50.57,2000 -123.43,50.55,2000 -123.44,50.53,2000 -123.45,50.52,2000 -123.47,50.50,2000 -123.49,50.48,2000 -123.51,50.47,2000 -123.53,50.46,2000 -123.56,50.45,2000 -123.58,50.44,2000 -123.60,50.43,2000 -123.62,50.42,2000 -123.65,50.40,2000 -123.67,50.40,2000 -123.69,50.39,2000 -123.71,50.39,2000 -123.74,50.39,2000 -123.77,50.39,2000 -123.80,50.40,2000 -123.83,50.40,2000 -123.85,50.41,2000 -123.88,50.41,2000 -123.91,50.41,2000 -123.94,50.42,2000 -123.97,50.43,2000 -123.99,50.44,2000 -124.02,50.45,2000 -124.04,50.46,2000 -124.06,50.48,2000 -124.08,50.50,2000 -124.10,50.51,2000 -124.12,50.53,2000 -124.13,50.55,2000 -124.14,50.56,2000 -124.15,50.58,2000 -124.16,50.60,2000 -124.17,50.62,2000 -124.17,50.64,2000 -124.18,50.66,2000 -124.18,50.67,2000 -124.18,50.69,2000 -124.18,50.71,2000 -124.17,50.73,2000 -124.16,50.75,2000 -124.15,50.76,2000 -124.13,50.78,2000 -124.12,50.80,2000 -124.10,50.81,2000 -124.08,50.82,2000 -124.06,50.84,2000 -124.04,50.85,2000 -124.02,50.86,2000 -123.99,50.87,2000 -123.97,50.88,2000 -123.88,50.93,2000 
          </coordinates>
        </LinearRing>
      </innerBoundaryIs>
  </Polygon>
 </MultiGeometry>
</Placemark>
<Placemark>
  <name>5%</name>
  <visibility>1</visibility>
  <styleUrl>#poly_5</styleUrl>
  <MultiGeometry>
    <Polygon>
      <outerBoundaryIs>
        <LinearRing>
          <coordinates>
-118.28,51.61,1000 -118.19,51.66,1000 -118.10,51.70,1000 -118.00,51.73,1000 -117.90,51.74,1000 -117.80,51.74,1000 -117.68,51.73,1000 -117.57,51.71,1000 -117.46,51.68,1000 -117.34,51.65,1000 -117.23,51.64,1000 -117.14,51.66,1000 -117.06,51.70,1000 -116.98,51.75,1000 -116.90,51.79,1000 -116.79,51.83,1000 -116.69,51.86,1000 -116.58,51.88,1000 -116.48,51.90,1000 -116.38,51.91,1000 -116.25,51.92,1000 -116.14,51.93,1000 -116.00,51.93,1000 -115.86,51.93,1000 -115.72,51.93,1000 -115.62,51.93,1000 -115.48,51.92,1000 -115.40,51.88,1000 -115.34,51.84,1000 -115.28,51.78,1000 -115.22,51.72,1000 -115.17,51.66,1000 -115.13,51.59,1000 -115.09,51.52,1000 -115.05,51.46,1000 -115.01,51.40,1000 -114.99,51.35,1000 -114.97,51.30,1000 -114.98,51.25,1000 -115.00,51.19,1000 -114.99,51.10,1000 -114.96,51.04,1000 -114.91,50.98,1000 -114.85,50.90,1000 -114.79,50.82,1000 -114.74,50.75,1000 -114.70,50.68,1000 -114.68,50.62,1000 -114.70,50.54,1000 -114.76,50.47,1000 -114.84,50.42,1000 -114.93,50.39,1000 -115.02,50.38,1000 -115.13,50.38,1000 -115.24,50.40,1000 -115.35,50.42,1000 -115.43,50.45,1000 -115.51,50.49,1000 -115.60,50.54,1000 -115.67,50.58,1000 -115.74,50.61,1000 -115.84,50.65,1000 -115.93,50.68,1000 -115.99,50.66,1000 -116.01,50.61,1000 -116.02,50.54,1000 -116.03,50.46,1000 -116.04,50.38,1000 -116.06,50.30,1000 -116.09,50.23,1000 -116.13,50.16,1000 -116.18,50.09,1000 -116.23,50.04,1000 -116.28,49.99,1000 -116.37,49.94,1000 -116.46,49.92,1000 -116.56,49.92,1000 -116.65,49.94,1000 -116.75,49.97,1000 -116.84,50.02,1000 -116.93,50.07,1000 -116.99,50.12,1000 -117.03,50.19,1000 -117.08,50.25,1000 -117.12,50.32,1000 -117.17,50.37,1000 -117.26,50.43,1000 -117.35,50.46,1000 -117.46,50.51,1000 -117.53,50.55,1000 -117.62,50.59,1000 -117.70,50.63,1000 -117.78,50.68,1000 -117.85,50.72,1000 -117.92,50.78,1000 -117.96,50.84,1000 -118.02,50.89,1000 -118.10,50.94,1000 -118.20,50.96,1000 -118.32,50.98,1000 -118.45,50.99,1000 -118.57,51.00,1000 -118.66,51.02,1000 -118.77,51.07,1000 -118.80,51.14,1000 -118.81,51.20,1000 -118.80,51.28,1000 -118.79,51.36,1000 -118.28,51.61,1000 
          </coordinates>
        </LinearRing>
      </outerBoundaryIs>
      <innerBoundaryIs>
        <LinearRing>
          <coordinates>
-118.03,51.68,2000 -117.93,51.69,2000 -117.83,51.70,2000 -117.74,51.70,2000 -117.64,51.68,2000 -117.54,51.65,2000 -117.46,51.63,2000 -117.38,51.61,2000 -117.29,51.61,2000 -117.19,51.62,2000 -117.09,51.65,2000 -116.98,51.68,2000 -116.91,51.71,2000 -116.84,51.75,2000 -116.76,51.80,2000 -116.65,51.83,2000 -116.55,51.85,2000 -116.44,51.87,2000 -116.31,51.88,2000 -116.19,51.89,2000 -116.07,51.90,2000 -115.98,51.91,2000 -115.85,51.92,2000 -115.76,51.91,2000 -115.68,51.90,2000 -115.58,51.89,2000 -115.48,51.84,2000 -115.43,51.80,2000 -115.36,51.74,2000 -115.30,51.68,2000 -115.24,51.61,2000 -115.20,51.56,2000 -115.15,51.49,2000 -115.12,51.44,2000 -115.11,51.38,2000 -115.12,51.32,2000 -115.13,51.25,2000 -115.13,51.17,2000 -115.10,51.11,2000 -115.06,51.04,2000 -115.02,50.98,2000 -114.98,50.91,2000 -114.94,50.86,2000 -114.88,50.79,2000 -114.84,50.74,2000 -114.83,50.69,2000 -114.82,50.64,2000 -114.84,50.59,2000 -114.88,50.54,2000 -114.95,50.50,2000 -115.03,50.47,2000 -115.11,50.47,2000 -115.20,50.48,2000 -115.29,50.50,2000 -115.38,50.52,2000 -115.46,50.55,2000 -115.54,50.58,2000 -115.62,50.62,2000 -115.70,50.66,2000 -115.77,50.71,2000 -115.84,50.76,2000 -115.91,50.81,2000 -115.98,50.84,2000 -116.08,50.86,2000 -116.18,50.87,2000 -116.25,50.86,2000 -116.27,50.84,2000 -116.23,50.78,2000 -116.20,50.73,2000 -116.17,50.68,2000 -116.13,50.61,2000 -116.09,50.55,2000 -116.08,50.49,2000 -116.09,50.42,2000 -116.12,50.36,2000 -116.17,50.30,2000 -116.20,50.25,2000 -116.23,50.19,2000 -116.26,50.15,2000 -116.30,50.11,2000 -116.37,50.06,2000 -116.45,50.02,2000 -116.54,50.00,2000 -116.62,50.02,2000 -116.71,50.05,2000 -116.80,50.10,2000 -116.89,50.15,2000 -116.95,50.20,2000 -116.99,50.25,2000 -117.04,50.31,2000 -117.10,50.38,2000 -117.18,50.44,2000 -117.25,50.48,2000 -117.33,50.53,2000 -117.42,50.58,2000 -117.52,50.63,2000 -117.62,50.68,2000 -117.71,50.72,2000 -117.79,50.76,2000 -117.85,50.80,2000 -117.95,50.87,2000 -117.99,50.92,2000 -118.03,50.96,2000 -118.11,50.99,2000 -118.22,51.02,2000 -118.30,51.04,2000 -118.40,51.06,2000 -118.51,51.09,2000 -118.61,51.11,2000 -118.67,51.14,2000 -118.72,51.19,2000 -118.71,51.25,2000 -118.66,51.31,2000 -118.61,51.35,2000 -118.54,51.40,2000 -118.45,51.45,2000 -118.36,51.50,2000 -118.26,51.55,2000 -118.03,51.68,2000 
          </coordinates>
        </LinearRing>
      </innerBoundaryIs>
  </Polygon>
 </MultiGeometry>
</Placemark>
<Placemark>
  <name>10%</name>
  <visibility>1</visibility>
  <styleUrl>#poly_10</styleUrl>
  <MultiGeometry>
    <Polygon>
      <outerBoundaryIs>
        <LinearRing>
          <coordinates>
-118.03,51.68,2000 -117.93,51.69,2000 -117.83,51.70,2000 -117.74,51.70,2000 -117.64,51.68,2000 -117.54,51.65,2000 -117.46,51.63,2000 -117.38,51.61,2000 -117.29,51.61,2000 -117.19,51.62,2000 -117.09,51.65,2000 -116.98,51.68,2000 -116.91,51.71,2000 -116.84,51.75,2000 -116.76,51.80,2000 -116.65,51.83,2000 -116.55,51.85,2000 -116.44,51.87,2000 -116.31,51.88,2000 -116.19,51.89,2000 -116.07,51.90,2000 -115.98,51.91,2000 -115.85,51.92,2000 -115.76,51.91,2000 -115.68,51.90,2000 -115.58,51.89,2000 -115.48,51.84,2000 -115.43,51.80,2000 -115.36,51.74,2000 -115.30,51.68,2000 -115.24,51.61,2000 -115.20,51.56,2000 -115.15,51.49,2000 -115.12,51.44,2000 -115.11,51.38,2000 -115.12,51.32,2000 -115.13,51.25,2000 -115.13,51.17,2000 -115.10,51.11,2000 -115.06,51.04,2000 -115.02,50.98,2000 -114.98,50.91,2000 -114.94,50.86,2000 -114.88,50.79,2000 -114.84,50.74,2000 -114.83,50.69,2000 -114.82,50.64,2000 -114.84,50.59,2000 -114.88,50.54,2000 -114.95,50.50,2000 -115.03,50.47,2000 -115.11,50.47,2000 -115.20,50.48,2000 -115.29,50.50,2000 -115.38,50.52,2000 -115.46,50.55,2000 -115.54,50.58,2000 -115.62,50.62,2000 -115.70,50.66,2000 -115.77,50.71,2000 -115.84,50.76,2000 -115.91,50.81,2000 -115.98,50.84,2000 -116.08,50.86,2000 -116.18,50.87,2000 -116.25,50.86,2000 -116.27,50.84,2000 -116.23,50.78,2000 -116.20,50.73,2000 -116.17,50.68,2000 -116.13,50.61,2000 -116.09,50.55,2000 -116.08,50.49,2000 -116.09,50.42,2000 -116.12,50.36,2000 -116.17,50.30,2000 -116.20,50.25,2000 -116.23,50.19,2000 -116.26,50.15,2000 -116.30,50.11,2000 -116.37,50.06,2000 -116.45,50.02,2000 -116.54,50.00,2000 -116.62,50.02,2000 -116.71,50.05,2000 -116.80,50.10,2000 -116.89,50.15,2000 -116.95,50.20,2000 -116.99,50.25,2000 -117.04,50.31,2000 -117.10,50.38,2000 -117.18,50.44,2000 -117.25,50.48,2000 -117.33,50.53,2000 -117.42,50.58,2000 -117.52,50.63,2000 -117.62,50.68,2000 -117.71,50.72,2000 -117.79,50.76,2000 -117.85,50.80,2000 -117.95,50.87,2000 -117.99,50.92,2000 -118.03,50.96,2000 -118.11,50.99,2000 -118.22,51.02,2000 -118.30,51.04,2000 -118.40,51.06,2000 -118.51,51.09,2000 -118.61,51.11,2000 -118.67,51.14,2000 -118.72,51.19,2000 -118.71,51.25,2000 -118.66,51.31,2000 -118.61,51.35,2000 -118.54,51.40,2000 -118.45,51.45,2000 -118.36,51.50,2000 -118.26,51.55,2000 -118.03,51.68,2000 
          </coordinates>
        </LinearRing>
      </outerBoundaryIs>
      <innerBoundaryIs>
        <LinearRing>
          <coordinates>
-116.48,51.80,3000 -116.36,51.81,3000 -116.25,51.82,3000 -116.14,51.83,3000 -116.04,51.83,3000 -115.95,51.84,3000 -115.88,51.84,3000 -115.78,51.85,3000 -115.71,51.83,3000 -115.64,51.81,3000 -115.57,51.78,3000 -115.49,51.74,3000 -115.43,51.70,3000 -115.39,51.65,3000 -115.35,51.60,3000 -115.33,51.55,3000 -115.31,51.49,3000 -115.31,51.44,3000 -115.32,51.40,3000 -115.34,51.35,3000 -115.35,51.29,3000 -115.34,51.22,3000 -115.33,51.17,3000 -115.30,51.11,3000 -115.28,51.05,3000 -115.25,50.98,3000 -115.21,50.91,3000 -115.18,50.84,3000 -115.16,50.77,3000 -115.14,50.72,3000 -115.13,50.67,3000 -115.14,50.64,3000 -115.19,50.61,3000 -115.27,50.62,3000 -115.37,50.66,3000 -115.48,50.70,3000 -115.58,50.74,3000 -115.65,50.77,3000 -115.72,50.81,3000 -115.78,50.86,3000 -115.85,50.90,3000 -115.93,50.95,3000 -116.01,50.98,3000 -116.10,51.01,3000 -116.20,51.03,3000 -116.31,51.05,3000 -116.41,51.07,3000 -116.51,51.09,3000 -116.58,51.09,3000 -116.63,51.09,3000 -116.64,51.06,3000 -116.58,51.02,3000 -116.49,50.95,3000 -116.42,50.88,3000 -116.39,50.83,3000 -116.35,50.77,3000 -116.31,50.71,3000 -116.27,50.65,3000 -116.24,50.58,3000 -116.22,50.53,3000 -116.20,50.48,3000 -116.20,50.42,3000 -116.21,50.37,3000 -116.24,50.33,3000 -116.27,50.29,3000 -116.32,50.24,3000 -116.37,50.20,3000 -116.43,50.17,3000 -116.51,50.14,3000 -116.60,50.13,3000 -116.66,50.15,3000 -116.72,50.18,3000 -116.77,50.21,3000 -116.81,50.23,3000 -116.87,50.28,3000 -116.91,50.31,3000 -116.96,50.36,3000 -117.02,50.41,3000 -117.07,50.46,3000 -117.13,50.51,3000 -117.19,50.55,3000 -117.25,50.58,3000 -117.30,50.61,3000 -117.36,50.63,3000 -117.43,50.66,3000 -117.51,50.71,3000 -117.56,50.74,3000 -117.62,50.79,3000 -117.69,50.83,3000 -117.76,50.89,3000 -117.83,50.94,3000 -117.90,50.99,3000 -117.97,51.04,3000 -118.04,51.08,3000 -118.10,51.12,3000 -118.15,51.15,3000 -118.28,51.19,3000 -118.37,51.17,3000 -118.44,51.17,3000 -118.51,51.20,3000 -118.51,51.25,3000 -118.48,51.28,3000 -118.43,51.33,3000 -118.36,51.37,3000 -118.30,51.42,3000 -118.24,51.46,3000 -118.17,51.50,3000 -118.11,51.54,3000 -118.04,51.58,3000 -117.97,51.60,3000 -117.90,51.61,3000 -117.82,51.62,3000 -117.74,51.62,3000 -117.65,51.61,3000 -117.57,51.60,3000 -117.48,51.58,3000 -117.39,51.56,3000 -117.30,51.54,3000 -117.20,51.52,3000 -116.48,51.80,3000 
          </coordinates>
        </LinearRing>
      </innerBoundaryIs>
  </Polygon>
 </MultiGeometry>
</Placemark>
<Placemark>
  <name>10%</name>
  <visibility>1</visibility>
  <styleUrl>#poly_10</styleUrl>
  <MultiGeometry>
    <Polygon>
      <outerBoundaryIs>
        <LinearRing>
          <coordinates>
-123.88,50.93,2000 -123.85,50.93,2000 -123.82,50.92,2000 -123.79,50.92,2000 -123.76,50.91,2000 -123.74,50.91,2000 -123.71,50.90,2000 -123.68,50.90,2000 -123.65,50.89,2000 -123.63,50.89,2000 -123.60,50.88,2000 -123.58,50.87,2000 -123.55,50.86,2000 -123.53,50.85,2000 -123.50,50.84,2000 -123.48,50.82,2000 -123.46,50.81,2000 -123.44,50.79,2000 -123.43,50.78,2000 -123.42,50.76,2000 -123.41,50.74,2000 -123.40,50.72,2000 -123.40,50.70,2000 -123.39,50.68,2000 -123.39,50.66,2000 -123.39,50.65,2000 -123.39,50.63,2000 -123.39,50.61,2000 -123.40,50.59,2000 -123.41,50.57,2000 -123.43,50.55,2000 -123.44,50.53,2000 -123.45,50.52,2000 -123.47,50.50,2000 -123.49,50.48,2000 -123.51,50.47,2000 -123.53,50.46,2000 -123.56,50.45,2000 -123.58,50.44,2000 -123.60,50.43,2000 -123.62,50.42,2000 -123.65,50.40,2000 -123.67,50.40,2000 -123.69,50.39,2000 -123.71,50.39,2000 -123.74,50.39,2000 -123.77,50.39,2000 -123.80,50.40,2000 -123.83,50.40,2000 -123.85,50.41,2000 -123.88,50.41,2000 -123.91,50.41,2000 -123.94,50.42,2000 -123.97,50.43,2000 -123.99,50.44,2000 -124.02,50.45,2000 -124.04,50.46,2000 -124.06,50.48,2000 -124.08,50.50,2000 -124.10,50.51,2000 -124.12,50.53,2000 -124.13,50.55,2000 -124.14,50.56,2000 -124.15,50.58,2000 -124.16,50.60,2000 -124.17,50.62,2000 -124.17,50.64,2000 -124.18,50.66,2000 -124.18,50.67,2000 -124.18,50.69,2000 -124.18,50.71,2000 -124.17,50.73,2000 -124.16,50.75,2000 -124.15,50.76,2000 -124.13,50.78,2000 -124.12,50.80,2000 -124.10,50.81,2000 -124.08,50.82,2000 -124.06,50.84,2000 -124.04,50.85,2000 -124.02,50.86,2000 -123.99,50.87,2000 -123.97,50.88,2000 -123.88,50.93,2000 
          </coordinates>
        </LinearRing>
      </outerBoundaryIs>
      <innerBoundaryIs>
        <LinearRing>
          <coordinates>
-123.85,50.85,3000 -123.83,50.85,3000 -123.80,50.84,3000 -123.78,50.84,3000 -123.76,50.83,3000 -123.74,50.83,3000 -123.72,50.82,3000 -123.70,50.82,3000 -123.68,50.81,3000 -123.66,50.81,3000 -123.64,50.80,3000 -123.62,50.79,3000 -123.61,50.79,3000 -123.59,50.78,3000 -123.58,50.77,3000 -123.57,50.76,3000 -123.55,50.75,3000 -123.54,50.74,3000 -123.53,50.72,3000 -123.53,50.71,3000 -123.52,50.69,3000 -123.52,50.68,3000 -123.51,50.66,3000 -123.51,50.65,3000 -123.51,50.64,3000 -123.52,50.62,3000 -123.52,50.61,3000 -123.53,50.60,3000 -123.53,50.59,3000 -123.54,50.57,3000 -123.56,50.56,3000 -123.57,50.55,3000 -123.58,50.54,3000 -123.60,50.53,3000 -123.62,50.51,3000 -123.63,50.50,3000 -123.65,50.49,3000 -123.67,50.49,3000 -123.69,50.48,3000 -123.70,50.47,3000 -123.72,50.47,3000 -123.74,50.47,3000 -123.76,50.47,3000 -123.78,50.47,3000 -123.80,50.47,3000 -123.83,50.48,3000 -123.85,50.48,3000 -123.88,50.49,3000 -123.90,50.50,3000 -123.92,50.50,3000 -123.94,50.51,3000 -123.96,50.52,3000 -123.98,50.53,3000 -123.99,50.54,3000 -124.00,50.55,3000 -124.01,50.56,3000 -124.02,50.57,3000 -124.03,50.58,3000 -124.04,50.60,3000 -124.04,50.61,3000 -124.04,50.63,3000 -124.05,50.64,3000 -124.05,50.65,3000 -124.05,50.67,3000 -124.05,50.68,3000 -124.05,50.70,3000 -123.85,50.85,3000 
          </coordinates>
        </LinearRing>
      </innerBoundaryIs>
  </Polygon>
 </MultiGeometry>
</Placemark>
<Placemark>
  <name>20%</name>
  <visibility>1</visibility>
  <styleUrl>#poly_20</styleUrl>
  <MultiGeometry>
    <Polygon>
      <outerBoundaryIs>
        <LinearRing>
          <coordinates>
-123.85,50.85,3000 -123.83,50.85,3000 -123.80,50.84,3000 -123.78,50.84,3000 -123.76,50.83,3000 -123.74,50.83,3000 -123.72,50.82,3000 -123.70,50.82,3000 -123.68,50.81,3000 -123.66,50.81,3000 -123.64,50.80,3000 -123.62,50.79,3000 -123.61,50.79,3000 -123.59,50.78,3000 -123.58,50.77,3000 -123.57,50.76,3000 -123.55,50.75,3000 -123.54,50.74,3000 -123.53,50.72,3000 -123.53,50.71,3000 -123.52,50.69,3000 -123.52,50.68,3000 -123.51,50.66,3000 -123.51,50.65,3000 -123.51,50.64,3000 -123.52,50.62,3000 -123.52,50.61,3000 -123.53,50.60,3000 -123.53,50.59,3000 -123.54,50.57,3000 -123.56,50.56,3000 -123.57,50.55,3000 -123.58,50.54,3000 -123.60,50.53,3000 -123.62,50.51,3000 -123.63,50.50,3000 -123.65,50.49,3000 -123.67,50.49,3000 -123.69,50.48,3000 -123.70,50.47,3000 -123.72,50.47,3000 -123.74,50.47,3000 -123.76,50.47,3000 -123.78,50.47,3000 -123.80,50.47,3000 -123.83,50.48,3000 -123.85,50.48,3000 -123.88,50.49,3000 -123.90,50.50,3000 -123.92,50.50,3000 -123.94,50.51,3000 -123.96,50.52,3000 -123.98,50.53,3000 -123.99,50.54,3000 -124.00,50.55,3000 -124.01,50.56,3000 -124.02,50.57,3000 -124.03,50.58,3000 -124.04,50.60,3000 -124.04,50.61,3000 -124.04,50.63,3000 -124.05,50.64,3000 -124.05,50.65,3000 -124.05,50.67,3000 -124.05,50.68,3000 -124.05,50.70,3000 -123.85,50.85,3000 
          </coordinates>
        </LinearRing>
      </outerBoundaryIs>
      <innerBoundaryIs>
        <LinearRing>
          <coordinates>
-123.83,50.78,4000 -123.81,50.78,4000 -123.80,50.78,4000 -123.78,50.78,4000 -123.77,50.78,4000 -123.76,50.78,4000 -123.74,50.77,4000 -123.73,50.77,4000 -123.72,50.76,4000 -123.71,50.75,4000 -123.71,50.74,4000 -123.70,50.74,4000 -123.70,50.73,4000 -123.69,50.72,4000 -123.69,50.71,4000 -123.68,50.70,4000 -123.68,50.69,4000 -123.68,50.68,4000 -123.67,50.67,4000 -123.67,50.66,4000 -123.67,50.65,4000 -123.66,50.64,4000 -123.66,50.63,4000 -123.66,50.62,4000 -123.66,50.61,4000 -123.66,50.60,4000 -123.66,50.60,4000 -123.66,50.59,4000 -123.66,50.58,4000 -123.67,50.57,4000 -123.68,50.56,4000 -123.68,50.55,4000 -123.69,50.55,4000 -123.71,50.54,4000 -123.72,50.54,4000 -123.73,50.53,4000 -123.74,50.53,4000 -123.75,50.53,4000 -123.77,50.53,4000 -123.78,50.53,4000 -123.79,50.53,4000 -123.81,50.53,4000 -123.82,50.54,4000 -123.84,50.54,4000 -123.85,50.55,4000 -123.86,50.56,4000 -123.86,50.57,4000 -123.87,50.57,4000 -123.87,50.58,4000 -123.88,50.59,4000 -123.88,50.59,4000 -123.88,50.60,4000 -123.89,50.61,4000 -123.89,50.62,4000 -123.89,50.63,4000 -123.89,50.64,4000 -123.90,50.65,4000 -123.90,50.66,4000 -123.90,50.67,4000 -123.90,50.68,4000 -123.90,50.69,4000 -123.91,50.70,4000 -123.91,50.71,4000 -123.91,50.72,4000 -123.83,50.78,4000 
          </coordinates>
        </LinearRing>
      </innerBoundaryIs>
  </Polygon>
 </MultiGeometry>
</Placemark>
<Placemark>
  <name>20%</name>
  <visibility>1</visibility>
  <styleUrl>#poly_20</styleUrl>
  <MultiGeometry>
    <Polygon>
      <outerBoundaryIs>
        <LinearRing>
          <coordinates>
-116.48,51.80,3000 -116.36,51.81,3000 -116.25,51.82,3000 -116.14,51.83,3000 -116.04,51.83,3000 -115.95,51.84,3000 -115.88,51.84,3000 -115.78,51.85,3000 -115.71,51.83,3000 -115.64,51.81,3000 -115.57,51.78,3000 -115.49,51.74,3000 -115.43,51.70,3000 -115.39,51.65,3000 -115.35,51.60,3000 -115.33,51.55,3000 -115.31,51.49,3000 -115.31,51.44,3000 -115.32,51.40,3000 -115.34,51.35,3000 -115.35,51.29,3000 -115.34,51.22,3000 -115.33,51.17,3000 -115.30,51.11,3000 -115.28,51.05,3000 -115.25,50.98,3000 -115.21,50.91,3000 -115.18,50.84,3000 -115.16,50.77,3000 -115.14,50.72,3000 -115.13,50.67,3000 -115.14,50.64,3000 -115.19,50.61,3000 -115.27,50.62,3000 -115.37,50.66,3000 -115.48,50.70,3000 -115.58,50.74,3000 -115.65,50.77,3000 -115.72,50.81,3000 -115.78,50.86,3000 -115.85,50.90,3000 -115.93,50.95,3000 -116.01,50.98,3000 -116.10,51.01,3000 -116.20,51.03,3000 -116.31,51.05,3000 -116.41,51.07,3000 -116.51,51.09,3000 -116.58,51.09,3000 -116.63,51.09,3000 -116.64,51.06,3000 -116.58,51.02,3000 -116.49,50.95,3000 -116.42,50.88,3000 -116.39,50.83,3000 -116.35,50.77,3000 -116.31,50.71,3000 -116.27,50.65,3000 -116.24,50.58,3000 -116.22,50.53,3000 -116.20,50.48,3000 -116.20,50.42,3000 -116.21,50.37,3000 -116.24,50.33,3000 -116.27,50.29,3000 -116.32,50.24,3000 -116.37,50.20,3000 -116.43,50.17,3000 -116.51,50.14,3000 -116.60,50.13,3000 -116.66,50.15,3000 -116.72,50.18,3000 -116.77,50.21,3000 -116.81,50.23,3000 -116.87,50.28,3000 -116.91,50.31,3000 -116.96,50.36,3000 -117.02,50.41,3000 -117.07,50.46,3000 -117.13,50.51,3000 -117.19,50.55,3000 -117.25,50.58,3000 -117.30,50.61,3000 -117.36,50.63,3000 -117.43,50.66,3000 -117.51,50.71,3000 -117.56,50.74,3000 -117.62,50.79,3000 -117.69,50.83,3000 -117.76,50.89,3000 -117.83,50.94,3000 -117.90,50.99,3000 -117.97,51.04,3000 -118.04,51.08,3000 -118.10,51.12,3000 -118.15,51.15,3000 -118.28,51.19,3000 -118.37,51.17,3000 -118.44,51.17,3000 -118.51,51.20,3000 -118.51,51.25,3000 -118.48,51.28,3000 -118.43,51.33,3000 -118.36,51.37,3000 -118.30,51.42,3000 -118.24,51.46,3000 -118.17,51.50,3000 -118.11,51.54,3000 -118.04,51.58,3000 -117.97,51.60,3000 -117.90,51.61,3000 -117.82,51.62,3000 -117.74,51.62,3000 -117.65,51.61,3000 -117.57,51.60,3000 -117.48,51.58,3000 -117.39,51.56,3000 -117.30,51.54,3000 -117.20,51.52,3000 -116.48,51.80,3000 
          </coordinates>
        </LinearRing>
      </outerBoundaryIs>
      <innerBoundaryIs>
        <LinearRing>
          <coordinates>
-118.00,51.56,4000 -117.92,51.58,4000 -117.84,51.59,4000 -117.76,51.59,4000 -117.67,51.58,4000 -117.58,51.56,4000 -117.49,51.54,4000 -117.41,51.52,4000 -117.33,51.50,4000 -117.25,51.49,4000 -117.18,51.47,4000 -117.08,51.45,4000 -117.00,51.43,4000 -116.93,51.43,4000 -116.90,51.46,4000 -116.90,51.50,4000 -116.88,51.55,4000 -116.84,51.59,4000 -116.78,51.64,4000 -116.72,51.68,4000 -116.65,51.71,4000 -116.58,51.73,4000 -116.47,51.75,4000 -116.40,51.76,4000 -116.31,51.77,4000 -116.22,51.78,4000 -116.13,51.78,4000 -116.04,51.79,4000 -115.97,51.79,4000 -115.86,51.79,4000 -115.77,51.79,4000 -115.69,51.78,4000 -115.62,51.76,4000 -115.55,51.74,4000 -115.50,51.69,4000 -115.47,51.65,4000 -115.45,51.60,4000 -115.42,51.55,4000 -115.41,51.49,4000 -115.40,51.44,4000 -115.40,51.39,4000 -115.42,51.34,4000 -115.47,51.30,4000 -115.52,51.26,4000 -115.57,51.23,4000 -115.61,51.19,4000 -115.66,51.13,4000 -115.70,51.08,4000 -115.75,51.04,4000 -115.82,51.03,4000 -115.91,51.04,4000 -116.01,51.06,4000 -116.09,51.07,4000 -116.19,51.08,4000 -116.28,51.10,4000 -116.36,51.12,4000 -116.43,51.15,4000 -116.48,51.19,4000 -116.54,51.24,4000 -116.60,51.27,4000 -116.67,51.30,4000 -116.75,51.33,4000 -116.83,51.35,4000 -116.88,51.35,4000 -116.91,51.33,4000 -116.91,51.28,4000 -116.90,51.23,4000 -116.89,51.18,4000 -116.87,51.12,4000 -116.82,51.06,4000 -116.77,51.02,4000 -116.70,50.97,4000 -116.63,50.93,4000 -116.56,50.88,4000 -116.50,50.84,4000 -116.44,50.79,4000 -116.40,50.74,4000 -116.36,50.69,4000 -116.33,50.64,4000 -116.30,50.58,4000 -116.27,50.53,4000 -116.27,50.47,4000 -116.28,50.43,4000 -116.30,50.38,4000 -116.33,50.34,4000 -116.36,50.30,4000 -116.42,50.25,4000 -116.49,50.21,4000 -116.57,50.20,4000 -116.62,50.22,4000 -116.68,50.25,4000 -116.75,50.30,4000 -116.82,50.35,4000 -116.89,50.40,4000 -116.95,50.44,4000 -117.01,50.48,4000 -117.08,50.53,4000 -117.15,50.57,4000 -117.22,50.62,4000 -117.29,50.66,4000 -117.34,50.69,4000 -117.41,50.73,4000 -117.47,50.76,4000 -117.52,50.79,4000 -117.58,50.83,4000 -117.63,50.86,4000 -117.67,50.90,4000 -117.72,50.94,4000 -117.77,50.99,4000 -117.82,51.03,4000 -117.87,51.07,4000 -117.92,51.11,4000 -117.97,51.15,4000 -118.03,51.19,4000 -118.08,51.22,4000 -118.14,51.26,4000 -118.19,51.30,4000 -118.00,51.56,4000 
          </coordinates>
        </LinearRing>
      </innerBoundaryIs>
  </Polygon>
 </MultiGeometry>
</Placemark>
<Placemark>
  <name>30%</name>
  <visibility>1</visibility>
  <styleUrl>#poly_30</styleUrl>
  <MultiGeometry>
    <Polygon>
      <outerBoundaryIs>
        <LinearRing>
          <coordinates>
-118.00,51.56,4000 -117.92,51.58,4000 -117.84,51.59,4000 -117.76,51.59,4000 -117.67,51.58,4000 -117.58,51.56,4000 -117.49,51.54,4000 -117.41,51.52,4000 -117.33,51.50,4000 -117.25,51.49,4000 -117.18,51.47,4000 -117.08,51.45,4000 -117.00,51.43,4000 -116.93,51.43,4000 -116.90,51.46,4000 -116.90,51.50,4000 -116.88,51.55,4000 -116.84,51.59,4000 -116.78,51.64,4000 -116.72,51.68,4000 -116.65,51.71,4000 -116.58,51.73,4000 -116.47,51.75,4000 -116.40,51.76,4000 -116.31,51.77,4000 -116.22,51.78,4000 -116.13,51.78,4000 -116.04,51.79,4000 -115.97,51.79,4000 -115.86,51.79,4000 -115.77,51.79,4000 -115.69,51.78,4000 -115.62,51.76,4000 -115.55,51.74,4000 -115.50,51.69,4000 -115.47,51.65,4000 -115.45,51.60,4000 -115.42,51.55,4000 -115.41,51.49,4000 -115.40,51.44,4000 -115.40,51.39,4000 -115.42,51.34,4000 -115.47,51.30,4000 -115.52,51.26,4000 -115.57,51.23,4000 -115.61,51.19,4000 -115.66,51.13,4000 -115.70,51.08,4000 -115.75,51.04,4000 -115.82,51.03,4000 -115.91,51.04,4000 -116.01,51.06,4000 -116.09,51.07,4000 -116.19,51.08,4000 -116.28,51.10,4000 -116.36,51.12,4000 -116.43,51.15,4000 -116.48,51.19,4000 -116.54,51.24,4000 -116.60,51.27,4000 -116.67,51.30,4000 -116.75,51.33,4000 -116.83,51.35,4000 -116.88,51.35,4000 -116.91,51.33,4000 -116.91,51.28,4000 -116.90,51.23,4000 -116.89,51.18,4000 -116.87,51.12,4000 -116.82,51.06,4000 -116.77,51.02,4000 -116.70,50.97,4000 -116.63,50.93,4000 -116.56,50.88,4000 -116.50,50.84,4000 -116.44,50.79,4000 -116.40,50.74,4000 -116.36,50.69,4000 -116.33,50.64,4000 -116.30,50.58,4000 -116.27,50.53,4000 -116.27,50.47,4000 -116.28,50.43,4000 -116.30,50.38,4000 -116.33,50.34,4000 -116.36,50.30,4000 -116.42,50.25,4000 -116.49,50.21,4000 -116.57,50.20,4000 -116.62,50.22,4000 -116.68,50.25,4000 -116.75,50.30,4000 -116.82,50.35,4000 -116.89,50.40,4000 -116.95,50.44,4000 -117.01,50.48,4000 -117.08,50.53,4000 -117.15,50.57,4000 -117.22,50.62,4000 -117.29,50.66,4000 -117.34,50.69,4000 -117.41,50.73,4000 -117.47,50.76,4000 -117.52,50.79,4000 -117.58,50.83,4000 -117.63,50.86,4000 -117.67,50.90,4000 -117.72,50.94,4000 -117.77,50.99,4000 -117.82,51.03,4000 -117.87,51.07,4000 -117.92,51.11,4000 -117.97,51.15,4000 -118.03,51.19,4000 -118.08,51.22,4000 -118.14,51.26,4000 -118.19,51.30,4000 -118.00,51.56,4000 
          </coordinates>
        </LinearRing>
      </outerBoundaryIs>
      <innerBoundaryIs>
        <LinearRing>
          <coordinates>
-116.70,51.64,5000 -116.67,51.65,5000 -116.63,51.66,5000 -116.60,51.67,5000 -116.56,51.68,5000 -116.53,51.69,5000 -116.50,51.70,5000 -116.46,51.71,5000 -116.42,51.72,5000 -116.39,51.72,5000 -116.35,51.73,5000 -116.31,51.73,5000 -116.27,51.73,5000 -116.24,51.74,5000 -116.20,51.74,5000 -116.16,51.74,5000 -116.13,51.75,5000 -116.09,51.75,5000 -116.05,51.76,5000 -116.02,51.76,5000 -115.98,51.76,5000 -115.94,51.76,5000 -115.90,51.76,5000 -115.86,51.76,5000 -115.82,51.75,5000 -115.77,51.75,5000 -115.73,51.74,5000 -115.70,51.74,5000 -115.67,51.73,5000 -115.63,51.72,5000 -115.60,51.71,5000 -115.58,51.69,5000 -115.57,51.67,5000 -115.55,51.65,5000 -115.53,51.63,5000 -115.52,51.61,5000 -115.51,51.58,5000 -115.50,51.55,5000 -115.49,51.53,5000 -115.49,51.51,5000 -115.49,51.48,5000 -115.50,51.46,5000 -115.50,51.44,5000 -115.51,51.41,5000 -115.52,51.39,5000 -115.52,51.37,5000 -115.53,51.36,5000 -115.54,51.34,5000 -115.57,51.33,5000 -115.59,51.32,5000 -115.62,51.30,5000 -115.65,51.28,5000 -115.68,51.27,5000 -115.71,51.25,5000 -115.75,51.23,5000 -115.77,51.21,5000 -115.80,51.20,5000 -115.84,51.18,5000 -115.87,51.17,5000 -115.90,51.17,5000 -115.93,51.16,5000 -115.96,51.15,5000 -115.99,51.14,5000 -116.02,51.13,5000 -116.05,51.13,5000 -116.08,51.13,5000 -116.12,51.14,5000 -116.15,51.14,5000 -116.18,51.15,5000 -116.21,51.15,5000 -116.25,51.15,5000 -116.29,51.16,5000 -116.32,51.17,5000 -116.35,51.18,5000 -116.37,51.19,5000 -116.40,51.21,5000 -116.43,51.23,5000 -116.45,51.24,5000 -116.48,51.26,5000 -116.50,51.27,5000 -116.53,51.29,5000 -116.56,51.30,5000 -116.59,51.32,5000 -116.62,51.33,5000 -116.65,51.34,5000 -116.68,51.35,5000 -116.72,51.36,5000 -116.75,51.37,5000 -116.78,51.38,5000 -116.80,51.40,5000 -116.81,51.42,5000 -116.81,51.44,5000 -116.81,51.46,5000 -116.81,51.49,5000 -116.81,51.51,5000 -116.80,51.54,5000 -116.79,51.57,5000 -116.70,51.64,5000 
          </coordinates>
        </LinearRing>
      </innerBoundaryIs>
      <innerBoundaryIs>
        <LinearRing>
          <coordinates>
-117.99,51.52,5000 -117.93,51.53,5000 -117.87,51.54,5000 -117.81,51.55,5000 -117.75,51.55,5000 -117.69,51.54,5000 -117.62,51.53,5000 -117.56,51.52,5000 -117.49,51.50,5000 -117.43,51.49,5000 -117.36,51.47,5000 -117.29,51.45,5000 -117.22,51.43,5000 -117.17,51.42,5000 -117.10,51.41,5000 -117.06,51.40,5000 -117.02,51.38,5000 -117.00,51.35,5000 -117.00,51.31,5000 -116.99,51.27,5000 -116.97,51.22,5000 -116.95,51.18,5000 -116.92,51.14,5000 -116.89,51.10,5000 -116.86,51.06,5000 -116.83,51.02,5000 -116.79,50.98,5000 -116.75,50.94,5000 -116.70,50.91,5000 -116.66,50.87,5000 -116.61,50.83,5000 -116.57,50.80,5000 -116.53,50.77,5000 -116.49,50.73,5000 -116.45,50.70,5000 -116.42,50.66,5000 -116.40,50.62,5000 -116.39,50.58,5000 -116.37,50.53,5000 -116.37,50.48,5000 -116.37,50.43,5000 -116.38,50.39,5000 -116.42,50.35,5000 -116.48,50.31,5000 -116.54,50.29,5000 -116.60,50.28,5000 -116.65,50.30,5000 -116.70,50.33,5000 -116.75,50.37,5000 -116.80,50.41,5000 -116.84,50.45,5000 -116.87,50.48,5000 -116.91,50.52,5000 -116.96,50.56,5000 -117.01,50.59,5000 -117.07,50.62,5000 -117.13,50.65,5000 -117.19,50.68,5000 -117.25,50.71,5000 -117.30,50.74,5000 -117.35,50.77,5000 -117.41,50.80,5000 -117.46,50.83,5000 -117.51,50.87,5000 -117.56,50.90,5000 -117.60,50.93,5000 -117.64,50.97,5000 -117.68,51.00,5000 -117.72,51.04,5000 -117.76,51.07,5000 -117.80,51.10,5000 -117.84,51.13,5000 -117.90,51.16,5000 -117.96,51.19,5000 -118.02,51.22,5000 -118.07,51.24,5000 -118.11,51.27,5000 -118.13,51.31,5000 -118.13,51.34,5000 -118.12,51.38,5000 -118.10,51.42,5000 -117.99,51.52,5000 
          </coordinates>
        </LinearRing>
      </innerBoundaryIs>
  </Polygon>
 </MultiGeometry>
</Placemark>
<Placemark>
  <name>30%</name>
  <visibility>1</visibility>
  <styleUrl>#poly_30</styleUrl>
  <MultiGeometry>
    <Polygon>
      <outerBoundaryIs>
        <LinearRing>
          <coordinates>
-123.83,50.78,4000 -123.81,50.78,4000 -123.80,50.78,4000 -123.78,50.78,4000 -123.77,50.78,4000 -123.76,50.78,4000 -123.74,50.77,4000 -123.73,50.77,4000 -123.72,50.76,4000 -123.71,50.75,4000 -123.71,50.74,4000 -123.70,50.74,4000 -123.70,50.73,4000 -123.69,50.72,4000 -123.69,50.71,4000 -123.68,50.70,4000 -123.68,50.69,4000 -123.68,50.68,4000 -123.67,50.67,4000 -123.67,50.66,4000 -123.67,50.65,4000 -123.66,50.64,4000 -123.66,50.63,4000 -123.66,50.62,4000 -123.66,50.61,4000 -123.66,50.60,4000 -123.66,50.60,4000 -123.66,50.59,4000 -123.66,50.58,4000 -123.67,50.57,4000 -123.68,50.56,4000 -123.68,50.55,4000 -123.69,50.55,4000 -123.71,50.54,4000 -123.72,50.54,4000 -123.73,50.53,4000 -123.74,50.53,4000 -123.75,50.53,4000 -123.77,50.53,4000 -123.78,50.53,4000 -123.79,50.53,4000 -123.81,50.53,4000 -123.82,50.54,4000 -123.84,50.54,4000 -123.85,50.55,4000 -123.86,50.56,4000 -123.86,50.57,4000 -123.87,50.57,4000 -123.87,50.58,4000 -123.88,50.59,4000 -123.88,50.59,4000 -123.88,50.60,4000 -123.89,50.61,4000 -123.89,50.62,4000 -123.89,50.63,4000 -123.89,50.64,4000 -123.90,50.65,4000 -123.90,50.66,4000 -123.90,50.67,4000 -123.90,50.68,4000 -123.90,50.69,4000 -123.91,50.70,4000 -123.91,50.71,4000 -123.91,50.72,4000 -123.83,50.78,4000 
          </coordinates>
        </LinearRing>
      </outerBoundaryIs>
  </Polygon>
 </MultiGeometry>
</Placemark>
<Placemark>
  <name>40%</name>
  <visibility>1</visibility>
  <styleUrl>#poly_40</styleUrl>
  <MultiGeometry>
    <Polygon>
      <outerBoundaryIs>
        <LinearRing>
          <coordinates>
-116.70,51.64,5000 -116.67,51.65,5000 -116.63,51.66,5000 -116.60,51.67,5000 -116.56,51.68,5000 -116.53,51.69,5000 -116.50,51.70,5000 -116.46,51.71,5000 -116.42,51.72,5000 -116.39,51.72,5000 -116.35,51.73,5000 -116.31,51.73,5000 -116.27,51.73,5000 -116.24,51.74,5000 -116.20,51.74,5000 -116.16,51.74,5000 -116.13,51.75,5000 -116.09,51.75,5000 -116.05,51.76,5000 -116.02,51.76,5000 -115.98,51.76,5000 -115.94,51.76,5000 -115.90,51.76,5000 -115.86,51.76,5000 -115.82,51.75,5000 -115.77,51.75,5000 -115.73,51.74,5000 -115.70,51.74,5000 -115.67,51.73,5000 -115.63,51.72,5000 -115.60,51.71,5000 -115.58,51.69,5000 -115.57,51.67,5000 -115.55,51.65,5000 -115.53,51.63,5000 -115.52,51.61,5000 -115.51,51.58,5000 -115.50,51.55,5000 -115.49,51.53,5000 -115.49,51.51,5000 -115.49,51.48,5000 -115.50,51.46,5000 -115.50,51.44,5000 -115.51,51.41,5000 -115.52,51.39,5000 -115.52,51.37,5000 -115.53,51.36,5000 -115.54,51.34,5000 -115.57,51.33,5000 -115.59,51.32,5000 -115.62,51.30,5000 -115.65,51.28,5000 -115.68,51.27,5000 -115.71,51.25,5000 -115.75,51.23,5000 -115.77,51.21,5000 -115.80,51.20,5000 -115.84,51.18,5000 -115.87,51.17,5000 -115.90,51.17,5000 -115.93,51.16,5000 -115.96,51.15,5000 -115.99,51.14,5000 -116.02,51.13,5000 -116.05,51.13,5000 -116.08,51.13,5000 -116.12,51.14,5000 -116.15,51.14,5000 -116.18,51.15,5000 -116.21,51.15,5000 -116.25,51.15,5000 -116.29,51.16,5000 -116.32,51.17,5000 -116.35,51.18,5000 -116.37,51.19,5000 -116.40,51.21,5000 -116.43,51.23,5000 -116.45,51.24,5000 -116.48,51.26,5000 -116.50,51.27,5000 -116.53,51.29,5000 -116.56,51.30,5000 -116.59,51.32,5000 -116.62,51.33,5000 -116.65,51.34,5000 -116.68,51.35,5000 -116.72,51.36,5000 -116.75,51.37,5000 -116.78,51.38,5000 -116.80,51.40,5000 -116.81,51.42,5000 -116.81,51.44,5000 -116.81,51.46,5000 -116.81,51.49,5000 -116.81,51.51,5000 -116.80,51.54,5000 -116.79,51.57,5000 -116.70,51.64,5000 
          </coordinates>
        </LinearRing>
      </outerBoundaryIs>
      <innerBoundaryIs>
        <LinearRing>
          <coordinates>
-116.69,51.59,6000 -116.66,51.60,6000 -116.64,51.61,6000 -116.61,51.63,6000 -116.59,51.64,6000 -116.56,51.65,6000 -116.53,51.66,6000 -116.50,51.67,6000 -116.48,51.67,6000 -116.45,51.68,6000 -116.42,51.69,6000 -116.39,51.69,6000 -116.35,51.69,6000 -116.32,51.69,6000 -116.29,51.69,6000 -116.26,51.70,6000 -116.22,51.70,6000 -116.19,51.70,6000 -116.16,51.70,6000 -116.13,51.71,6000 -116.09,51.71,6000 -116.06,51.72,6000 -116.03,51.72,6000 -116.00,51.73,6000 -115.96,51.73,6000 -115.93,51.73,6000 -115.90,51.73,6000 -115.87,51.72,6000 -115.83,51.72,6000 -115.80,51.71,6000 -115.76,51.70,6000 -115.73,51.70,6000 -115.70,51.69,6000 -115.68,51.68,6000 -115.66,51.68,6000 -115.65,51.68,6000 -115.64,51.67,6000 -115.63,51.65,6000 -115.62,51.63,6000 -115.60,51.61,6000 -115.59,51.58,6000 -115.58,51.56,6000 -115.57,51.54,6000 -115.56,51.52,6000 -115.56,51.50,6000 -115.56,51.48,6000 -115.57,51.46,6000 -115.59,51.45,6000 -115.60,51.43,6000 -115.62,51.41,6000 -115.63,51.40,6000 -115.66,51.38,6000 -115.68,51.37,6000 -115.70,51.35,6000 -115.72,51.34,6000 -115.73,51.32,6000 -115.75,51.31,6000 -115.77,51.30,6000 -115.79,51.28,6000 -115.82,51.27,6000 -115.84,51.26,6000 -115.87,51.25,6000 -115.89,51.24,6000 -115.92,51.23,6000 -115.95,51.22,6000 -115.98,51.21,6000 -116.01,51.21,6000 -116.04,51.20,6000 -116.07,51.20,6000 -116.10,51.20,6000 -116.13,51.20,6000 -116.17,51.21,6000 -116.20,51.21,6000 -116.23,51.22,6000 -116.26,51.22,6000 -116.29,51.23,6000 -116.32,51.23,6000 -116.34,51.24,6000 -116.37,51.25,6000 -116.38,51.26,6000 -116.41,51.28,6000 -116.43,51.29,6000 -116.45,51.30,6000 -116.48,51.32,6000 -116.51,51.33,6000 -116.54,51.35,6000 -116.57,51.36,6000 -116.60,51.38,6000 -116.62,51.39,6000 -116.64,51.40,6000 -116.67,51.41,6000 -116.68,51.42,6000 -116.68,51.43,6000 -116.69,51.45,6000 -116.69,51.47,6000 -116.69,51.49,6000 -116.69,51.51,6000 -116.70,51.53,6000 -116.70,51.56,6000 -116.70,51.58,6000 -116.69,51.59,6000 
          </coordinates>
        </LinearRing>
      </innerBoundaryIs>
  </Polygon>
 </MultiGeometry>
</Placemark>
<Placemark>
  <name>40%</name>
  <visibility>1</visibility>
  <styleUrl>#poly_40</styleUrl>
  <MultiGeometry>
    <Polygon>
      <outerBoundaryIs>
        <LinearRing>
          <coordinates>
-117.99,51.52,5000 -117.93,51.53,5000 -117.87,51.54,5000 -117.81,51.55,5000 -117.75,51.55,5000 -117.69,51.54,5000 -117.62,51.53,5000 -117.56,51.52,5000 -117.49,51.50,5000 -117.43,51.49,5000 -117.36,51.47,5000 -117.29,51.45,5000 -117.22,51.43,5000 -117.17,51.42,5000 -117.10,51.41,5000 -117.06,51.40,5000 -117.02,51.38,5000 -117.00,51.35,5000 -117.00,51.31,5000 -116.99,51.27,5000 -116.97,51.22,5000 -116.95,51.18,5000 -116.92,51.14,5000 -116.89,51.10,5000 -116.86,51.06,5000 -116.83,51.02,5000 -116.79,50.98,5000 -116.75,50.94,5000 -116.70,50.91,5000 -116.66,50.87,5000 -116.61,50.83,5000 -116.57,50.80,5000 -116.53,50.77,5000 -116.49,50.73,5000 -116.45,50.70,5000 -116.42,50.66,5000 -116.40,50.62,5000 -116.39,50.58,5000 -116.37,50.53,5000 -116.37,50.48,5000 -116.37,50.43,5000 -116.38,50.39,5000 -116.42,50.35,5000 -116.48,50.31,5000 -116.54,50.29,5000 -116.60,50.28,5000 -116.65,50.30,5000 -116.70,50.33,5000 -116.75,50.37,5000 -116.80,50.41,5000 -116.84,50.45,5000 -116.87,50.48,5000 -116.91,50.52,5000 -116.96,50.56,5000 -117.01,50.59,5000 -117.07,50.62,5000 -117.13,50.65,5000 -117.19,50.68,5000 -117.25,50.71,5000 -117.30,50.74,5000 -117.35,50.77,5000 -117.41,50.80,5000 -117.46,50.83,5000 -117.51,50.87,5000 -117.56,50.90,5000 -117.60,50.93,5000 -117.64,50.97,5000 -117.68,51.00,5000 -117.72,51.04,5000 -117.76,51.07,5000 -117.80,51.10,5000 -117.84,51.13,5000 -117.90,51.16,5000 -117.96,51.19,5000 -118.02,51.22,5000 -118.07,51.24,5000 -118.11,51.27,5000 -118.13,51.31,5000 -118.13,51.34,5000 -118.12,51.38,5000 -118.10,51.42,5000 -117.99,51.52,5000 
          </coordinates>
        </LinearRing>
      </outerBoundaryIs>
      <innerBoundaryIs>
        <LinearRing>
          <coordinates>
-117.98,51.47,6000 -117.91,51.49,6000 -117.84,51.50,6000 -117.77,51.51,6000 -117.72,51.52,6000 -117.65,51.51,6000 -117.59,51.49,6000 -117.55,51.48,6000 -117.50,51.46,6000 -117.44,51.44,6000 -117.39,51.43,6000 -117.32,51.41,6000 -117.26,51.39,6000 -117.20,51.38,6000 -117.16,51.37,6000 -117.15,51.37,6000 -117.13,51.35,6000 -117.11,51.32,6000 -117.09,51.28,6000 -117.06,51.24,6000 -117.04,51.21,6000 -117.02,51.17,6000 -117.02,51.13,6000 -117.00,51.10,6000 -116.98,51.06,6000 -116.95,51.03,6000 -116.91,50.99,6000 -116.86,50.96,6000 -116.82,50.93,6000 -116.79,50.91,6000 -116.77,50.90,6000 -116.74,50.87,6000 -116.71,50.84,6000 -116.67,50.80,6000 -116.63,50.76,6000 -116.60,50.72,6000 -116.57,50.69,6000 -116.54,50.65,6000 -116.52,50.61,6000 -116.50,50.57,6000 -116.49,50.53,6000 -116.48,50.48,6000 -116.49,50.45,6000 -116.53,50.41,6000 -116.59,50.38,6000 -116.64,50.37,6000 -116.68,50.38,6000 -116.71,50.42,6000 -116.73,50.45,6000 -116.75,50.48,6000 -116.78,50.52,6000 -116.80,50.55,6000 -116.83,50.58,6000 -116.88,50.61,6000 -116.92,50.62,6000 -116.97,50.64,6000 -117.02,50.66,6000 -117.06,50.69,6000 -117.11,50.71,6000 -117.16,50.73,6000 -117.22,50.76,6000 -117.27,50.78,6000 -117.31,50.80,6000 -117.35,50.82,6000 -117.39,50.85,6000 -117.42,50.88,6000 -117.47,50.91,6000 -117.51,50.95,6000 -117.54,50.98,6000 -117.57,51.00,6000 -117.59,51.01,6000 -117.62,51.04,6000 -117.66,51.07,6000 -117.71,51.11,6000 -117.75,51.14,6000 -117.81,51.17,6000 -117.86,51.20,6000 -117.91,51.22,6000 -117.95,51.24,6000 -117.99,51.25,6000 -118.02,51.28,6000 -118.03,51.31,6000 -118.03,51.35,6000 -118.03,51.39,6000 -118.02,51.44,6000 -117.98,51.47,6000 
          </coordinates>
        </LinearRing>
      </innerBoundaryIs>
  </Polygon>
 </MultiGeometry>
</Placemark>
<Placemark>
  <name>50%</name>
  <visibility>1</visibility>
  <styleUrl>#poly_50</styleUrl>
  <MultiGeometry>
    <Polygon>
      <outerBoundaryIs>
        <LinearRing>
          <coordinates>
-116.69,51.59,6000 -116.66,51.60,6000 -116.64,51.61,6000 -116.61,51.63,6000 -116.59,51.64,6000 -116.56,51.65,6000 -116.53,51.66,6000 -116.50,51.67,6000 -116.48,51.67,6000 -116.45,51.68,6000 -116.42,51.69,6000 -116.39,51.69,6000 -116.35,51.69,6000 -116.32,51.69,6000 -116.29,51.69,6000 -116.26,51.70,6000 -116.22,51.70,6000 -116.19,51.70,6000 -116.16,51.70,6000 -116.13,51.71,6000 -116.09,51.71,6000 -116.06,51.72,6000 -116.03,51.72,6000 -116.00,51.73,6000 -115.96,51.73,6000 -115.93,51.73,6000 -115.90,51.73,6000 -115.87,51.72,6000 -115.83,51.72,6000 -115.80,51.71,6000 -115.76,51.70,6000 -115.73,51.70,6000 -115.70,51.69,6000 -115.68,51.68,6000 -115.66,51.68,6000 -115.65,51.68,6000 -115.64,51.67,6000 -115.63,51.65,6000 -115.62,51.63,6000 -115.60,51.61,6000 -115.59,51.58,6000 -115.58,51.56,6000 -115.57,51.54,6000 -115.56,51.52,6000 -115.56,51.50,6000 -115.56,51.48,6000 -115.57,51.46,6000 -115.59,51.45,6000 -115.60,51.43,6000 -115.62,51.41,6000 -115.63,51.40,6000 -115.66,51.38,6000 -115.68,51.37,6000 -115.70,51.35,6000 -115.72,51.34,6000 -115.73,51.32,6000 -115.75,51.31,6000 -115.77,51.30,6000 -115.79,51.28,6000 -115.82,51.27,6000 -115.84,51.26,6000 -115.87,51.25,6000 -115.89,51.24,6000 -115.92,51.23,6000 -115.95,51.22,6000 -115.98,51.21,6000 -116.01,51.21,6000 -116.04,51.20,6000 -116.07,51.20,6000 -116.10,51.20,6000 -116.13,51.20,6000 -116.17,51.21,6000 -116.20,51.21,6000 -116.23,51.22,6000 -116.26,51.22,6000 -116.29,51.23,6000 -116.32,51.23,6000 -116.34,51.24,6000 -116.37,51.25,6000 -116.38,51.26,6000 -116.41,51.28,6000 -116.43,51.29,6000 -116.45,51.30,6000 -116.48,51.32,6000 -116.51,51.33,6000 -116.54,51.35,6000 -116.57,51.36,6000 -116.60,51.38,6000 -116.62,51.39,6000 -116.64,51.40,6000 -116.67,51.41,6000 -116.68,51.42,6000 -116.68,51.43,6000 -116.69,51.45,6000 -116.69,51.47,6000 -116.69,51.49,6000 -116.69,51.51,6000 -116.70,51.53,6000 -116.70,51.56,6000 -116.70,51.58,6000 -116.69,51.59,6000 
          </coordinates>
        </LinearRing>
      </outerBoundaryIs>
      <innerBoundaryIs>
        <LinearRing>
          <coordinates>
-116.44,51.64,7000 -116.41,51.64,7000 -116.39,51.65,7000 -116.36,51.65,7000 -116.34,51.65,7000 -116.31,51.66,7000 -116.28,51.66,7000 -116.26,51.66,7000 -116.23,51.66,7000 -116.21,51.67,7000 -116.18,51.67,7000 -116.15,51.67,7000 -116.13,51.68,7000 -116.10,51.68,7000 -116.07,51.68,7000 -116.04,51.68,7000 -116.02,51.69,7000 -115.99,51.69,7000 -115.96,51.69,7000 -115.94,51.69,7000 -115.92,51.69,7000 -115.89,51.69,7000 -115.86,51.69,7000 -115.84,51.69,7000 -115.82,51.69,7000 -115.80,51.68,7000 -115.78,51.67,7000 -115.76,51.66,7000 -115.75,51.65,7000 -115.73,51.64,7000 -115.71,51.62,7000 -115.69,51.60,7000 -115.67,51.59,7000 -115.66,51.57,7000 -115.65,51.55,7000 -115.64,51.54,7000 -115.64,51.52,7000 -115.65,51.51,7000 -115.66,51.49,7000 -115.67,51.48,7000 -115.69,51.46,7000 -115.71,51.44,7000 -115.73,51.43,7000 -115.75,51.41,7000 -115.77,51.40,7000 -115.79,51.38,7000 -115.81,51.37,7000 -115.83,51.36,7000 -115.84,51.35,7000 -115.87,51.34,7000 -115.88,51.33,7000 -115.90,51.33,7000 -115.92,51.33,7000 -115.94,51.32,7000 -115.96,51.32,7000 -115.98,51.31,7000 -116.01,51.30,7000 -116.03,51.29,7000 -116.06,51.28,7000 -116.08,51.28,7000 -116.10,51.28,7000 -116.13,51.28,7000 -116.16,51.28,7000 -116.18,51.28,7000 -116.21,51.28,7000 -116.23,51.29,7000 -116.25,51.29,7000 -116.28,51.29,7000 -116.30,51.29,7000 -116.32,51.30,7000 -116.35,51.31,7000 -116.37,51.32,7000 -116.39,51.33,7000 -116.41,51.33,7000 -116.43,51.34,7000 -116.46,51.36,7000 -116.48,51.37,7000 -116.51,51.38,7000 -116.53,51.39,7000 -116.55,51.40,7000 -116.57,51.42,7000 -116.58,51.43,7000 -116.59,51.44,7000 -116.60,51.46,7000 -116.60,51.47,7000 -116.60,51.49,7000 -116.60,51.51,7000 -116.59,51.52,7000 -116.59,51.54,7000 -116.58,51.56,7000 -116.58,51.57,7000 -116.57,51.59,7000 -116.44,51.64,7000 
          </coordinates>
        </LinearRing>
      </innerBoundaryIs>
  </Polygon>
 </MultiGeometry>
</Placemark>
<Placemark>
  <name>50%</name>
  <visibility>1</visibility>
  <styleUrl>#poly_50</styleUrl>
  <MultiGeometry>
    <Polygon>
      <outerBoundaryIs>
        <LinearRing>
          <coordinates>
-117.98,51.47,6000 -117.91,51.49,6000 -117.84,51.50,6000 -117.77,51.51,6000 -117.72,51.52,6000 -117.65,51.51,6000 -117.59,51.49,6000 -117.55,51.48,6000 -117.50,51.46,6000 -117.44,51.44,6000 -117.39,51.43,6000 -117.32,51.41,6000 -117.26,51.39,6000 -117.20,51.38,6000 -117.16,51.37,6000 -117.15,51.37,6000 -117.13,51.35,6000 -117.11,51.32,6000 -117.09,51.28,6000 -117.06,51.24,6000 -117.04,51.21,6000 -117.02,51.17,6000 -117.02,51.13,6000 -117.00,51.10,6000 -116.98,51.06,6000 -116.95,51.03,6000 -116.91,50.99,6000 -116.86,50.96,6000 -116.82,50.93,6000 -116.79,50.91,6000 -116.77,50.90,6000 -116.74,50.87,6000 -116.71,50.84,6000 -116.67,50.80,6000 -116.63,50.76,6000 -116.60,50.72,6000 -116.57,50.69,6000 -116.54,50.65,6000 -116.52,50.61,6000 -116.50,50.57,6000 -116.49,50.53,6000 -116.48,50.48,6000 -116.49,50.45,6000 -116.53,50.41,6000 -116.59,50.38,6000 -116.64,50.37,6000 -116.68,50.38,6000 -116.71,50.42,6000 -116.73,50.45,6000 -116.75,50.48,6000 -116.78,50.52,6000 -116.80,50.55,6000 -116.83,50.58,6000 -116.88,50.61,6000 -116.92,50.62,6000 -116.97,50.64,6000 -117.02,50.66,6000 -117.06,50.69,6000 -117.11,50.71,6000 -117.16,50.73,6000 -117.22,50.76,6000 -117.27,50.78,6000 -117.31,50.80,6000 -117.35,50.82,6000 -117.39,50.85,6000 -117.42,50.88,6000 -117.47,50.91,6000 -117.51,50.95,6000 -117.54,50.98,6000 -117.57,51.00,6000 -117.59,51.01,6000 -117.62,51.04,6000 -117.66,51.07,6000 -117.71,51.11,6000 -117.75,51.14,6000 -117.81,51.17,6000 -117.86,51.20,6000 -117.91,51.22,6000 -117.95,51.24,6000 -117.99,51.25,6000 -118.02,51.28,6000 -118.03,51.31,6000 -118.03,51.35,6000 -118.03,51.39,6000 -118.02,51.44,6000 -117.98,51.47,6000 
          </coordinates>
        </LinearRing>
      </outerBoundaryIs>
      <innerBoundaryIs>
        <LinearRing>
          <coordinates>
-117.71,51.48,7000 -117.69,51.48,7000 -117.66,51.47,7000 -117.62,51.46,7000 -117.57,51.44,7000 -117.52,51.43,7000 -117.47,51.41,7000 -117.43,51.40,7000 -117.38,51.39,7000 -117.34,51.38,7000 -117.30,51.38,7000 -117.26,51.36,7000 -117.23,51.34,7000 -117.20,51.30,7000 -117.17,51.27,7000 -117.14,51.24,7000 -117.12,51.22,7000 -117.11,51.21,7000 -117.10,51.19,7000 -117.09,51.16,7000 -117.08,51.12,7000 -117.07,51.08,7000 -117.05,51.05,7000 -117.03,51.02,7000 -117.01,51.00,7000 -116.99,50.97,7000 -116.97,50.95,7000 -116.95,50.92,7000 -116.92,50.90,7000 -116.89,50.87,7000 -116.86,50.85,7000 -116.82,50.82,7000 -116.79,50.80,7000 -116.76,50.78,7000 -116.74,50.76,7000 -116.73,50.75,7000 -116.72,50.73,7000 -116.71,50.69,7000 -116.70,50.65,7000 -116.70,50.62,7000 -116.69,50.59,7000 -116.69,50.57,7000 -116.70,50.59,7000 -116.71,50.61,7000 -116.73,50.64,7000 -116.76,50.67,7000 -116.78,50.70,7000 -116.81,50.72,7000 -116.83,50.74,7000 -116.88,50.75,7000 -116.93,50.74,7000 -116.99,50.74,7000 -117.03,50.75,7000 -117.07,50.76,7000 -117.12,50.78,7000 -117.16,50.80,7000 -117.21,50.82,7000 -117.25,50.84,7000 -117.29,50.86,7000 -117.32,50.88,7000 -117.35,50.91,7000 -117.38,50.94,7000 -117.40,50.96,7000 -117.42,50.99,7000 -117.45,51.01,7000 -117.48,51.03,7000 -117.52,51.06,7000 -117.55,51.08,7000 -117.58,51.09,7000 -117.61,51.11,7000 -117.63,51.13,7000 -117.67,51.15,7000 -117.70,51.17,7000 -117.75,51.19,7000 -117.80,51.22,7000 -117.85,51.24,7000 -117.89,51.26,7000 -117.92,51.28,7000 -117.93,51.29,7000 -117.93,51.31,7000 -117.91,51.33,7000 -117.89,51.36,7000 -117.87,51.39,7000 -117.84,51.42,7000 -117.81,51.46,7000 -117.71,51.48,7000 
          </coordinates>
        </LinearRing>
      </innerBoundaryIs>
  </Polygon>
 </MultiGeometry>
</Placemark>
<Placemark>
  <name>60%</name>
  <visibility>1</visibility>
  <styleUrl>#poly_60</styleUrl>
  <MultiGeometry>
    <Polygon>
      <outerBoundaryIs>
        <LinearRing>
          <coordinates>
-116.44,51.64,7000 -116.41,51.64,7000 -116.39,51.65,7000 -116.36,51.65,7000 -116.34,51.65,7000 -116.31,51.66,7000 -116.28,51.66,7000 -116.26,51.66,7000 -116.23,51.66,7000 -116.21,51.67,7000 -116.18,51.67,7000 -116.15,51.67,7000 -116.13,51.68,7000 -116.10,51.68,7000 -116.07,51.68,7000 -116.04,51.68,7000 -116.02,51.69,7000 -115.99,51.69,7000 -115.96,51.69,7000 -115.94,51.69,7000 -115.92,51.69,7000 -115.89,51.69,7000 -115.86,51.69,7000 -115.84,51.69,7000 -115.82,51.69,7000 -115.80,51.68,7000 -115.78,51.67,7000 -115.76,51.66,7000 -115.75,51.65,7000 -115.73,51.64,7000 -115.71,51.62,7000 -115.69,51.60,7000 -115.67,51.59,7000 -115.66,51.57,7000 -115.65,51.55,7000 -115.64,51.54,7000 -115.64,51.52,7000 -115.65,51.51,7000 -115.66,51.49,7000 -115.67,51.48,7000 -115.69,51.46,7000 -115.71,51.44,7000 -115.73,51.43,7000 -115.75,51.41,7000 -115.77,51.40,7000 -115.79,51.38,7000 -115.81,51.37,7000 -115.83,51.36,7000 -115.84,51.35,7000 -115.87,51.34,7000 -115.88,51.33,7000 -115.90,51.33,7000 -115.92,51.33,7000 -115.94,51.32,7000 -115.96,51.32,7000 -115.98,51.31,7000 -116.01,51.30,7000 -116.03,51.29,7000 -116.06,51.28,7000 -116.08,51.28,7000 -116.10,51.28,7000 -116.13,51.28,7000 -116.16,51.28,7000 -116.18,51.28,7000 -116.21,51.28,7000 -116.23,51.29,7000 -116.25,51.29,7000 -116.28,51.29,7000 -116.30,51.29,7000 -116.32,51.30,7000 -116.35,51.31,7000 -116.37,51.32,7000 -116.39,51.33,7000 -116.41,51.33,7000 -116.43,51.34,7000 -116.46,51.36,7000 -116.48,51.37,7000 -116.51,51.38,7000 -116.53,51.39,7000 -116.55,51.40,7000 -116.57,51.42,7000 -116.58,51.43,7000 -116.59,51.44,7000 -116.60,51.46,7000 -116.60,51.47,7000 -116.60,51.49,7000 -116.60,51.51,7000 -116.59,51.52,7000 -116.59,51.54,7000 -116.58,51.56,7000 -116.58,51.57,7000 -116.57,51.59,7000 -116.44,51.64,7000 
          </coordinates>
        </LinearRing>
      </outerBoundaryIs>
      <innerBoundaryIs>
        <LinearRing>
          <coordinates>
-116.43,51.60,8000 -116.42,51.61,8000 -116.40,51.61,8000 -116.38,51.62,8000 -116.37,51.62,8000 -116.34,51.62,8000 -116.32,51.62,8000 -116.30,51.62,8000 -116.28,51.63,8000 -116.26,51.63,8000 -116.23,51.63,8000 -116.21,51.63,8000 -116.19,51.63,8000 -116.17,51.63,8000 -116.15,51.63,8000 -116.12,51.63,8000 -116.10,51.64,8000 -116.08,51.64,8000 -116.05,51.64,8000 -116.03,51.64,8000 -116.01,51.64,8000 -115.99,51.65,8000 -115.97,51.65,8000 -115.95,51.65,8000 -115.93,51.65,8000 -115.92,51.65,8000 -115.91,51.65,8000 -115.90,51.64,8000 -115.89,51.64,8000 -115.88,51.63,8000 -115.87,51.62,8000 -115.85,51.60,8000 -115.84,51.59,8000 -115.82,51.58,8000 -115.81,51.57,8000 -115.79,51.55,8000 -115.78,51.54,8000 -115.77,51.53,8000 -115.76,51.52,8000 -115.76,51.51,8000 -115.76,51.50,8000 -115.76,51.49,8000 -115.77,51.48,8000 -115.78,51.46,8000 -115.79,51.46,8000 -115.81,51.45,8000 -115.82,51.44,8000 -115.84,51.43,8000 -115.86,51.42,8000 -115.88,51.41,8000 -115.89,51.41,8000 -115.91,51.40,8000 -115.93,51.39,8000 -115.95,51.39,8000 -115.97,51.38,8000 -115.99,51.38,8000 -116.01,51.37,8000 -116.03,51.37,8000 -116.06,51.37,8000 -116.08,51.36,8000 -116.10,51.36,8000 -116.12,51.36,8000 -116.14,51.36,8000 -116.16,51.36,8000 -116.19,51.36,8000 -116.21,51.36,8000 -116.23,51.36,8000 -116.25,51.36,8000 -116.28,51.37,8000 -116.30,51.37,8000 -116.32,51.37,8000 -116.34,51.37,8000 -116.35,51.38,8000 -116.37,51.38,8000 -116.40,51.39,8000 -116.42,51.39,8000 -116.44,51.40,8000 -116.45,51.41,8000 -116.46,51.41,8000 -116.47,51.43,8000 -116.48,51.44,8000 -116.48,51.45,8000 -116.48,51.46,8000 -116.48,51.47,8000 -116.48,51.49,8000 -116.48,51.50,8000 -116.48,51.51,8000 -116.48,51.53,8000 -116.47,51.54,8000 -116.47,51.56,8000 -116.46,51.57,8000 -116.45,51.58,8000 -116.44,51.59,8000 -116.43,51.60,8000 -116.43,51.60,8000 
          </coordinates>
        </LinearRing>
      </innerBoundaryIs>
  </Polygon>
 </MultiGeometry>
</Placemark>
<Placemark>
  <name>60%</name>
  <visibility>1</visibility>
  <styleUrl>#poly_60</styleUrl>
  <MultiGeometry>
    <Polygon>
      <outerBoundaryIs>
        <LinearRing>
          <coordinates>
-117.71,51.48,7000 -117.69,51.48,7000 -117.66,51.47,7000 -117.62,51.46,7000 -117.57,51.44,7000 -117.52,51.43,7000 -117.47,51.41,7000 -117.43,51.40,7000 -117.38,51.39,7000 -117.34,51.38,7000 -117.30,51.38,7000 -117.26,51.36,7000 -117.23,51.34,7000 -117.20,51.30,7000 -117.17,51.27,7000 -117.14,51.24,7000 -117.12,51.22,7000 -117.11,51.21,7000 -117.10,51.19,7000 -117.09,51.16,7000 -117.08,51.12,7000 -117.07,51.08,7000 -117.05,51.05,7000 -117.03,51.02,7000 -117.01,51.00,7000 -116.99,50.97,7000 -116.97,50.95,7000 -116.95,50.92,7000 -116.92,50.90,7000 -116.89,50.87,7000 -116.86,50.85,7000 -116.82,50.82,7000 -116.79,50.80,7000 -116.76,50.78,7000 -116.74,50.76,7000 -116.73,50.75,7000 -116.72,50.73,7000 -116.71,50.69,7000 -116.70,50.65,7000 -116.70,50.62,7000 -116.69,50.59,7000 -116.69,50.57,7000 -116.70,50.59,7000 -116.71,50.61,7000 -116.73,50.64,7000 -116.76,50.67,7000 -116.78,50.70,7000 -116.81,50.72,7000 -116.83,50.74,7000 -116.88,50.75,7000 -116.93,50.74,7000 -116.99,50.74,7000 -117.03,50.75,7000 -117.07,50.76,7000 -117.12,50.78,7000 -117.16,50.80,7000 -117.21,50.82,7000 -117.25,50.84,7000 -117.29,50.86,7000 -117.32,50.88,7000 -117.35,50.91,7000 -117.38,50.94,7000 -117.40,50.96,7000 -117.42,50.99,7000 -117.45,51.01,7000 -117.48,51.03,7000 -117.52,51.06,7000 -117.55,51.08,7000 -117.58,51.09,7000 -117.61,51.11,7000 -117.63,51.13,7000 -117.67,51.15,7000 -117.70,51.17,7000 -117.75,51.19,7000 -117.80,51.22,7000 -117.85,51.24,7000 -117.89,51.26,7000 -117.92,51.28,7000 -117.93,51.29,7000 -117.93,51.31,7000 -117.91,51.33,7000 -117.89,51.36,7000 -117.87,51.39,7000 -117.84,51.42,7000 -117.81,51.46,7000 -117.71,51.48,7000 
          </coordinates>
        </LinearRing>
      </outerBoundaryIs>
      <innerBoundaryIs>
        <LinearRing>
          <coordinates>
-117.70,51.41,8000 -117.67,51.41,8000 -117.64,51.40,8000 -117.62,51.40,8000 -117.59,51.39,8000 -117.56,51.39,8000 -117.54,51.38,8000 -117.51,51.38,8000 -117.49,51.37,8000 -117.47,51.37,8000 -117.45,51.37,8000 -117.43,51.36,8000 -117.42,51.36,8000 -117.39,51.36,8000 -117.38,51.36,8000 -117.37,51.34,8000 -117.36,51.33,8000 -117.35,51.32,8000 -117.34,51.31,8000 -117.33,51.30,8000 -117.31,51.29,8000 -117.30,51.27,8000 -117.29,51.26,8000 -117.27,51.25,8000 -117.26,51.23,8000 -117.25,51.22,8000 -117.24,51.20,8000 -117.24,51.19,8000 -117.24,51.18,8000 -117.24,51.16,8000 -117.24,51.15,8000 -117.24,51.13,8000 -117.25,51.11,8000 -117.26,51.10,8000 -117.26,51.08,8000 -117.27,51.07,8000 -117.27,51.05,8000 -117.28,51.04,8000 -117.29,51.03,8000 -117.29,51.02,8000 -117.31,51.00,8000 -117.32,51.00,8000 -117.32,51.00,8000 -117.34,51.02,8000 -117.35,51.03,8000 -117.36,51.04,8000 -117.38,51.05,8000 -117.39,51.06,8000 -117.41,51.07,8000 -117.43,51.08,8000 -117.44,51.10,8000 -117.46,51.11,8000 -117.48,51.12,8000 -117.50,51.13,8000 -117.51,51.14,8000 -117.53,51.15,8000 -117.54,51.16,8000 -117.57,51.17,8000 -117.58,51.18,8000 -117.60,51.18,8000 -117.62,51.19,8000 -117.64,51.20,8000 -117.65,51.21,8000 -117.67,51.22,8000 -117.68,51.22,8000 -117.70,51.23,8000 -117.72,51.24,8000 -117.74,51.25,8000 -117.75,51.27,8000 -117.77,51.28,8000 -117.79,51.29,8000 -117.81,51.30,8000 -117.70,51.41,8000 
          </coordinates>
        </LinearRing>
      </innerBoundaryIs>
  </Polygon>
 </MultiGeometry>
</Placemark>
<Placemark>
  <name>70%</name>
  <visibility>1</visibility>
  <styleUrl>#poly_70</styleUrl>
  <MultiGeometry>
    <Polygon>
      <outerBoundaryIs>
        <LinearRing>
          <coordinates>
-117.70,51.41,8000 -117.67,51.41,8000 -117.64,51.40,8000 -117.62,51.40,8000 -117.59,51.39,8000 -117.56,51.39,8000 -117.54,51.38,8000 -117.51,51.38,8000 -117.49,51.37,8000 -117.47,51.37,8000 -117.45,51.37,8000 -117.43,51.36,8000 -117.42,51.36,8000 -117.39,51.36,8000 -117.38,51.36,8000 -117.37,51.34,8000 -117.36,51.33,8000 -117.35,51.32,8000 -117.34,51.31,8000 -117.33,51.30,8000 -117.31,51.29,8000 -117.30,51.27,8000 -117.29,51.26,8000 -117.27,51.25,8000 -117.26,51.23,8000 -117.25,51.22,8000 -117.24,51.20,8000 -117.24,51.19,8000 -117.24,51.18,8000 -117.24,51.16,8000 -117.24,51.15,8000 -117.24,51.13,8000 -117.25,51.11,8000 -117.26,51.10,8000 -117.26,51.08,8000 -117.27,51.07,8000 -117.27,51.05,8000 -117.28,51.04,8000 -117.29,51.03,8000 -117.29,51.02,8000 -117.31,51.00,8000 -117.32,51.00,8000 -117.32,51.00,8000 -117.34,51.02,8000 -117.35,51.03,8000 -117.36,51.04,8000 -117.38,51.05,8000 -117.39,51.06,8000 -117.41,51.07,8000 -117.43,51.08,8000 -117.44,51.10,8000 -117.46,51.11,8000 -117.48,51.12,8000 -117.50,51.13,8000 -117.51,51.14,8000 -117.53,51.15,8000 -117.54,51.16,8000 -117.57,51.17,8000 -117.58,51.18,8000 -117.60,51.18,8000 -117.62,51.19,8000 -117.64,51.20,8000 -117.65,51.21,8000 -117.67,51.22,8000 -117.68,51.22,8000 -117.70,51.23,8000 -117.72,51.24,8000 -117.74,51.25,8000 -117.75,51.27,8000 -117.77,51.28,8000 -117.79,51.29,8000 -117.81,51.30,8000 -117.70,51.41,8000 
          </coordinates>
        </LinearRing>
      </outerBoundaryIs>
  </Polygon>
 </MultiGeometry>
</Placemark>
<Placemark>
  <name>70%</name>
  <visibility>1</visibility>
  <styleUrl>#poly_70</styleUrl>
  <MultiGeometry>
    <Polygon>
      <outerBoundaryIs>
        <LinearRing>
          <coordinates>
-116.43,51.60,8000 -116.42,51.61,8000 -116.40,51.61,8000 -116.38,51.62,8000 -116.37,51.62,8000 -116.34,51.62,8000 -116.32,51.62,8000 -116.30,51.62,8000 -116.28,51.63,8000 -116.26,51.63,8000 -116.23,51.63,8000 -116.21,51.63,8000 -116.19,51.63,8000 -116.17,51.63,8000 -116.15,51.63,8000 -116.12,51.63,8000 -116.10,51.64,8000 -116.08,51.64,8000 -116.05,51.64,8000 -116.03,51.64,8000 -116.01,51.64,8000 -115.99,51.65,8000 -115.97,51.65,8000 -115.95,51.65,8000 -115.93,51.65,8000 -115.92,51.65,8000 -115.91,51.65,8000 -115.90,51.64,8000 -115.89,51.64,8000 -115.88,51.63,8000 -115.87,51.62,8000 -115.85,51.60,8000 -115.84,51.59,8000 -115.82,51.58,8000 -115.81,51.57,8000 -115.79,51.55,8000 -115.78,51.54,8000 -115.77,51.53,8000 -115.76,51.52,8000 -115.76,51.51,8000 -115.76,51.50,8000 -115.76,51.49,8000 -115.77,51.48,8000 -115.78,51.46,8000 -115.79,51.46,8000 -115.81,51.45,8000 -115.82,51.44,8000 -115.84,51.43,8000 -115.86,51.42,8000 -115.88,51.41,8000 -115.89,51.41,8000 -115.91,51.40,8000 -115.93,51.39,8000 -115.95,51.39,8000 -115.97,51.38,8000 -115.99,51.38,8000 -116.01,51.37,8000 -116.03,51.37,8000 -116.06,51.37,8000 -116.08,51.36,8000 -116.10,51.36,8000 -116.12,51.36,8000 -116.14,51.36,8000 -116.16,51.36,8000 -116.19,51.36,8000 -116.21,51.36,8000 -116.23,51.36,8000 -116.25,51.36,8000 -116.28,51.37,8000 -116.30,51.37,8000 -116.32,51.37,8000 -116.34,51.37,8000 -116.35,51.38,8000 -116.37,51.38,8000 -116.40,51.39,8000 -116.42,51.39,8000 -116.44,51.40,8000 -116.45,51.41,8000 -116.46,51.41,8000 -116.47,51.43,8000 -116.48,51.44,8000 -116.48,51.45,8000 -116.48,51.46,8000 -116.48,51.47,8000 -116.48,51.49,8000 -116.48,51.50,8000 -116.48,51.51,8000 -116.48,51.53,8000 -116.47,51.54,8000 -116.47,51.56,8000 -116.46,51.57,8000 -116.45,51.58,8000 -116.44,51.59,8000 -116.43,51.60,8000 -116.43,51.60,8000 
          </coordinates>
        </LinearRing>
      </outerBoundaryIs>
      <innerBoundaryIs>
        <LinearRing>
          <coordinates>
-116.14,51.51,9000 -116.12,51.51,9000 -116.11,51.51,9000 -116.09,51.51,9000 -116.08,51.51,9000 -116.06,51.51,9000 -116.04,51.51,9000 -116.03,51.51,9000 -116.01,51.51,9000 -116.00,51.51,9000 -115.99,51.51,9000 -115.97,51.50,9000 -115.96,51.50,9000 -115.95,51.50,9000 -115.94,51.50,9000 -115.92,51.50,9000 -115.91,51.50,9000 -115.90,51.50,9000 -115.90,51.50,9000 -115.89,51.50,9000 -115.88,51.50,9000 -115.84,51.50,9000 -115.87,51.49,9000 -115.88,51.49,9000 -115.88,51.49,9000 -115.89,51.49,9000 -115.90,51.48,9000 -115.92,51.48,9000 -115.93,51.48,9000 -115.94,51.48,9000 -115.95,51.48,9000 -115.97,51.47,9000 -115.98,51.47,9000 -116.00,51.47,9000 -116.01,51.47,9000 -116.02,51.46,9000 -116.04,51.46,9000 -116.05,51.46,9000 -116.07,51.46,9000 -116.08,51.46,9000 -116.09,51.45,9000 -116.11,51.45,9000 -116.12,51.45,9000 -116.13,51.45,9000 -116.15,51.45,9000 -116.16,51.45,9000 -116.17,51.45,9000 -116.19,51.45,9000 -116.20,51.45,9000 -116.21,51.45,9000 -116.23,51.45,9000 -116.24,51.45,9000 -116.25,51.45,9000 -116.26,51.45,9000 -116.28,51.45,9000 -116.29,51.45,9000 -116.30,51.45,9000 -116.31,51.45,9000 -116.14,51.51,9000 
          </coordinates>
        </LinearRing>
      </innerBoundaryIs>
  </Polygon>
 </MultiGeometry>
</Placemark>
<Placemark>
  <name>80%</name>
  <visibility>1</visibility>
  <styleUrl>#poly_80</styleUrl>
  <MultiGeometry>
    <Polygon>
      <outerBoundaryIs>
        <LinearRing>
          <coordinates>
-116.14,51.51,9000 -116.12,51.51,9000 -116.11,51.51,9000 -116.09,51.51,9000 -116.08,51.51,9000 -116.06,51.51,9000 -116.04,51.51,9000 -116.03,51.51,9000 -116.01,51.51,9000 -116.00,51.51,9000 -115.99,51.51,9000 -115.97,51.50,9000 -115.96,51.50,9000 -115.95,51.50,9000 -115.94,51.50,9000 -115.92,51.50,9000 -115.91,51.50,9000 -115.90,51.50,9000 -115.90,51.50,9000 -115.89,51.50,9000 -115.88,51.50,9000 -115.84,51.50,9000 -115.87,51.49,9000 -115.88,51.49,9000 -115.88,51.49,9000 -115.89,51.49,9000 -115.90,51.48,9000 -115.92,51.48,9000 -115.93,51.48,9000 -115.94,51.48,9000 -115.95,51.48,9000 -115.97,51.47,9000 -115.98,51.47,9000 -116.00,51.47,9000 -116.01,51.47,9000 -116.02,51.46,9000 -116.04,51.46,9000 -116.05,51.46,9000 -116.07,51.46,9000 -116.08,51.46,9000 -116.09,51.45,9000 -116.11,51.45,9000 -116.12,51.45,9000 -116.13,51.45,9000 -116.15,51.45,9000 -116.16,51.45,9000 -116.17,51.45,9000 -116.19,51.45,9000 -116.20,51.45,9000 -116.21,51.45,9000 -116.23,51.45,9000 -116.24,51.45,9000 -116.25,51.45,9000 -116.26,51.45,9000 -116.28,51.45,9000 -116.29,51.45,9000 -116.30,51.45,9000 -116.31,51.45,9000 -116.14,51.51,9000 
          </coordinates>
        </LinearRing>
      </outerBoundaryIs>
  </Polygon>
 </MultiGeometry>
</Placemark>
    </Folder>
  </Document>
</kml>
