<?xml version="1.0" encoding="UTF-8"?>
<kml xmlns="http://www.opengis.net/kml/2.2">
<Document id="prb_72hsnow_ge02_f072">
<name>WPC 72-Hr Prob of Snow > 2"</name>
  <open>1</open>
  <snippet>Valid 12Z 06/29/2026 - 12Z 07/02/2026</snippet>
  <description></description>
    <Style id="poly_1">
        <IconStyle>
           <color>00000000</color>
           <scale>1</scale>
        </IconStyle>
        <LabelStyle>
            <color>ff26478b</color>
            <scale>0.8</scale>
        </LabelStyle>
        <LineStyle>
            <color>6626478b</color>
            <width>0</width>
        </LineStyle>
	<PolyStyle>
            <color>6626478b</color>
	</PolyStyle>
        <BalloonStyle>
            <text>
                <![CDATA[ <table border=0 width="300"><tr><td style="font-size:10pt;">
                During this forecast period, there is a <b>1-5%</b> probability of snowfall exceeding the depicted amount in the enclosed area.
                <br/><br/>
                *<span style="font-size:8pt;">Note that in cases where this contour is embedded within a 5% contour, 
                the probability of snowfall exceeding the depicted amount is &lt;1%.</span>
                </td></tr></table>]]>
            </text>
        </BalloonStyle>
    </Style>

    <Style id="poly_5">
        <IconStyle>
           <color>00000000</color>
           <scale>1</scale>
        </IconStyle>
        <LabelStyle>
            <color>ff00eeee</color>
            <scale>0.8</scale>
        </LabelStyle>
        <LineStyle>
            <color>6600eeee</color>
            <width>0.4</width>
        </LineStyle>
	<PolyStyle>
	    <color>6600eeee</color>
	</PolyStyle>
        <BalloonStyle>
            <text>
                <![CDATA[ <table border=0 width="300"><tr><td style="font-size:10pt;">
                During this forecast period, there is a <b>5-10%</b> probability of snowfall exceeding the depicted amount in the enclosed area.
                <br/><br/>
                *<span style="font-size:8pt;">Note that in cases where this contour is embedded within a 10% contour, 
                the probability of snowfall exceeding the depicted amount is &lt;5%.</span>
                </td></tr></table>]]>
            </text>
        </BalloonStyle>
    </Style>

    <Style id="poly_10">
        <IconStyle>
           <color>00000000</color>
           <scale>1</scale>
        </IconStyle>
        <LabelStyle>
            <color>ff00ff7f</color>
            <scale>0.8</scale>
        </LabelStyle>
        <LineStyle>
            <color>6600ff7f</color>
            <width>0.4</width>
        </LineStyle>
	<PolyStyle>
	    <color>6600ff7f</color>
	</PolyStyle>
        <BalloonStyle>
            <text>
                <![CDATA[ <table border=0 width="300"><tr><td style="font-size:10pt;">
                During this forecast period, there is a <b>10-20%</b> probability of snowfall exceeding the depicted amount in the enclosed area.
                <br/><br/>
                *<span style="font-size:8pt;">Note that in cases where this contour is embedded within a 20% contour, 
                the probability of snowfall exceeding the depicted amount is &lt;10%.</span>
                </td></tr></table>]]>
            </text>
        </BalloonStyle>
    </Style>
    
    <Style id="poly_20">
        <IconStyle>
            <color>00000000</color>
            <scale>1</scale>
        </IconStyle>
        <LabelStyle>
            <color>ff00cd00</color>
            <scale>0.8</scale>
        </LabelStyle>
        <LineStyle>
            <color>6600cd00</color>
	    <width>0.4</width>
	</LineStyle>
	<PolyStyle>
	    <color>6600cd00</color>
	</PolyStyle>
        <BalloonStyle>
            <text>
                <![CDATA[ <table border=0 width="300"><tr><td style="font-size:10pt;">
                During this forecast period, there is a <b>20-30%</b> probability of snowfall exceeding the depicted amount in the enclosed area.
                <br/><br/>
                *<span style="font-size:8pt;">Note that in cases where this contour is embedded within a 30% contour, 
                the probability of snowfall exceeding the depicted amount is &lt;20%.</span>
                </td></tr></table>]]>
            </text>
        </BalloonStyle>
    </Style>

    <Style id="poly_30">
        <IconStyle>
            <color>00000000</color>
            <scale>1</scale>
        </IconStyle>
        <LabelStyle>
            <color>ff008b00</color>
            <scale>0.8</scale>
        </LabelStyle>
        <LineStyle>
            <color>66008b00</color>
	    <width>0.4</width>
	</LineStyle>
	<PolyStyle>
	    <color>66008b00</color>
	</PolyStyle>
        <BalloonStyle>
            <text>
                <![CDATA[ <table border=0 width="300"><tr><td style="font-size:10pt;">
                During this forecast period, there is a <b>30-40%</b> probability of snowfall exceeding the depicted amount in the enclosed area.
                <br/><br/>
                *<span style="font-size:8pt;">Note that in cases where this contour is embedded within a 40% contour, 
                the probability of snowfall exceeding the depicted amount is &lt;30%.</span>
                </td></tr></table>]]>
            </text>
        </BalloonStyle>
    </Style>

    <Style id="poly_40">
        <IconStyle>
            <color>00000000</color>
            <scale>1</scale>
        </IconStyle>
        <LabelStyle>
            <color>ff8b4e10</color>
            <scale>0.8</scale>
        </LabelStyle>
        <LineStyle>
            <color>668b4e10</color>
	    <width>0.4</width>
	</LineStyle>
	<PolyStyle>
	    <color>668b4e10</color>
	</PolyStyle>
        <BalloonStyle>
            <text>
                <![CDATA[ <table border=0 width="300"><tr><td style="font-size:10pt;">
                During this forecast period, there is a <b>40-50%</b> probability of snowfall exceeding the depicted amount in the enclosed area.
                <br/><br/>
                *<span style="font-size:8pt;">Note that in cases where this contour is embedded within a 50% contour, 
                the probability of snowfall exceeding the depicted amount is &lt;40%.</span>
                </td></tr></table>]]>
            </text>
        </BalloonStyle>
    </Style>

    <Style id="poly_50">
        <IconStyle>
            <color>00000000</color>
            <scale>1</scale>
        </IconStyle>
        <LabelStyle>
            <color>ffff901e</color>
            <scale>0.8</scale>
        </LabelStyle>
        <LineStyle>
            <color>66ff901e</color>
	    <width>0.4</width>
	</LineStyle>
	<PolyStyle>
	    <color>66ff901e</color>
	</PolyStyle>
        <BalloonStyle>
            <text>
                <![CDATA[ <table border=0 width="300"><tr><td style="font-size:10pt;">
                During this forecast period, there is a <b>50-60%</b> probability of snowfall exceeding the depicted amount in the enclosed area.
                <br/><br/>
                *<span style="font-size:8pt;">Note that in cases where this contour is embedded within a 60% contour, 
                the probability of snowfall exceeding the depicted amount is &lt;50%.</span>
                </td></tr></table>]]>
            </text>
        </BalloonStyle>
    </Style>

    <Style id="poly_60">
        <IconStyle>
            <color>00000000</color>
            <scale>1</scale>
        </IconStyle>
        <LabelStyle>
            <color>ffeeb200</color>
            <scale>0.8</scale>
        </LabelStyle>
        <LineStyle>
            <color>66eeb200</color>
	    <width>0.4</width>
	</LineStyle>
	<PolyStyle>
	    <color>66eeb200</color>
	</PolyStyle>
        <BalloonStyle>
            <text>
                <![CDATA[ <table border=0 width="300"><tr><td style="font-size:10pt;">
                During this forecast period, there is a <b>60-70%</b> probability of snowfall exceeding the depicted amount in the enclosed area.
                <br/><br/>
                *<span style="font-size:8pt;">Note that in cases where this contour is embedded within a 70% contour, 
                the probability of snowfall exceeding the depicted amount is &lt;60%.</span>
                </td></tr></table>]]>
            </text>
        </BalloonStyle>
    </Style>
    
    <Style id="poly_70">
        <IconStyle>
            <color>00000000</color>
            <scale>1</scale>
        </IconStyle>
        <LabelStyle>
            <color>ffeeee00</color>
            <scale>0.8</scale>
        </LabelStyle>
        <LineStyle>
            <color>66eeee00</color>
	    <width>0.4</width>
	</LineStyle>
	<PolyStyle>
	    <color>66eeee00</color>
	</PolyStyle>
        <BalloonStyle>
            <text>
                <![CDATA[ <table border=0 width="300"><tr><td style="font-size:10pt;">
                During this forecast period, there is a <b>70-80%</b> probability of snowfall exceeding the depicted amount in the enclosed area.
                <br/><br/>
                *<span style="font-size:8pt;">Note that in cases where this contour is embedded within a 80% contour, 
                the probability of snowfall exceeding the depicted amount is &lt;70%.</span>
                </td></tr></table>]]>
            </text>
        </BalloonStyle>
    </Style>

    <Style id="poly_80">
        <IconStyle>
            <color>00000000</color>
            <scale>1</scale>
        </IconStyle>
        <LabelStyle>
            <color>ff4782ff</color>
            <scale>0.8</scale>
        </LabelStyle>
        <LineStyle>
            <color>664782ff</color>
	    <width>0.4</width>
	</LineStyle>
	<PolyStyle>
	    <color>664782ff</color>
	</PolyStyle>
        <BalloonStyle>
            <text>
                <![CDATA[ <table border=0 width="300"><tr><td style="font-size:10pt;">
                During this forecast period, there is a <b>80-90%</b> probability of snowfall exceeding the depicted amount in the enclosed area.
                <br/><br/>
                *<span style="font-size:8pt;">Note that in cases where this contour is embedded within a 90% contour, 
                the probability of snowfall exceeding the depicted amount is &lt;80%.</span>
                </td></tr></table>]]>
            </text>
        </BalloonStyle>
    </Style>

    <Style id="poly_90">
        <IconStyle>
            <color>00000000</color>
            <scale>1</scale>
        </IconStyle>
        <LabelStyle>
            <color>ff2c2cee</color>
            <scale>0.8</scale>
        </LabelStyle>
        <LineStyle>
            <color>662c2cee</color>
            <width>0.4</width>
        </LineStyle>
        <PolyStyle>
            <color>662c2cee</color>
        </PolyStyle>
        <BalloonStyle>
            <text>
                <![CDATA[ <table border=0 width="300"><tr><td style="font-size:10pt;">
                During this forecast period, there is a <b>90-95%</b> probability of snowfall exceeding the depicted amount in the enclosed area.
                <br/><br/>
                *<span style="font-size:8pt;">Note that in cases where this contour is embedded within a 95% contour, 
                the probability of snowfall exceeding the depicted amount is &lt;90%.</span>
                </td></tr></table>]]>
            </text>
        </BalloonStyle>
    </Style>

    <Style id="poly_95">
        <IconStyle>
            <color>00000000</color>
            <scale>1</scale>
        </IconStyle>
        <LabelStyle>
            <color>ff00008b</color>
            <scale>0.8</scale>
        </LabelStyle>
        <LineStyle>
            <color>6600008b</color>
	    <width>0.4</width>
	</LineStyle>
	<PolyStyle>
	    <color>6600008b</color>
	</PolyStyle>
        <BalloonStyle>
            <text>
                <![CDATA[ <table border=0 width="300"><tr><td style="font-size:10pt;">
                The probability of snowfall exceeding the depicted amount is <b>&ge;95%</b> in the enclosed area during this forecast period.
                </td></tr></table>]]>
            </text>
        </BalloonStyle>
    </Style>

  <ScreenOverlay>
    <name>Logos</name>
    <description></description>
    <Icon>
      <href>https://www.wpc.ncep.noaa.gov/images/noaa_and_nws_logo.png</href>
    </Icon>
   <overlayXY x=".01" y=".01" xunits="fraction" yunits="fraction" />
   <screenXY x=".01" y=".01" xunits="fraction" yunits="fraction" />
   <rotationXY x="0" y="0" xunits="fraction" yunits="fraction" />
   <size x="-1" y="-1" xunits="fraction" yunits="fraction" />
  </ScreenOverlay>
    <Folder>
      <name>Snow Probabilities</name>
      <open>0</open>
<Placemark>
  <name>1%</name>
  <visibility>1</visibility>
  <styleUrl>#poly_1</styleUrl>
  <MultiGeometry>
    <Polygon>
      <outerBoundaryIs>
        <LinearRing>
          <coordinates>
-109.52,43.27,0 -109.53,43.28,0 -109.50,43.26,0 -109.49,43.25,0 -109.48,43.25,0 -109.47,43.24,0 -109.46,43.23,0 -109.44,43.23,0 -109.43,43.22,0 -109.41,43.21,0 -109.40,43.20,0 -109.38,43.19,0 -109.37,43.18,0 -109.35,43.17,0 -109.34,43.16,0 -109.33,43.15,0 -109.31,43.14,0 -109.30,43.13,0 -109.30,43.12,0 -109.29,43.11,0 -109.29,43.10,0 -109.29,43.09,0 -109.29,43.08,0 -109.30,43.07,0 -109.30,43.06,0 -109.31,43.04,0 -109.32,43.03,0 -109.33,43.02,0 -109.34,43.01,0 -109.36,43.00,0 -109.37,42.99,0 -109.39,42.98,0 -109.40,42.97,0 -109.41,42.96,0 -109.43,42.95,0 -109.44,42.95,0 -109.46,42.94,0 -109.47,42.94,0 -109.48,42.94,0 -109.50,42.94,0 -109.51,42.94,0 -109.52,42.95,0 -109.54,42.95,0 -109.55,42.96,0 -109.57,42.97,0 -109.59,42.98,0 -109.60,42.99,0 -109.62,42.99,0 -109.63,43.00,0 -109.65,43.01,0 -109.66,43.02,0 -109.68,43.03,0 -109.69,43.04,0 -109.70,43.04,0 -109.71,43.05,0 -109.72,43.06,0 -109.73,43.06,0 -109.74,43.07,0 -109.74,43.07,0 -109.75,43.08,0 -109.73,43.10,0 -109.72,43.11,0 -109.72,43.11,0 -109.71,43.12,0 -109.70,43.13,0 -109.69,43.14,0 -109.69,43.14,0 -109.68,43.15,0 -109.67,43.16,0 -109.65,43.17,0 -109.64,43.18,0 -109.63,43.19,0 -109.62,43.20,0 -109.61,43.22,0 -109.60,43.23,0 -109.58,43.24,0 -109.57,43.25,0 -109.56,43.26,0 -109.52,43.27,0 
          </coordinates>
        </LinearRing>
      </outerBoundaryIs>
  </Polygon>
 </MultiGeometry>
</Placemark>
<Placemark>
  <name>1%</name>
  <visibility>1</visibility>
  <styleUrl>#poly_1</styleUrl>
  <MultiGeometry>
    <Polygon>
      <outerBoundaryIs>
        <LinearRing>
          <coordinates>
-111.10,44.15,0 -111.06,44.16,0 -111.02,44.17,0 -110.98,44.17,0 -110.94,44.18,0 -110.90,44.19,0 -110.86,44.19,0 -110.82,44.19,0 -110.78,44.20,0 -110.74,44.20,0 -110.70,44.20,0 -110.66,44.20,0 -110.62,44.19,0 -110.59,44.18,0 -110.55,44.16,0 -110.52,44.15,0 -110.48,44.13,0 -110.45,44.10,0 -110.42,44.08,0 -110.40,44.06,0 -110.38,44.03,0 -110.37,44.01,0 -110.36,43.98,0 -110.36,43.95,0 -110.35,43.92,0 -110.35,43.89,0 -110.34,43.86,0 -110.34,43.83,0 -110.34,43.81,0 -110.33,43.78,0 -110.33,43.75,0 -110.33,43.72,0 -110.33,43.69,0 -110.34,43.66,0 -110.34,43.63,0 -110.35,43.60,0 -110.35,43.57,0 -110.35,43.54,0 -110.34,43.51,0 -110.31,43.48,0 -110.29,43.45,0 -110.26,43.43,0 -110.22,43.41,0 -110.18,43.40,0 -110.16,43.38,0 -110.17,43.36,0 -110.21,43.33,0 -110.24,43.32,0 -110.27,43.33,0 -110.29,43.35,0 -110.33,43.37,0 -110.37,43.38,0 -110.41,43.39,0 -110.45,43.40,0 -110.50,43.41,0 -110.53,43.41,0 -110.57,43.41,0 -110.61,43.40,0 -110.65,43.40,0 -110.69,43.39,0 -110.73,43.39,0 -110.77,43.39,0 -110.82,43.40,0 -110.86,43.40,0 -110.91,43.41,0 -110.95,43.41,0 -110.98,43.42,0 -111.02,43.43,0 -111.04,43.44,0 -111.06,43.46,0 -111.09,43.48,0 -111.11,43.50,0 -111.14,43.53,0 -111.16,43.55,0 -111.19,43.58,0 -111.21,43.61,0 -111.23,43.64,0 -111.24,43.67,0 -111.25,43.70,0 -111.26,43.72,0 -111.26,43.75,0 -111.27,43.78,0 -111.27,43.81,0 -111.27,43.84,0 -111.27,43.87,0 -111.27,43.89,0 -111.27,43.92,0 -111.27,43.95,0 -111.27,43.98,0 -111.10,44.15,0 
          </coordinates>
        </LinearRing>
      </outerBoundaryIs>
      <innerBoundaryIs>
        <LinearRing>
          <coordinates>
-111.08,44.04,1000 -111.06,44.05,1000 -111.03,44.07,1000 -111.00,44.08,1000 -110.98,44.09,1000 -110.95,44.10,1000 -110.93,44.11,1000 -110.90,44.12,1000 -110.88,44.13,1000 -110.85,44.13,1000 -110.82,44.13,1000 -110.79,44.13,1000 -110.76,44.12,1000 -110.73,44.12,1000 -110.70,44.11,1000 -110.67,44.10,1000 -110.64,44.09,1000 -110.62,44.09,1000 -110.60,44.08,1000 -110.57,44.07,1000 -110.57,44.07,1000 -110.55,44.05,1000 -110.54,44.04,1000 -110.52,44.02,1000 -110.51,44.00,1000 -110.49,43.98,1000 -110.47,43.96,1000 -110.46,43.94,1000 -110.44,43.92,1000 -110.43,43.90,1000 -110.42,43.88,1000 -110.41,43.86,1000 -110.41,43.84,1000 -110.41,43.81,1000 -110.41,43.79,1000 -110.41,43.77,1000 -110.42,43.75,1000 -110.42,43.73,1000 -110.43,43.71,1000 -110.44,43.69,1000 -110.45,43.67,1000 -110.47,43.65,1000 -110.48,43.63,1000 -110.50,43.62,1000 -110.53,43.60,1000 -110.55,43.59,1000 -110.57,43.58,1000 -110.60,43.57,1000 -110.62,43.56,1000 -110.65,43.55,1000 -110.68,43.54,1000 -110.71,43.54,1000 -110.73,43.53,1000 -110.76,43.53,1000 -110.79,43.53,1000 -110.82,43.53,1000 -110.85,43.53,1000 -110.89,43.54,1000 -110.92,43.54,1000 -110.95,43.55,1000 -110.98,43.55,1000 -111.00,43.56,1000 -111.03,43.57,1000 -111.05,43.58,1000 -111.08,43.60,1000 -111.10,43.61,1000 -111.11,43.63,1000 -111.13,43.65,1000 -111.14,43.67,1000 -111.16,43.69,1000 -111.17,43.71,1000 -111.18,43.73,1000 -111.19,43.75,1000 -111.19,43.77,1000 -111.20,43.80,1000 -111.20,43.82,1000 -111.20,43.84,1000 -111.19,43.86,1000 -111.19,43.88,1000 -111.18,43.90,1000 -111.17,43.92,1000 -111.16,43.94,1000 -111.15,43.96,1000 -111.13,43.98,1000 -111.12,44.00,1000 -111.08,44.04,1000 
          </coordinates>
        </LinearRing>
      </innerBoundaryIs>
  </Polygon>
 </MultiGeometry>
</Placemark>
<Placemark>
  <name>1%</name>
  <visibility>1</visibility>
  <styleUrl>#poly_1</styleUrl>
  <MultiGeometry>
    <Polygon>
      <outerBoundaryIs>
        <LinearRing>
          <coordinates>
-114.17,44.99,0 -114.11,45.02,0 -114.06,45.04,0 -114.00,45.06,0 -113.94,45.07,0 -113.88,45.08,0 -113.81,45.08,0 -113.74,45.07,0 -113.69,45.06,0 -113.65,45.04,0 -113.62,45.01,0 -113.59,44.98,0 -113.54,44.95,0 -113.48,44.93,0 -113.42,44.90,0 -113.37,44.88,0 -113.33,44.87,0 -113.29,44.84,0 -113.26,44.81,0 -113.22,44.77,0 -113.19,44.72,0 -113.17,44.68,0 -113.15,44.64,0 -113.14,44.60,0 -113.13,44.55,0 -113.13,44.51,0 -113.13,44.46,0 -113.13,44.42,0 -113.14,44.37,0 -113.15,44.33,0 -113.18,44.29,0 -113.21,44.26,0 -113.25,44.23,0 -113.28,44.20,0 -113.30,44.17,0 -113.31,44.14,0 -113.31,44.10,0 -113.30,44.06,0 -113.30,44.01,0 -113.31,43.97,0 -113.34,43.93,0 -113.37,43.89,0 -113.41,43.86,0 -113.46,43.83,0 -113.51,43.81,0 -113.57,43.80,0 -113.63,43.79,0 -113.69,43.78,0 -113.75,43.77,0 -113.81,43.77,0 -113.87,43.77,0 -113.93,43.78,0 -113.98,43.80,0 -114.04,43.82,0 -114.08,43.86,0 -114.12,43.89,0 -114.15,43.93,0 -114.17,43.97,0 -114.18,44.02,0 -114.19,44.06,0 -114.20,44.10,0 -114.20,44.15,0 -114.20,44.19,0 -114.19,44.23,0 -114.16,44.27,0 -114.12,44.31,0 -114.07,44.34,0 -114.04,44.37,0 -114.02,44.40,0 -114.02,44.42,0 -114.03,44.45,0 -114.05,44.49,0 -114.07,44.52,0 -114.12,44.55,0 -114.17,44.58,0 -114.20,44.61,0 -114.23,44.65,0 -114.26,44.70,0 -114.28,44.74,0 -114.28,44.78,0 -114.27,44.83,0 -114.26,44.87,0 -114.24,44.92,0 -114.17,44.99,0 
          </coordinates>
        </LinearRing>
      </outerBoundaryIs>
      <innerBoundaryIs>
        <LinearRing>
          <coordinates>
-113.90,44.89,1000 -113.84,44.88,1000 -113.79,44.88,1000 -113.74,44.87,1000 -113.69,44.87,1000 -113.65,44.86,1000 -113.61,44.85,1000 -113.58,44.83,1000 -113.55,44.81,1000 -113.51,44.79,1000 -113.46,44.77,1000 -113.42,44.74,1000 -113.38,44.72,1000 -113.35,44.70,1000 -113.33,44.69,1000 -113.31,44.66,1000 -113.30,44.63,1000 -113.28,44.60,1000 -113.26,44.57,1000 -113.25,44.53,1000 -113.25,44.50,1000 -113.26,44.47,1000 -113.28,44.44,1000 -113.30,44.41,1000 -113.32,44.39,1000 -113.34,44.36,1000 -113.36,44.34,1000 -113.38,44.31,1000 -113.39,44.28,1000 -113.41,44.24,1000 -113.42,44.20,1000 -113.44,44.16,1000 -113.45,44.13,1000 -113.46,44.09,1000 -113.47,44.06,1000 -113.49,44.03,1000 -113.51,44.01,1000 -113.53,43.98,1000 -113.56,43.96,1000 -113.59,43.94,1000 -113.63,43.91,1000 -113.67,43.89,1000 -113.71,43.88,1000 -113.75,43.89,1000 -113.80,43.90,1000 -113.84,43.92,1000 -113.89,43.94,1000 -113.93,43.96,1000 -113.97,43.98,1000 -114.01,44.01,1000 -114.03,44.04,1000 -114.05,44.07,1000 -114.04,44.10,1000 -114.02,44.14,1000 -114.00,44.17,1000 -113.99,44.19,1000 -113.97,44.22,1000 -113.96,44.25,1000 -113.95,44.28,1000 -113.93,44.32,1000 -113.91,44.35,1000 -113.90,44.39,1000 -113.90,44.43,1000 -113.91,44.46,1000 -113.93,44.50,1000 -113.95,44.53,1000 -113.97,44.57,1000 -113.99,44.60,1000 -114.00,44.63,1000 -114.01,44.67,1000 -114.02,44.70,1000 -114.02,44.74,1000 -114.03,44.77,1000 -113.90,44.89,1000 
          </coordinates>
        </LinearRing>
      </innerBoundaryIs>
  </Polygon>
 </MultiGeometry>
</Placemark>
<Placemark>
  <name>1%</name>
  <visibility>1</visibility>
  <styleUrl>#poly_1</styleUrl>
  <MultiGeometry>
    <Polygon>
      <outerBoundaryIs>
        <LinearRing>
          <coordinates>
-110.62,45.66,0 -110.57,45.68,0 -110.51,45.70,0 -110.46,45.71,0 -110.40,45.72,0 -110.35,45.72,0 -110.30,45.72,0 -110.24,45.71,0 -110.18,45.70,0 -110.13,45.69,0 -110.08,45.67,0 -110.03,45.65,0 -109.97,45.63,0 -109.92,45.60,0 -109.87,45.58,0 -109.82,45.56,0 -109.77,45.54,0 -109.72,45.52,0 -109.67,45.50,0 -109.61,45.48,0 -109.56,45.46,0 -109.51,45.45,0 -109.45,45.43,0 -109.39,45.41,0 -109.34,45.39,0 -109.29,45.37,0 -109.25,45.35,0 -109.20,45.31,0 -109.17,45.28,0 -109.14,45.24,0 -109.12,45.20,0 -109.11,45.17,0 -109.10,45.13,0 -109.09,45.09,0 -109.08,45.06,0 -109.08,45.02,0 -109.07,44.98,0 -109.07,44.94,0 -109.07,44.90,0 -109.08,44.86,0 -109.10,44.83,0 -109.12,44.79,0 -109.15,44.76,0 -109.19,44.73,0 -109.25,44.70,0 -109.30,44.69,0 -109.35,44.68,0 -109.42,44.67,0 -109.49,44.67,0 -109.56,44.66,0 -109.62,44.66,0 -109.68,44.65,0 -109.73,44.64,0 -109.79,44.62,0 -109.83,44.60,0 -109.87,44.57,0 -109.91,44.55,0 -109.95,44.54,0 -110.00,44.54,0 -110.05,44.54,0 -110.11,44.55,0 -110.17,44.57,0 -110.22,44.59,0 -110.26,44.61,0 -110.29,44.64,0 -110.33,44.67,0 -110.37,44.70,0 -110.40,44.74,0 -110.44,44.77,0 -110.48,44.79,0 -110.53,44.81,0 -110.58,44.83,0 -110.64,44.84,0 -110.69,44.86,0 -110.74,44.87,0 -110.78,44.89,0 -110.83,44.92,0 -110.87,44.96,0 -110.89,45.00,0 -110.90,45.04,0 -110.89,45.07,0 -110.87,45.10,0 -110.84,45.13,0 -110.81,45.16,0 -110.79,45.20,0 -110.78,45.24,0 -110.77,45.28,0 -110.77,45.32,0 -110.76,45.37,0 -110.76,45.41,0 -110.62,45.66,0 
          </coordinates>
        </LinearRing>
      </outerBoundaryIs>
      <innerBoundaryIs>
        <LinearRing>
          <coordinates>
-110.36,45.57,1000 -110.31,45.57,1000 -110.27,45.57,1000 -110.23,45.57,1000 -110.18,45.56,1000 -110.15,45.56,1000 -110.11,45.55,1000 -110.07,45.54,1000 -110.04,45.52,1000 -110.01,45.50,1000 -109.99,45.48,1000 -109.96,45.47,1000 -109.93,45.46,1000 -109.90,45.46,1000 -109.85,45.45,1000 -109.82,45.44,1000 -109.77,45.44,1000 -109.73,45.43,1000 -109.68,45.43,1000 -109.64,45.42,1000 -109.60,45.41,1000 -109.56,45.40,1000 -109.53,45.38,1000 -109.50,45.37,1000 -109.48,45.36,1000 -109.45,45.34,1000 -109.42,45.32,1000 -109.39,45.30,1000 -109.36,45.28,1000 -109.33,45.26,1000 -109.30,45.24,1000 -109.27,45.22,1000 -109.24,45.21,1000 -109.22,45.18,1000 -109.21,45.16,1000 -109.19,45.13,1000 -109.18,45.11,1000 -109.17,45.08,1000 -109.16,45.05,1000 -109.16,45.02,1000 -109.17,44.99,1000 -109.18,44.97,1000 -109.20,44.94,1000 -109.22,44.91,1000 -109.23,44.88,1000 -109.25,44.86,1000 -109.26,44.84,1000 -109.27,44.83,1000 -109.29,44.82,1000 -109.32,44.80,1000 -109.35,44.79,1000 -109.39,44.77,1000 -109.43,44.75,1000 -109.46,44.74,1000 -109.50,44.73,1000 -109.54,44.73,1000 -109.58,44.73,1000 -109.63,44.73,1000 -109.67,44.74,1000 -109.71,44.74,1000 -109.74,44.75,1000 -109.78,44.76,1000 -109.81,44.77,1000 -109.84,44.78,1000 -109.87,44.79,1000 -109.91,44.80,1000 -109.95,44.80,1000 -110.00,44.81,1000 -110.03,44.82,1000 -110.07,44.83,1000 -110.11,44.85,1000 -110.15,44.86,1000 -110.19,44.88,1000 -110.22,44.89,1000 -110.25,44.90,1000 -110.28,44.91,1000 -110.30,44.93,1000 -110.32,44.95,1000 -110.36,44.97,1000 -110.39,44.99,1000 -110.43,45.01,1000 -110.47,45.04,1000 -110.50,45.06,1000 -110.52,45.07,1000 -110.53,45.08,1000 -110.53,45.10,1000 -110.54,45.13,1000 -110.55,45.16,1000 -110.55,45.20,1000 -110.56,45.23,1000 -110.56,45.25,1000 -110.56,45.27,1000 -110.56,45.29,1000 -110.56,45.31,1000 -110.55,45.34,1000 -110.55,45.37,1000 -110.54,45.40,1000 -110.54,45.43,1000 -110.36,45.57,1000 
          </coordinates>
        </LinearRing>
      </innerBoundaryIs>
  </Polygon>
 </MultiGeometry>
</Placemark>
<Placemark>
  <name>1%</name>
  <visibility>1</visibility>
  <styleUrl>#poly_1</styleUrl>
  <MultiGeometry>
    <Polygon>
      <outerBoundaryIs>
        <LinearRing>
          <coordinates>
-112.38,45.90,0 -112.30,45.91,0 -112.22,45.92,0 -112.15,45.93,0 -112.08,45.94,0 -112.01,45.95,0 -111.95,45.95,0 -111.90,45.95,0 -111.83,45.94,0 -111.78,45.91,0 -111.74,45.88,0 -111.71,45.85,0 -111.68,45.81,0 -111.66,45.77,0 -111.65,45.72,0 -111.63,45.68,0 -111.62,45.63,0 -111.61,45.57,0 -111.60,45.53,0 -111.57,45.50,0 -111.53,45.51,0 -111.47,45.53,0 -111.40,45.57,0 -111.34,45.58,0 -111.27,45.57,0 -111.20,45.55,0 -111.13,45.52,0 -111.08,45.49,0 -111.03,45.46,0 -111.00,45.43,0 -110.99,45.39,0 -111.00,45.35,0 -111.02,45.31,0 -111.04,45.26,0 -111.04,45.22,0 -111.03,45.18,0 -111.03,45.13,0 -111.02,45.08,0 -111.01,45.04,0 -111.00,44.98,0 -110.99,44.93,0 -110.99,44.88,0 -111.01,44.83,0 -111.03,44.78,0 -111.06,44.73,0 -111.11,44.69,0 -111.16,44.66,0 -111.22,44.63,0 -111.29,44.60,0 -111.35,44.58,0 -111.41,44.57,0 -111.47,44.57,0 -111.53,44.59,0 -111.59,44.61,0 -111.65,44.62,0 -111.71,44.61,0 -111.77,44.59,0 -111.83,44.57,0 -111.89,44.55,0 -111.95,44.53,0 -112.00,44.51,0 -112.05,44.49,0 -112.11,44.48,0 -112.17,44.48,0 -112.24,44.48,0 -112.31,44.49,0 -112.37,44.51,0 -112.42,44.54,0 -112.47,44.58,0 -112.52,44.63,0 -112.56,44.68,0 -112.58,44.73,0 -112.58,44.78,0 -112.56,44.84,0 -112.53,44.90,0 -112.50,44.95,0 -112.46,44.99,0 -112.41,45.02,0 -112.36,45.04,0 -112.30,45.05,0 -112.24,45.05,0 -112.17,45.05,0 -112.09,45.04,0 -112.03,45.03,0 -111.98,45.03,0 -111.96,45.06,0 -111.97,45.11,0 -112.00,45.15,0 -112.06,45.16,0 -112.15,45.15,0 -112.23,45.16,0 -112.29,45.17,0 -112.34,45.19,0 -112.40,45.22,0 -112.44,45.26,0 -112.46,45.30,0 -112.48,45.34,0 -112.50,45.40,0 -112.52,45.45,0 -112.53,45.51,0 -112.54,45.56,0 -112.55,45.60,0 -112.56,45.67,0 -112.55,45.72,0 -112.53,45.76,0 -112.38,45.90,0 
          </coordinates>
        </LinearRing>
      </outerBoundaryIs>
      <innerBoundaryIs>
        <LinearRing>
          <coordinates>
-112.13,45.85,1000 -112.08,45.84,1000 -112.03,45.83,1000 -111.99,45.82,1000 -111.95,45.81,1000 -111.91,45.81,1000 -111.87,45.79,1000 -111.83,45.77,1000 -111.79,45.74,1000 -111.75,45.71,1000 -111.72,45.67,1000 -111.70,45.63,1000 -111.70,45.58,1000 -111.69,45.54,1000 -111.68,45.50,1000 -111.65,45.46,1000 -111.61,45.44,1000 -111.56,45.42,1000 -111.52,45.41,1000 -111.46,45.41,1000 -111.40,45.41,1000 -111.35,45.41,1000 -111.31,45.41,1000 -111.26,45.40,1000 -111.23,45.37,1000 -111.21,45.35,1000 -111.18,45.32,1000 -111.15,45.28,1000 -111.12,45.24,1000 -111.10,45.21,1000 -111.08,45.17,1000 -111.07,45.13,1000 -111.07,45.08,1000 -111.07,45.04,1000 -111.07,45.00,1000 -111.07,44.96,1000 -111.08,44.93,1000 -111.09,44.89,1000 -111.10,44.86,1000 -111.12,44.82,1000 -111.15,44.80,1000 -111.20,44.77,1000 -111.24,44.75,1000 -111.28,44.74,1000 -111.33,44.72,1000 -111.38,44.71,1000 -111.43,44.70,1000 -111.48,44.70,1000 -111.53,44.70,1000 -111.58,44.71,1000 -111.63,44.72,1000 -111.68,44.73,1000 -111.73,44.74,1000 -111.78,44.76,1000 -111.83,44.77,1000 -111.86,44.80,1000 -111.88,44.83,1000 -111.90,44.86,1000 -111.91,44.90,1000 -111.91,44.93,1000 -111.92,44.97,1000 -111.92,45.01,1000 -111.91,45.06,1000 -111.91,45.10,1000 -111.91,45.14,1000 -111.93,45.17,1000 -111.96,45.20,1000 -111.99,45.23,1000 -112.02,45.25,1000 -112.07,45.27,1000 -112.11,45.28,1000 -112.16,45.29,1000 -112.21,45.30,1000 -112.27,45.32,1000 -112.31,45.34,1000 -112.35,45.37,1000 -112.39,45.40,1000 -112.42,45.44,1000 -112.44,45.48,1000 -112.45,45.52,1000 -112.45,45.57,1000 -112.45,45.61,1000 -112.43,45.65,1000 -112.41,45.69,1000 -112.38,45.72,1000 -112.35,45.75,1000 -112.30,45.78,1000 -112.25,45.79,1000 -112.13,45.85,1000 
          </coordinates>
        </LinearRing>
      </innerBoundaryIs>
  </Polygon>
 </MultiGeometry>
</Placemark>
<Placemark>
  <name>1%</name>
  <visibility>1</visibility>
  <styleUrl>#poly_1</styleUrl>
  <MultiGeometry>
    <Polygon>
      <outerBoundaryIs>
        <LinearRing>
          <coordinates>
-110.14,44.17,0 -110.11,44.18,0 -110.08,44.19,0 -110.06,44.21,0 -110.03,44.22,0 -110.00,44.22,0 -109.97,44.23,0 -109.94,44.24,0 -109.91,44.24,0 -109.88,44.24,0 -109.85,44.24,0 -109.82,44.24,0 -109.79,44.23,0 -109.76,44.23,0 -109.73,44.22,0 -109.71,44.21,0 -109.68,44.21,0 -109.66,44.20,0 -109.63,44.19,0 -109.60,44.18,0 -109.58,44.17,0 -109.56,44.15,0 -109.54,44.13,0 -109.53,44.12,0 -109.52,44.10,0 -109.50,44.08,0 -109.49,44.06,0 -109.48,44.04,0 -109.47,44.02,0 -109.46,44.00,0 -109.45,43.98,0 -109.45,43.96,0 -109.45,43.94,0 -109.45,43.92,0 -109.46,43.90,0 -109.46,43.87,0 -109.47,43.85,0 -109.48,43.83,0 -109.48,43.81,0 -109.49,43.80,0 -109.50,43.78,0 -109.51,43.76,0 -109.52,43.74,0 -109.54,43.73,0 -109.55,43.72,0 -109.58,43.71,0 -109.60,43.70,0 -109.62,43.69,0 -109.64,43.68,0 -109.67,43.67,0 -109.70,43.67,0 -109.73,43.66,0 -109.75,43.65,0 -109.78,43.64,0 -109.81,43.64,0 -109.84,43.64,0 -109.87,43.64,0 -109.90,43.63,0 -109.93,43.64,0 -109.96,43.64,0 -109.99,43.64,0 -110.01,43.64,0 -110.04,43.65,0 -110.06,43.65,0 -110.09,43.66,0 -110.11,43.67,0 -110.12,43.68,0 -110.14,43.69,0 -110.15,43.71,0 -110.17,43.73,0 -110.18,43.74,0 -110.19,43.76,0 -110.21,43.78,0 -110.22,43.80,0 -110.23,43.82,0 -110.24,43.84,0 -110.25,43.86,0 -110.26,43.88,0 -110.26,43.90,0 -110.26,43.92,0 -110.26,43.94,0 -110.26,43.96,0 -110.26,43.98,0 -110.25,44.01,0 -110.24,44.03,0 -110.24,44.05,0 -110.23,44.07,0 -110.14,44.17,0 
          </coordinates>
        </LinearRing>
      </outerBoundaryIs>
  </Polygon>
 </MultiGeometry>
</Placemark>
<Placemark>
  <name>1%</name>
  <visibility>1</visibility>
  <styleUrl>#poly_1</styleUrl>
  <MultiGeometry>
    <Polygon>
      <outerBoundaryIs>
        <LinearRing>
          <coordinates>
-113.69,46.31,0 -113.63,46.32,0 -113.58,46.33,0 -113.52,46.34,0 -113.46,46.35,0 -113.41,46.36,0 -113.36,46.36,0 -113.31,46.37,0 -113.26,46.37,0 -113.21,46.37,0 -113.16,46.37,0 -113.11,46.36,0 -113.05,46.36,0 -113.00,46.35,0 -112.96,46.34,0 -112.91,46.33,0 -112.88,46.31,0 -112.84,46.29,0 -112.81,46.26,0 -112.78,46.23,0 -112.75,46.19,0 -112.73,46.14,0 -112.72,46.10,0 -112.72,46.06,0 -112.72,46.03,0 -112.72,45.99,0 -112.73,45.95,0 -112.74,45.92,0 -112.76,45.88,0 -112.79,45.84,0 -112.83,45.81,0 -112.85,45.78,0 -112.88,45.76,0 -112.88,45.74,0 -112.87,45.70,0 -112.84,45.66,0 -112.82,45.62,0 -112.79,45.60,0 -112.78,45.58,0 -112.79,45.55,0 -112.80,45.52,0 -112.80,45.49,0 -112.80,45.44,0 -112.82,45.40,0 -112.84,45.37,0 -112.88,45.34,0 -112.92,45.31,0 -112.96,45.28,0 -113.00,45.26,0 -113.04,45.24,0 -113.09,45.23,0 -113.14,45.23,0 -113.19,45.22,0 -113.24,45.22,0 -113.30,45.22,0 -113.36,45.21,0 -113.42,45.21,0 -113.48,45.22,0 -113.53,45.23,0 -113.59,45.25,0 -113.65,45.26,0 -113.70,45.29,0 -113.74,45.31,0 -113.76,45.35,0 -113.76,45.39,0 -113.75,45.43,0 -113.74,45.48,0 -113.73,45.52,0 -113.72,45.55,0 -113.70,45.59,0 -113.69,45.63,0 -113.69,45.66,0 -113.70,45.69,0 -113.72,45.72,0 -113.75,45.76,0 -113.77,45.79,0 -113.79,45.82,0 -113.81,45.85,0 -113.82,45.89,0 -113.83,45.92,0 -113.84,45.96,0 -113.85,45.99,0 -113.86,46.03,0 -113.86,46.07,0 -113.86,46.12,0 -113.86,46.16,0 -113.69,46.31,0 
          </coordinates>
        </LinearRing>
      </outerBoundaryIs>
      <innerBoundaryIs>
        <LinearRing>
          <coordinates>
-113.44,46.30,1000 -113.41,46.30,1000 -113.38,46.30,1000 -113.34,46.30,1000 -113.31,46.31,1000 -113.28,46.31,1000 -113.25,46.30,1000 -113.23,46.30,1000 -113.20,46.30,1000 -113.17,46.29,1000 -113.14,46.29,1000 -113.11,46.28,1000 -113.09,46.27,1000 -113.06,46.26,1000 -113.04,46.24,1000 -113.02,46.23,1000 -113.01,46.21,1000 -112.99,46.19,1000 -112.97,46.18,1000 -112.96,46.16,1000 -112.95,46.14,1000 -112.93,46.12,1000 -112.93,46.10,1000 -112.92,46.08,1000 -112.92,46.06,1000 -112.92,46.04,1000 -112.92,46.02,1000 -112.93,46.00,1000 -112.93,45.98,1000 -112.94,45.96,1000 -112.95,45.94,1000 -112.96,45.92,1000 -112.97,45.90,1000 -112.98,45.88,1000 -113.00,45.86,1000 -113.01,45.84,1000 -113.03,45.82,1000 -113.04,45.80,1000 -113.07,45.78,1000 -113.09,45.77,1000 -113.11,45.76,1000 -113.13,45.75,1000 -113.16,45.73,1000 -113.19,45.72,1000 -113.22,45.71,1000 -113.24,45.71,1000 -113.27,45.70,1000 -113.30,45.70,1000 -113.33,45.70,1000 -113.35,45.71,1000 -113.38,45.71,1000 -113.41,45.73,1000 -113.43,45.74,1000 -113.46,45.76,1000 -113.49,45.77,1000 -113.51,45.79,1000 -113.54,45.80,1000 -113.56,45.82,1000 -113.58,45.83,1000 -113.59,45.84,1000 -113.60,45.86,1000 -113.61,45.87,1000 -113.63,45.89,1000 -113.65,45.90,1000 -113.67,45.92,1000 -113.70,45.94,1000 -113.72,45.96,1000 -113.73,45.98,1000 -113.74,46.00,1000 -113.74,46.02,1000 -113.74,46.04,1000 -113.73,46.06,1000 -113.72,46.09,1000 -113.70,46.11,1000 -113.69,46.13,1000 -113.68,46.15,1000 -113.67,46.16,1000 -113.66,46.18,1000 -113.65,46.18,1000 -113.44,46.30,1000 
          </coordinates>
        </LinearRing>
      </innerBoundaryIs>
      <innerBoundaryIs>
        <LinearRing>
          <coordinates>
-113.32,45.69,1000 -113.30,45.69,1000 -113.28,45.68,1000 -113.27,45.68,1000 -113.25,45.68,1000 -113.23,45.67,1000 -113.21,45.67,1000 -113.20,45.66,1000 -113.18,45.66,1000 -113.16,45.66,1000 -113.15,45.65,1000 -113.13,45.65,1000 -113.12,45.65,1000 -113.11,45.64,1000 -113.09,45.64,1000 -113.08,45.63,1000 -113.07,45.63,1000 -113.05,45.62,1000 -113.04,45.61,1000 -113.02,45.61,1000 -113.01,45.60,1000 -113.00,45.59,1000 -113.00,45.58,1000 -112.99,45.57,1000 -112.99,45.56,1000 -112.99,45.55,1000 -112.99,45.54,1000 -112.99,45.53,1000 -112.99,45.52,1000 -113.00,45.51,1000 -113.01,45.50,1000 -113.01,45.49,1000 -113.03,45.48,1000 -113.04,45.47,1000 -113.05,45.46,1000 -113.06,45.46,1000 -113.07,45.45,1000 -113.08,45.44,1000 -113.10,45.43,1000 -113.11,45.42,1000 -113.12,45.41,1000 -113.14,45.41,1000 -113.15,45.40,1000 -113.17,45.39,1000 -113.18,45.38,1000 -113.20,45.38,1000 -113.22,45.37,1000 -113.23,45.37,1000 -113.25,45.37,1000 -113.26,45.37,1000 -113.27,45.37,1000 -113.28,45.37,1000 -113.30,45.38,1000 -113.31,45.38,1000 -113.32,45.39,1000 -113.33,45.39,1000 -113.35,45.40,1000 -113.36,45.41,1000 -113.37,45.41,1000 -113.38,45.42,1000 -113.40,45.43,1000 -113.41,45.44,1000 -113.42,45.45,1000 -113.44,45.46,1000 -113.45,45.47,1000 -113.46,45.48,1000 -113.47,45.49,1000 -113.49,45.50,1000 -113.50,45.51,1000 -113.32,45.69,1000 
          </coordinates>
        </LinearRing>
      </innerBoundaryIs>
  </Polygon>
 </MultiGeometry>
</Placemark>
<Placemark>
  <name>5%</name>
  <visibility>1</visibility>
  <styleUrl>#poly_5</styleUrl>
  <MultiGeometry>
    <Polygon>
      <outerBoundaryIs>
        <LinearRing>
          <coordinates>
-111.08,44.04,1000 -111.06,44.05,1000 -111.03,44.07,1000 -111.00,44.08,1000 -110.98,44.09,1000 -110.95,44.10,1000 -110.93,44.11,1000 -110.90,44.12,1000 -110.88,44.13,1000 -110.85,44.13,1000 -110.82,44.13,1000 -110.79,44.13,1000 -110.76,44.12,1000 -110.73,44.12,1000 -110.70,44.11,1000 -110.67,44.10,1000 -110.64,44.09,1000 -110.62,44.09,1000 -110.60,44.08,1000 -110.57,44.07,1000 -110.57,44.07,1000 -110.55,44.05,1000 -110.54,44.04,1000 -110.52,44.02,1000 -110.51,44.00,1000 -110.49,43.98,1000 -110.47,43.96,1000 -110.46,43.94,1000 -110.44,43.92,1000 -110.43,43.90,1000 -110.42,43.88,1000 -110.41,43.86,1000 -110.41,43.84,1000 -110.41,43.81,1000 -110.41,43.79,1000 -110.41,43.77,1000 -110.42,43.75,1000 -110.42,43.73,1000 -110.43,43.71,1000 -110.44,43.69,1000 -110.45,43.67,1000 -110.47,43.65,1000 -110.48,43.63,1000 -110.50,43.62,1000 -110.53,43.60,1000 -110.55,43.59,1000 -110.57,43.58,1000 -110.60,43.57,1000 -110.62,43.56,1000 -110.65,43.55,1000 -110.68,43.54,1000 -110.71,43.54,1000 -110.73,43.53,1000 -110.76,43.53,1000 -110.79,43.53,1000 -110.82,43.53,1000 -110.85,43.53,1000 -110.89,43.54,1000 -110.92,43.54,1000 -110.95,43.55,1000 -110.98,43.55,1000 -111.00,43.56,1000 -111.03,43.57,1000 -111.05,43.58,1000 -111.08,43.60,1000 -111.10,43.61,1000 -111.11,43.63,1000 -111.13,43.65,1000 -111.14,43.67,1000 -111.16,43.69,1000 -111.17,43.71,1000 -111.18,43.73,1000 -111.19,43.75,1000 -111.19,43.77,1000 -111.20,43.80,1000 -111.20,43.82,1000 -111.20,43.84,1000 -111.19,43.86,1000 -111.19,43.88,1000 -111.18,43.90,1000 -111.17,43.92,1000 -111.16,43.94,1000 -111.15,43.96,1000 -111.13,43.98,1000 -111.12,44.00,1000 -111.08,44.04,1000 
          </coordinates>
        </LinearRing>
      </outerBoundaryIs>
      <innerBoundaryIs>
        <LinearRing>
          <coordinates>
-110.84,44.06,2000 -110.82,44.06,2000 -110.80,44.05,2000 -110.78,44.05,2000 -110.76,44.04,2000 -110.74,44.03,2000 -110.72,44.02,2000 -110.70,44.02,2000 -110.68,44.01,2000 -110.66,44.00,2000 -110.64,43.99,2000 -110.62,43.98,2000 -110.61,43.97,2000 -110.59,43.96,2000 -110.57,43.95,2000 -110.55,43.94,2000 -110.53,43.93,2000 -110.52,43.91,2000 -110.51,43.90,2000 -110.50,43.88,2000 -110.50,43.87,2000 -110.50,43.85,2000 -110.51,43.83,2000 -110.51,43.81,2000 -110.52,43.79,2000 -110.53,43.77,2000 -110.53,43.75,2000 -110.54,43.74,2000 -110.55,43.72,2000 -110.55,43.71,2000 -110.55,43.70,2000 -110.56,43.69,2000 -110.57,43.68,2000 -110.59,43.67,2000 -110.61,43.66,2000 -110.63,43.64,2000 -110.65,43.63,2000 -110.67,43.61,2000 -110.69,43.60,2000 -110.72,43.59,2000 -110.74,43.58,2000 -110.76,43.58,2000 -110.78,43.58,2000 -110.81,43.58,2000 -110.83,43.59,2000 -110.86,43.60,2000 -110.88,43.61,2000 -110.91,43.62,2000 -110.93,43.63,2000 -110.96,43.64,2000 -110.98,43.65,2000 -111.00,43.65,2000 -111.01,43.66,2000 -111.02,43.67,2000 -111.03,43.68,2000 -111.04,43.69,2000 -111.05,43.71,2000 -111.06,43.72,2000 -111.07,43.74,2000 -111.08,43.76,2000 -111.09,43.77,2000 -111.10,43.79,2000 -111.11,43.81,2000 -111.11,43.82,2000 -111.11,43.84,2000 -111.11,43.86,2000 -111.10,43.87,2000 -111.09,43.89,2000 -111.07,43.90,2000 -111.06,43.92,2000 -111.05,43.93,2000 -111.03,43.94,2000 -111.02,43.95,2000 -111.00,43.97,2000 -110.99,43.98,2000 -110.97,43.99,2000 -110.95,44.00,2000 -110.93,44.01,2000 -110.84,44.06,2000 
          </coordinates>
        </LinearRing>
      </innerBoundaryIs>
  </Polygon>
 </MultiGeometry>
</Placemark>
<Placemark>
  <name>5%</name>
  <visibility>1</visibility>
  <styleUrl>#poly_5</styleUrl>
  <MultiGeometry>
    <Polygon>
      <outerBoundaryIs>
        <LinearRing>
          <coordinates>
-112.13,45.85,1000 -112.08,45.84,1000 -112.03,45.83,1000 -111.99,45.82,1000 -111.95,45.81,1000 -111.91,45.81,1000 -111.87,45.79,1000 -111.83,45.77,1000 -111.79,45.74,1000 -111.75,45.71,1000 -111.72,45.67,1000 -111.70,45.63,1000 -111.70,45.58,1000 -111.69,45.54,1000 -111.68,45.50,1000 -111.65,45.46,1000 -111.61,45.44,1000 -111.56,45.42,1000 -111.52,45.41,1000 -111.46,45.41,1000 -111.40,45.41,1000 -111.35,45.41,1000 -111.31,45.41,1000 -111.26,45.40,1000 -111.23,45.37,1000 -111.21,45.35,1000 -111.18,45.32,1000 -111.15,45.28,1000 -111.12,45.24,1000 -111.10,45.21,1000 -111.08,45.17,1000 -111.07,45.13,1000 -111.07,45.08,1000 -111.07,45.04,1000 -111.07,45.00,1000 -111.07,44.96,1000 -111.08,44.93,1000 -111.09,44.89,1000 -111.10,44.86,1000 -111.12,44.82,1000 -111.15,44.80,1000 -111.20,44.77,1000 -111.24,44.75,1000 -111.28,44.74,1000 -111.33,44.72,1000 -111.38,44.71,1000 -111.43,44.70,1000 -111.48,44.70,1000 -111.53,44.70,1000 -111.58,44.71,1000 -111.63,44.72,1000 -111.68,44.73,1000 -111.73,44.74,1000 -111.78,44.76,1000 -111.83,44.77,1000 -111.86,44.80,1000 -111.88,44.83,1000 -111.90,44.86,1000 -111.91,44.90,1000 -111.91,44.93,1000 -111.92,44.97,1000 -111.92,45.01,1000 -111.91,45.06,1000 -111.91,45.10,1000 -111.91,45.14,1000 -111.93,45.17,1000 -111.96,45.20,1000 -111.99,45.23,1000 -112.02,45.25,1000 -112.07,45.27,1000 -112.11,45.28,1000 -112.16,45.29,1000 -112.21,45.30,1000 -112.27,45.32,1000 -112.31,45.34,1000 -112.35,45.37,1000 -112.39,45.40,1000 -112.42,45.44,1000 -112.44,45.48,1000 -112.45,45.52,1000 -112.45,45.57,1000 -112.45,45.61,1000 -112.43,45.65,1000 -112.41,45.69,1000 -112.38,45.72,1000 -112.35,45.75,1000 -112.30,45.78,1000 -112.25,45.79,1000 -112.13,45.85,1000 
          </coordinates>
        </LinearRing>
      </outerBoundaryIs>
      <innerBoundaryIs>
        <LinearRing>
          <coordinates>
-112.33,45.62,2000 -112.32,45.64,2000 -112.30,45.65,2000 -112.29,45.66,2000 -112.27,45.68,2000 -112.25,45.69,2000 -112.24,45.71,2000 -112.22,45.72,2000 -112.21,45.73,2000 -112.19,45.74,2000 -112.18,45.75,2000 -112.16,45.76,2000 -112.14,45.76,2000 -112.13,45.77,2000 -112.11,45.77,2000 -112.09,45.77,2000 -112.07,45.77,2000 -112.05,45.76,2000 -112.02,45.75,2000 -112.00,45.75,2000 -111.98,45.74,2000 -111.96,45.72,2000 -111.93,45.71,2000 -111.91,45.70,2000 -111.89,45.69,2000 -111.88,45.68,2000 -111.86,45.68,2000 -111.85,45.67,2000 -111.84,45.66,2000 -111.84,45.65,2000 -111.84,45.64,2000 -111.83,45.62,2000 -111.83,45.60,2000 -111.83,45.59,2000 -111.82,45.57,2000 -111.82,45.55,2000 -111.82,45.53,2000 -111.81,45.51,2000 -111.81,45.50,2000 -111.81,45.49,2000 -111.79,45.48,2000 -111.81,45.47,2000 -111.82,45.46,2000 -111.83,45.45,2000 -111.84,45.44,2000 -111.86,45.43,2000 -111.88,45.42,2000 -111.89,45.40,2000 -111.91,45.39,2000 -111.93,45.38,2000 -111.95,45.37,2000 -111.97,45.36,2000 -111.99,45.35,2000 -112.01,45.34,2000 -112.03,45.34,2000 -112.05,45.34,2000 -112.07,45.34,2000 -112.09,45.35,2000 -112.11,45.35,2000 -112.13,45.36,2000 -112.16,45.37,2000 -112.18,45.38,2000 -112.20,45.39,2000 -112.22,45.40,2000 -112.24,45.41,2000 -112.26,45.42,2000 -112.27,45.43,2000 -112.29,45.44,2000 -112.30,45.44,2000 -112.31,45.45,2000 -112.31,45.46,2000 -112.31,45.47,2000 -112.32,45.48,2000 -112.32,45.50,2000 -112.32,45.51,2000 -112.32,45.53,2000 -112.33,45.55,2000 -112.33,45.56,2000 -112.33,45.58,2000 -112.34,45.60,2000 -112.34,45.62,2000 -112.33,45.62,2000 
          </coordinates>
        </LinearRing>
      </innerBoundaryIs>
      <innerBoundaryIs>
        <LinearRing>
          <coordinates>
-111.77,45.25,2000 -111.75,45.26,2000 -111.72,45.27,2000 -111.69,45.29,2000 -111.67,45.30,2000 -111.64,45.31,2000 -111.62,45.31,2000 -111.59,45.32,2000 -111.57,45.33,2000 -111.54,45.33,2000 -111.51,45.33,2000 -111.48,45.33,2000 -111.45,45.33,2000 -111.42,45.32,2000 -111.39,45.32,2000 -111.36,45.31,2000 -111.34,45.30,2000 -111.31,45.30,2000 -111.29,45.29,2000 -111.26,45.28,2000 -111.24,45.27,2000 -111.23,45.25,2000 -111.21,45.24,2000 -111.20,45.22,2000 -111.19,45.20,2000 -111.18,45.18,2000 -111.17,45.16,2000 -111.16,45.14,2000 -111.15,45.12,2000 -111.15,45.10,2000 -111.14,45.07,2000 -111.14,45.05,2000 -111.14,45.03,2000 -111.14,45.01,2000 -111.15,44.99,2000 -111.16,44.96,2000 -111.18,44.94,2000 -111.19,44.92,2000 -111.20,44.90,2000 -111.21,44.88,2000 -111.22,44.87,2000 -111.23,44.86,2000 -111.25,44.85,2000 -111.27,44.84,2000 -111.29,44.83,2000 -111.31,44.81,2000 -111.33,44.79,2000 -111.36,44.78,2000 -111.39,44.76,2000 -111.41,44.75,2000 -111.44,44.75,2000 -111.47,44.75,2000 -111.49,44.76,2000 -111.52,44.77,2000 -111.55,44.78,2000 -111.58,44.79,2000 -111.61,44.80,2000 -111.63,44.81,2000 -111.65,44.82,2000 -111.68,44.83,2000 -111.70,44.84,2000 -111.71,44.85,2000 -111.73,44.86,2000 -111.75,44.88,2000 -111.77,44.90,2000 -111.80,44.91,2000 -111.81,44.93,2000 -111.83,44.95,2000 -111.84,44.97,2000 -111.85,44.99,2000 -111.85,45.01,2000 -111.85,45.03,2000 -111.85,45.05,2000 -111.84,45.07,2000 -111.84,45.09,2000 -111.83,45.11,2000 -111.83,45.13,2000 -111.82,45.15,2000 -111.77,45.25,2000 
          </coordinates>
        </LinearRing>
      </innerBoundaryIs>
  </Polygon>
 </MultiGeometry>
</Placemark>
<Placemark>
  <name>5%</name>
  <visibility>1</visibility>
  <styleUrl>#poly_5</styleUrl>
  <MultiGeometry>
    <Polygon>
      <outerBoundaryIs>
        <LinearRing>
          <coordinates>
-113.44,46.30,1000 -113.41,46.30,1000 -113.38,46.30,1000 -113.34,46.30,1000 -113.31,46.31,1000 -113.28,46.31,1000 -113.25,46.30,1000 -113.23,46.30,1000 -113.20,46.30,1000 -113.17,46.29,1000 -113.14,46.29,1000 -113.11,46.28,1000 -113.09,46.27,1000 -113.06,46.26,1000 -113.04,46.24,1000 -113.02,46.23,1000 -113.01,46.21,1000 -112.99,46.19,1000 -112.97,46.18,1000 -112.96,46.16,1000 -112.95,46.14,1000 -112.93,46.12,1000 -112.93,46.10,1000 -112.92,46.08,1000 -112.92,46.06,1000 -112.92,46.04,1000 -112.92,46.02,1000 -112.93,46.00,1000 -112.93,45.98,1000 -112.94,45.96,1000 -112.95,45.94,1000 -112.96,45.92,1000 -112.97,45.90,1000 -112.98,45.88,1000 -113.00,45.86,1000 -113.01,45.84,1000 -113.03,45.82,1000 -113.04,45.80,1000 -113.07,45.78,1000 -113.09,45.77,1000 -113.11,45.76,1000 -113.13,45.75,1000 -113.16,45.73,1000 -113.19,45.72,1000 -113.22,45.71,1000 -113.24,45.71,1000 -113.27,45.70,1000 -113.30,45.70,1000 -113.33,45.70,1000 -113.35,45.71,1000 -113.38,45.71,1000 -113.41,45.73,1000 -113.43,45.74,1000 -113.46,45.76,1000 -113.49,45.77,1000 -113.51,45.79,1000 -113.54,45.80,1000 -113.56,45.82,1000 -113.58,45.83,1000 -113.59,45.84,1000 -113.60,45.86,1000 -113.61,45.87,1000 -113.63,45.89,1000 -113.65,45.90,1000 -113.67,45.92,1000 -113.70,45.94,1000 -113.72,45.96,1000 -113.73,45.98,1000 -113.74,46.00,1000 -113.74,46.02,1000 -113.74,46.04,1000 -113.73,46.06,1000 -113.72,46.09,1000 -113.70,46.11,1000 -113.69,46.13,1000 -113.68,46.15,1000 -113.67,46.16,1000 -113.66,46.18,1000 -113.65,46.18,1000 -113.44,46.30,1000 
          </coordinates>
        </LinearRing>
      </outerBoundaryIs>
      <innerBoundaryIs>
        <LinearRing>
          <coordinates>
-113.43,46.22,2000 -113.41,46.22,2000 -113.39,46.22,2000 -113.37,46.22,2000 -113.35,46.21,2000 -113.33,46.21,2000 -113.31,46.21,2000 -113.30,46.21,2000 -113.28,46.21,2000 -113.26,46.21,2000 -113.24,46.22,2000 -113.22,46.22,2000 -113.20,46.22,2000 -113.18,46.21,2000 -113.17,46.20,2000 -113.15,46.20,2000 -113.14,46.19,2000 -113.12,46.18,2000 -113.11,46.17,2000 -113.09,46.16,2000 -113.07,46.14,2000 -113.06,46.13,2000 -113.04,46.12,2000 -113.03,46.11,2000 -113.02,46.09,2000 -113.01,46.08,2000 -113.01,46.07,2000 -113.01,46.06,2000 -113.01,46.04,2000 -113.02,46.03,2000 -113.02,46.01,2000 -113.03,46.00,2000 -113.04,45.98,2000 -113.05,45.97,2000 -113.07,45.96,2000 -113.08,45.94,2000 -113.09,45.93,2000 -113.10,45.92,2000 -113.11,45.91,2000 -113.12,45.90,2000 -113.14,45.89,2000 -113.15,45.88,2000 -113.17,45.88,2000 -113.19,45.88,2000 -113.21,45.88,2000 -113.23,45.87,2000 -113.24,45.87,2000 -113.26,45.86,2000 -113.28,45.85,2000 -113.30,45.84,2000 -113.32,45.84,2000 -113.34,45.83,2000 -113.35,45.83,2000 -113.37,45.83,2000 -113.38,45.83,2000 -113.39,45.84,2000 -113.41,45.86,2000 -113.42,45.87,2000 -113.43,45.87,2000 -113.45,45.88,2000 -113.46,45.89,2000 -113.48,45.90,2000 -113.50,45.91,2000 -113.52,45.92,2000 -113.54,45.93,2000 -113.55,45.94,2000 -113.57,45.95,2000 -113.59,45.96,2000 -113.60,45.98,2000 -113.61,45.99,2000 -113.62,46.00,2000 -113.62,46.01,2000 -113.62,46.02,2000 -113.62,46.03,2000 -113.62,46.05,2000 -113.61,46.06,2000 -113.61,46.07,2000 -113.60,46.08,2000 -113.59,46.09,2000 -113.58,46.11,2000 -113.57,46.12,2000 -113.55,46.13,2000 -113.54,46.15,2000 -113.52,46.16,2000 -113.51,46.17,2000 -113.50,46.19,2000 -113.48,46.20,2000 -113.43,46.22,2000 
          </coordinates>
        </LinearRing>
      </innerBoundaryIs>
  </Polygon>
 </MultiGeometry>
</Placemark>
<Placemark>
  <name>5%</name>
  <visibility>1</visibility>
  <styleUrl>#poly_5</styleUrl>
  <MultiGeometry>
    <Polygon>
      <outerBoundaryIs>
        <LinearRing>
          <coordinates>
-113.32,45.69,1000 -113.30,45.69,1000 -113.28,45.68,1000 -113.27,45.68,1000 -113.25,45.68,1000 -113.23,45.67,1000 -113.21,45.67,1000 -113.20,45.66,1000 -113.18,45.66,1000 -113.16,45.66,1000 -113.15,45.65,1000 -113.13,45.65,1000 -113.12,45.65,1000 -113.11,45.64,1000 -113.09,45.64,1000 -113.08,45.63,1000 -113.07,45.63,1000 -113.05,45.62,1000 -113.04,45.61,1000 -113.02,45.61,1000 -113.01,45.60,1000 -113.00,45.59,1000 -113.00,45.58,1000 -112.99,45.57,1000 -112.99,45.56,1000 -112.99,45.55,1000 -112.99,45.54,1000 -112.99,45.53,1000 -112.99,45.52,1000 -113.00,45.51,1000 -113.01,45.50,1000 -113.01,45.49,1000 -113.03,45.48,1000 -113.04,45.47,1000 -113.05,45.46,1000 -113.06,45.46,1000 -113.07,45.45,1000 -113.08,45.44,1000 -113.10,45.43,1000 -113.11,45.42,1000 -113.12,45.41,1000 -113.14,45.41,1000 -113.15,45.40,1000 -113.17,45.39,1000 -113.18,45.38,1000 -113.20,45.38,1000 -113.22,45.37,1000 -113.23,45.37,1000 -113.25,45.37,1000 -113.26,45.37,1000 -113.27,45.37,1000 -113.28,45.37,1000 -113.30,45.38,1000 -113.31,45.38,1000 -113.32,45.39,1000 -113.33,45.39,1000 -113.35,45.40,1000 -113.36,45.41,1000 -113.37,45.41,1000 -113.38,45.42,1000 -113.40,45.43,1000 -113.41,45.44,1000 -113.42,45.45,1000 -113.44,45.46,1000 -113.45,45.47,1000 -113.46,45.48,1000 -113.47,45.49,1000 -113.49,45.50,1000 -113.50,45.51,1000 -113.32,45.69,1000 
          </coordinates>
        </LinearRing>
      </outerBoundaryIs>
  </Polygon>
 </MultiGeometry>
</Placemark>
<Placemark>
  <name>5%</name>
  <visibility>1</visibility>
  <styleUrl>#poly_5</styleUrl>
  <MultiGeometry>
    <Polygon>
      <outerBoundaryIs>
        <LinearRing>
          <coordinates>
-110.36,45.57,1000 -110.31,45.57,1000 -110.27,45.57,1000 -110.23,45.57,1000 -110.18,45.56,1000 -110.15,45.56,1000 -110.11,45.55,1000 -110.07,45.54,1000 -110.04,45.52,1000 -110.01,45.50,1000 -109.99,45.48,1000 -109.96,45.47,1000 -109.93,45.46,1000 -109.90,45.46,1000 -109.85,45.45,1000 -109.82,45.44,1000 -109.77,45.44,1000 -109.73,45.43,1000 -109.68,45.43,1000 -109.64,45.42,1000 -109.60,45.41,1000 -109.56,45.40,1000 -109.53,45.38,1000 -109.50,45.37,1000 -109.48,45.36,1000 -109.45,45.34,1000 -109.42,45.32,1000 -109.39,45.30,1000 -109.36,45.28,1000 -109.33,45.26,1000 -109.30,45.24,1000 -109.27,45.22,1000 -109.24,45.21,1000 -109.22,45.18,1000 -109.21,45.16,1000 -109.19,45.13,1000 -109.18,45.11,1000 -109.17,45.08,1000 -109.16,45.05,1000 -109.16,45.02,1000 -109.17,44.99,1000 -109.18,44.97,1000 -109.20,44.94,1000 -109.22,44.91,1000 -109.23,44.88,1000 -109.25,44.86,1000 -109.26,44.84,1000 -109.27,44.83,1000 -109.29,44.82,1000 -109.32,44.80,1000 -109.35,44.79,1000 -109.39,44.77,1000 -109.43,44.75,1000 -109.46,44.74,1000 -109.50,44.73,1000 -109.54,44.73,1000 -109.58,44.73,1000 -109.63,44.73,1000 -109.67,44.74,1000 -109.71,44.74,1000 -109.74,44.75,1000 -109.78,44.76,1000 -109.81,44.77,1000 -109.84,44.78,1000 -109.87,44.79,1000 -109.91,44.80,1000 -109.95,44.80,1000 -110.00,44.81,1000 -110.03,44.82,1000 -110.07,44.83,1000 -110.11,44.85,1000 -110.15,44.86,1000 -110.19,44.88,1000 -110.22,44.89,1000 -110.25,44.90,1000 -110.28,44.91,1000 -110.30,44.93,1000 -110.32,44.95,1000 -110.36,44.97,1000 -110.39,44.99,1000 -110.43,45.01,1000 -110.47,45.04,1000 -110.50,45.06,1000 -110.52,45.07,1000 -110.53,45.08,1000 -110.53,45.10,1000 -110.54,45.13,1000 -110.55,45.16,1000 -110.55,45.20,1000 -110.56,45.23,1000 -110.56,45.25,1000 -110.56,45.27,1000 -110.56,45.29,1000 -110.56,45.31,1000 -110.55,45.34,1000 -110.55,45.37,1000 -110.54,45.40,1000 -110.54,45.43,1000 -110.36,45.57,1000 
          </coordinates>
        </LinearRing>
      </outerBoundaryIs>
      <innerBoundaryIs>
        <LinearRing>
          <coordinates>
-110.34,45.44,2000 -110.31,45.44,2000 -110.28,45.44,2000 -110.25,45.44,2000 -110.22,45.44,2000 -110.18,45.44,2000 -110.15,45.44,2000 -110.12,45.44,2000 -110.09,45.44,2000 -110.06,45.44,2000 -110.03,45.44,2000 -110.00,45.43,2000 -109.96,45.43,2000 -109.93,45.43,2000 -109.90,45.42,2000 -109.87,45.42,2000 -109.84,45.41,2000 -109.81,45.40,2000 -109.77,45.39,2000 -109.74,45.38,2000 -109.70,45.37,2000 -109.67,45.36,2000 -109.64,45.35,2000 -109.62,45.34,2000 -109.60,45.33,2000 -109.59,45.32,2000 -109.57,45.31,2000 -109.55,45.30,2000 -109.53,45.29,2000 -109.50,45.27,2000 -109.47,45.25,2000 -109.44,45.24,2000 -109.41,45.22,2000 -109.38,45.21,2000 -109.36,45.19,2000 -109.34,45.18,2000 -109.32,45.16,2000 -109.31,45.14,2000 -109.31,45.12,2000 -109.31,45.10,2000 -109.30,45.08,2000 -109.28,45.05,2000 -109.27,45.03,2000 -109.26,45.01,2000 -109.26,44.99,2000 -109.26,44.98,2000 -109.29,44.96,2000 -109.31,44.95,2000 -109.33,44.93,2000 -109.35,44.92,2000 -109.38,44.90,2000 -109.40,44.88,2000 -109.43,44.86,2000 -109.45,44.84,2000 -109.47,44.83,2000 -109.49,44.82,2000 -109.51,44.81,2000 -109.54,44.82,2000 -109.56,44.82,2000 -109.59,44.82,2000 -109.61,44.82,2000 -109.65,44.82,2000 -109.68,44.82,2000 -109.72,44.83,2000 -109.75,44.83,2000 -109.78,44.84,2000 -109.81,44.84,2000 -109.84,44.85,2000 -109.87,44.86,2000 -109.90,44.87,2000 -109.93,44.88,2000 -109.96,44.89,2000 -109.99,44.89,2000 -110.01,44.90,2000 -110.05,44.91,2000 -110.07,44.92,2000 -110.09,44.93,2000 -110.12,44.94,2000 -110.14,44.95,2000 -110.17,44.97,2000 -110.19,44.99,2000 -110.22,45.01,2000 -110.24,45.03,2000 -110.26,45.05,2000 -110.28,45.06,2000 -110.30,45.07,2000 -110.31,45.08,2000 -110.33,45.10,2000 -110.34,45.11,2000 -110.35,45.13,2000 -110.36,45.15,2000 -110.37,45.17,2000 -110.38,45.19,2000 -110.40,45.21,2000 -110.41,45.24,2000 -110.42,45.26,2000 -110.34,45.44,2000 
          </coordinates>
        </LinearRing>
      </innerBoundaryIs>
  </Polygon>
 </MultiGeometry>
</Placemark>
<Placemark>
  <name>5%</name>
  <visibility>1</visibility>
  <styleUrl>#poly_5</styleUrl>
  <MultiGeometry>
    <Polygon>
      <outerBoundaryIs>
        <LinearRing>
          <coordinates>
-113.90,44.89,1000 -113.84,44.88,1000 -113.79,44.88,1000 -113.74,44.87,1000 -113.69,44.87,1000 -113.65,44.86,1000 -113.61,44.85,1000 -113.58,44.83,1000 -113.55,44.81,1000 -113.51,44.79,1000 -113.46,44.77,1000 -113.42,44.74,1000 -113.38,44.72,1000 -113.35,44.70,1000 -113.33,44.69,1000 -113.31,44.66,1000 -113.30,44.63,1000 -113.28,44.60,1000 -113.26,44.57,1000 -113.25,44.53,1000 -113.25,44.50,1000 -113.26,44.47,1000 -113.28,44.44,1000 -113.30,44.41,1000 -113.32,44.39,1000 -113.34,44.36,1000 -113.36,44.34,1000 -113.38,44.31,1000 -113.39,44.28,1000 -113.41,44.24,1000 -113.42,44.20,1000 -113.44,44.16,1000 -113.45,44.13,1000 -113.46,44.09,1000 -113.47,44.06,1000 -113.49,44.03,1000 -113.51,44.01,1000 -113.53,43.98,1000 -113.56,43.96,1000 -113.59,43.94,1000 -113.63,43.91,1000 -113.67,43.89,1000 -113.71,43.88,1000 -113.75,43.89,1000 -113.80,43.90,1000 -113.84,43.92,1000 -113.89,43.94,1000 -113.93,43.96,1000 -113.97,43.98,1000 -114.01,44.01,1000 -114.03,44.04,1000 -114.05,44.07,1000 -114.04,44.10,1000 -114.02,44.14,1000 -114.00,44.17,1000 -113.99,44.19,1000 -113.97,44.22,1000 -113.96,44.25,1000 -113.95,44.28,1000 -113.93,44.32,1000 -113.91,44.35,1000 -113.90,44.39,1000 -113.90,44.43,1000 -113.91,44.46,1000 -113.93,44.50,1000 -113.95,44.53,1000 -113.97,44.57,1000 -113.99,44.60,1000 -114.00,44.63,1000 -114.01,44.67,1000 -114.02,44.70,1000 -114.02,44.74,1000 -114.03,44.77,1000 -113.90,44.89,1000 
          </coordinates>
        </LinearRing>
      </outerBoundaryIs>
      <innerBoundaryIs>
        <LinearRing>
          <coordinates>
-113.63,44.74,2000 -113.61,44.73,2000 -113.59,44.72,2000 -113.57,44.72,2000 -113.55,44.71,2000 -113.53,44.70,2000 -113.51,44.69,2000 -113.50,44.68,2000 -113.48,44.66,2000 -113.47,44.65,2000 -113.46,44.64,2000 -113.45,44.62,2000 -113.44,44.61,2000 -113.43,44.59,2000 -113.42,44.58,2000 -113.41,44.56,2000 -113.41,44.55,2000 -113.40,44.53,2000 -113.40,44.51,2000 -113.40,44.50,2000 -113.40,44.48,2000 -113.40,44.47,2000 -113.41,44.45,2000 -113.42,44.43,2000 -113.43,44.42,2000 -113.44,44.40,2000 -113.45,44.38,2000 -113.46,44.37,2000 -113.48,44.35,2000 -113.49,44.34,2000 -113.51,44.33,2000 -113.52,44.32,2000 -113.54,44.31,2000 -113.55,44.31,2000 -113.56,44.31,2000 -113.58,44.31,2000 -113.59,44.32,2000 -113.61,44.33,2000 -113.63,44.34,2000 -113.65,44.35,2000 -113.66,44.37,2000 -113.68,44.38,2000 -113.69,44.40,2000 -113.71,44.41,2000 -113.72,44.42,2000 -113.74,44.44,2000 -113.75,44.45,2000 -113.76,44.46,2000 -113.77,44.48,2000 -113.78,44.49,2000 -113.79,44.51,2000 -113.80,44.52,2000 -113.81,44.54,2000 -113.82,44.55,2000 -113.82,44.57,2000 -113.83,44.58,2000 -113.83,44.60,2000 -113.84,44.61,2000 -113.63,44.74,2000 
          </coordinates>
        </LinearRing>
      </innerBoundaryIs>
  </Polygon>
 </MultiGeometry>
</Placemark>
<Placemark>
  <name>10%</name>
  <visibility>1</visibility>
  <styleUrl>#poly_10</styleUrl>
  <MultiGeometry>
    <Polygon>
      <outerBoundaryIs>
        <LinearRing>
          <coordinates>
-113.63,44.74,2000 -113.61,44.73,2000 -113.59,44.72,2000 -113.57,44.72,2000 -113.55,44.71,2000 -113.53,44.70,2000 -113.51,44.69,2000 -113.50,44.68,2000 -113.48,44.66,2000 -113.47,44.65,2000 -113.46,44.64,2000 -113.45,44.62,2000 -113.44,44.61,2000 -113.43,44.59,2000 -113.42,44.58,2000 -113.41,44.56,2000 -113.41,44.55,2000 -113.40,44.53,2000 -113.40,44.51,2000 -113.40,44.50,2000 -113.40,44.48,2000 -113.40,44.47,2000 -113.41,44.45,2000 -113.42,44.43,2000 -113.43,44.42,2000 -113.44,44.40,2000 -113.45,44.38,2000 -113.46,44.37,2000 -113.48,44.35,2000 -113.49,44.34,2000 -113.51,44.33,2000 -113.52,44.32,2000 -113.54,44.31,2000 -113.55,44.31,2000 -113.56,44.31,2000 -113.58,44.31,2000 -113.59,44.32,2000 -113.61,44.33,2000 -113.63,44.34,2000 -113.65,44.35,2000 -113.66,44.37,2000 -113.68,44.38,2000 -113.69,44.40,2000 -113.71,44.41,2000 -113.72,44.42,2000 -113.74,44.44,2000 -113.75,44.45,2000 -113.76,44.46,2000 -113.77,44.48,2000 -113.78,44.49,2000 -113.79,44.51,2000 -113.80,44.52,2000 -113.81,44.54,2000 -113.82,44.55,2000 -113.82,44.57,2000 -113.83,44.58,2000 -113.83,44.60,2000 -113.84,44.61,2000 -113.63,44.74,2000 
          </coordinates>
        </LinearRing>
      </outerBoundaryIs>
  </Polygon>
 </MultiGeometry>
</Placemark>
<Placemark>
  <name>10%</name>
  <visibility>1</visibility>
  <styleUrl>#poly_10</styleUrl>
  <MultiGeometry>
    <Polygon>
      <outerBoundaryIs>
        <LinearRing>
          <coordinates>
-110.34,45.44,2000 -110.31,45.44,2000 -110.28,45.44,2000 -110.25,45.44,2000 -110.22,45.44,2000 -110.18,45.44,2000 -110.15,45.44,2000 -110.12,45.44,2000 -110.09,45.44,2000 -110.06,45.44,2000 -110.03,45.44,2000 -110.00,45.43,2000 -109.96,45.43,2000 -109.93,45.43,2000 -109.90,45.42,2000 -109.87,45.42,2000 -109.84,45.41,2000 -109.81,45.40,2000 -109.77,45.39,2000 -109.74,45.38,2000 -109.70,45.37,2000 -109.67,45.36,2000 -109.64,45.35,2000 -109.62,45.34,2000 -109.60,45.33,2000 -109.59,45.32,2000 -109.57,45.31,2000 -109.55,45.30,2000 -109.53,45.29,2000 -109.50,45.27,2000 -109.47,45.25,2000 -109.44,45.24,2000 -109.41,45.22,2000 -109.38,45.21,2000 -109.36,45.19,2000 -109.34,45.18,2000 -109.32,45.16,2000 -109.31,45.14,2000 -109.31,45.12,2000 -109.31,45.10,2000 -109.30,45.08,2000 -109.28,45.05,2000 -109.27,45.03,2000 -109.26,45.01,2000 -109.26,44.99,2000 -109.26,44.98,2000 -109.29,44.96,2000 -109.31,44.95,2000 -109.33,44.93,2000 -109.35,44.92,2000 -109.38,44.90,2000 -109.40,44.88,2000 -109.43,44.86,2000 -109.45,44.84,2000 -109.47,44.83,2000 -109.49,44.82,2000 -109.51,44.81,2000 -109.54,44.82,2000 -109.56,44.82,2000 -109.59,44.82,2000 -109.61,44.82,2000 -109.65,44.82,2000 -109.68,44.82,2000 -109.72,44.83,2000 -109.75,44.83,2000 -109.78,44.84,2000 -109.81,44.84,2000 -109.84,44.85,2000 -109.87,44.86,2000 -109.90,44.87,2000 -109.93,44.88,2000 -109.96,44.89,2000 -109.99,44.89,2000 -110.01,44.90,2000 -110.05,44.91,2000 -110.07,44.92,2000 -110.09,44.93,2000 -110.12,44.94,2000 -110.14,44.95,2000 -110.17,44.97,2000 -110.19,44.99,2000 -110.22,45.01,2000 -110.24,45.03,2000 -110.26,45.05,2000 -110.28,45.06,2000 -110.30,45.07,2000 -110.31,45.08,2000 -110.33,45.10,2000 -110.34,45.11,2000 -110.35,45.13,2000 -110.36,45.15,2000 -110.37,45.17,2000 -110.38,45.19,2000 -110.40,45.21,2000 -110.41,45.24,2000 -110.42,45.26,2000 -110.34,45.44,2000 
          </coordinates>
        </LinearRing>
      </outerBoundaryIs>
      <innerBoundaryIs>
        <LinearRing>
          <coordinates>
-110.07,45.31,3000 -110.04,45.31,3000 -110.02,45.31,3000 -109.99,45.31,3000 -109.97,45.31,3000 -109.95,45.31,3000 -109.93,45.31,3000 -109.91,45.31,3000 -109.89,45.31,3000 -109.87,45.31,3000 -109.86,45.31,3000 -109.85,45.31,3000 -109.83,45.31,3000 -109.82,45.31,3000 -109.80,45.30,3000 -109.78,45.30,3000 -109.76,45.29,3000 -109.74,45.29,3000 -109.72,45.28,3000 -109.69,45.28,3000 -109.67,45.27,3000 -109.65,45.26,3000 -109.63,45.26,3000 -109.60,45.25,3000 -109.59,45.25,3000 -109.57,45.24,3000 -109.54,45.23,3000 -109.52,45.22,3000 -109.51,45.22,3000 -109.49,45.21,3000 -109.48,45.20,3000 -109.46,45.19,3000 -109.45,45.17,3000 -109.44,45.16,3000 -109.44,45.15,3000 -109.43,45.13,3000 -109.42,45.12,3000 -109.42,45.10,3000 -109.41,45.09,3000 -109.41,45.07,3000 -109.40,45.06,3000 -109.40,45.04,3000 -109.40,45.03,3000 -109.40,45.01,3000 -109.40,45.00,3000 -109.41,44.99,3000 -109.41,44.97,3000 -109.42,44.96,3000 -109.43,44.94,3000 -109.45,44.93,3000 -109.46,44.92,3000 -109.48,44.91,3000 -109.50,44.91,3000 -109.52,44.90,3000 -109.54,44.90,3000 -109.56,44.89,3000 -109.58,44.89,3000 -109.60,44.89,3000 -109.62,44.89,3000 -109.64,44.90,3000 -109.67,44.90,3000 -109.69,44.90,3000 -109.71,44.90,3000 -109.73,44.90,3000 -109.75,44.91,3000 -109.77,44.91,3000 -109.79,44.91,3000 -109.82,44.92,3000 -109.83,44.93,3000 -109.85,44.93,3000 -109.87,44.94,3000 -109.88,44.95,3000 -109.90,44.96,3000 -109.92,44.97,3000 -109.93,44.98,3000 -109.95,44.99,3000 -109.97,45.00,3000 -109.98,45.01,3000 -110.00,45.02,3000 -110.01,45.03,3000 -110.03,45.04,3000 -110.05,45.05,3000 -110.07,45.06,3000 -110.09,45.06,3000 -110.10,45.07,3000 -110.12,45.08,3000 -110.13,45.09,3000 -110.14,45.11,3000 -110.14,45.12,3000 -110.14,45.13,3000 -110.14,45.15,3000 -110.14,45.16,3000 -110.14,45.17,3000 -110.14,45.19,3000 -110.13,45.21,3000 -110.13,45.22,3000 -110.13,45.24,3000 -110.12,45.26,3000 -110.12,45.27,3000 -110.11,45.29,3000 -110.07,45.31,3000 
          </coordinates>
        </LinearRing>
      </innerBoundaryIs>
  </Polygon>
 </MultiGeometry>
</Placemark>
<Placemark>
  <name>10%</name>
  <visibility>1</visibility>
  <styleUrl>#poly_10</styleUrl>
  <MultiGeometry>
    <Polygon>
      <outerBoundaryIs>
        <LinearRing>
          <coordinates>
-110.84,44.06,2000 -110.82,44.06,2000 -110.80,44.05,2000 -110.78,44.05,2000 -110.76,44.04,2000 -110.74,44.03,2000 -110.72,44.02,2000 -110.70,44.02,2000 -110.68,44.01,2000 -110.66,44.00,2000 -110.64,43.99,2000 -110.62,43.98,2000 -110.61,43.97,2000 -110.59,43.96,2000 -110.57,43.95,2000 -110.55,43.94,2000 -110.53,43.93,2000 -110.52,43.91,2000 -110.51,43.90,2000 -110.50,43.88,2000 -110.50,43.87,2000 -110.50,43.85,2000 -110.51,43.83,2000 -110.51,43.81,2000 -110.52,43.79,2000 -110.53,43.77,2000 -110.53,43.75,2000 -110.54,43.74,2000 -110.55,43.72,2000 -110.55,43.71,2000 -110.55,43.70,2000 -110.56,43.69,2000 -110.57,43.68,2000 -110.59,43.67,2000 -110.61,43.66,2000 -110.63,43.64,2000 -110.65,43.63,2000 -110.67,43.61,2000 -110.69,43.60,2000 -110.72,43.59,2000 -110.74,43.58,2000 -110.76,43.58,2000 -110.78,43.58,2000 -110.81,43.58,2000 -110.83,43.59,2000 -110.86,43.60,2000 -110.88,43.61,2000 -110.91,43.62,2000 -110.93,43.63,2000 -110.96,43.64,2000 -110.98,43.65,2000 -111.00,43.65,2000 -111.01,43.66,2000 -111.02,43.67,2000 -111.03,43.68,2000 -111.04,43.69,2000 -111.05,43.71,2000 -111.06,43.72,2000 -111.07,43.74,2000 -111.08,43.76,2000 -111.09,43.77,2000 -111.10,43.79,2000 -111.11,43.81,2000 -111.11,43.82,2000 -111.11,43.84,2000 -111.11,43.86,2000 -111.10,43.87,2000 -111.09,43.89,2000 -111.07,43.90,2000 -111.06,43.92,2000 -111.05,43.93,2000 -111.03,43.94,2000 -111.02,43.95,2000 -111.00,43.97,2000 -110.99,43.98,2000 -110.97,43.99,2000 -110.95,44.00,2000 -110.93,44.01,2000 -110.84,44.06,2000 
          </coordinates>
        </LinearRing>
      </outerBoundaryIs>
  </Polygon>
 </MultiGeometry>
</Placemark>
<Placemark>
  <name>10%</name>
  <visibility>1</visibility>
  <styleUrl>#poly_10</styleUrl>
  <MultiGeometry>
    <Polygon>
      <outerBoundaryIs>
        <LinearRing>
          <coordinates>
-112.33,45.62,2000 -112.32,45.64,2000 -112.30,45.65,2000 -112.29,45.66,2000 -112.27,45.68,2000 -112.25,45.69,2000 -112.24,45.71,2000 -112.22,45.72,2000 -112.21,45.73,2000 -112.19,45.74,2000 -112.18,45.75,2000 -112.16,45.76,2000 -112.14,45.76,2000 -112.13,45.77,2000 -112.11,45.77,2000 -112.09,45.77,2000 -112.07,45.77,2000 -112.05,45.76,2000 -112.02,45.75,2000 -112.00,45.75,2000 -111.98,45.74,2000 -111.96,45.72,2000 -111.93,45.71,2000 -111.91,45.70,2000 -111.89,45.69,2000 -111.88,45.68,2000 -111.86,45.68,2000 -111.85,45.67,2000 -111.84,45.66,2000 -111.84,45.65,2000 -111.84,45.64,2000 -111.83,45.62,2000 -111.83,45.60,2000 -111.83,45.59,2000 -111.82,45.57,2000 -111.82,45.55,2000 -111.82,45.53,2000 -111.81,45.51,2000 -111.81,45.50,2000 -111.81,45.49,2000 -111.79,45.48,2000 -111.81,45.47,2000 -111.82,45.46,2000 -111.83,45.45,2000 -111.84,45.44,2000 -111.86,45.43,2000 -111.88,45.42,2000 -111.89,45.40,2000 -111.91,45.39,2000 -111.93,45.38,2000 -111.95,45.37,2000 -111.97,45.36,2000 -111.99,45.35,2000 -112.01,45.34,2000 -112.03,45.34,2000 -112.05,45.34,2000 -112.07,45.34,2000 -112.09,45.35,2000 -112.11,45.35,2000 -112.13,45.36,2000 -112.16,45.37,2000 -112.18,45.38,2000 -112.20,45.39,2000 -112.22,45.40,2000 -112.24,45.41,2000 -112.26,45.42,2000 -112.27,45.43,2000 -112.29,45.44,2000 -112.30,45.44,2000 -112.31,45.45,2000 -112.31,45.46,2000 -112.31,45.47,2000 -112.32,45.48,2000 -112.32,45.50,2000 -112.32,45.51,2000 -112.32,45.53,2000 -112.33,45.55,2000 -112.33,45.56,2000 -112.33,45.58,2000 -112.34,45.60,2000 -112.34,45.62,2000 -112.33,45.62,2000 
          </coordinates>
        </LinearRing>
      </outerBoundaryIs>
      <innerBoundaryIs>
        <LinearRing>
          <coordinates>
-112.09,45.65,3000 -112.08,45.66,3000 -112.08,45.66,3000 -112.07,45.64,3000 -112.07,45.64,3000 -112.07,45.63,3000 -112.07,45.63,3000 -112.07,45.62,3000 -112.06,45.61,3000 -112.06,45.61,3000 -112.06,45.60,3000 -112.06,45.59,3000 -112.06,45.58,3000 -112.06,45.58,3000 -112.05,45.57,3000 -112.05,45.56,3000 -112.05,45.55,3000 -112.05,45.54,3000 -112.05,45.53,3000 -112.05,45.53,3000 -112.05,45.52,3000 -112.05,45.51,3000 -112.04,45.50,3000 -112.04,45.50,3000 -112.04,45.49,3000 -112.04,45.48,3000 -112.04,45.48,3000 -112.04,45.47,3000 -112.04,45.47,3000 -112.04,45.45,3000 -112.05,45.46,3000 -112.06,45.46,3000 -112.06,45.45,3000 -112.07,45.47,3000 -112.07,45.47,3000 -112.07,45.48,3000 -112.07,45.48,3000 -112.07,45.49,3000 -112.07,45.49,3000 -112.08,45.50,3000 -112.08,45.50,3000 -112.08,45.51,3000 -112.08,45.52,3000 -112.08,45.52,3000 -112.08,45.53,3000 -112.08,45.54,3000 -112.08,45.54,3000 -112.08,45.55,3000 -112.09,45.56,3000 -112.09,45.57,3000 -112.09,45.57,3000 -112.09,45.58,3000 -112.09,45.59,3000 -112.09,45.60,3000 -112.09,45.61,3000 -112.10,45.61,3000 -112.10,45.62,3000 -112.10,45.63,3000 -112.10,45.64,3000 -112.09,45.65,3000 
          </coordinates>
        </LinearRing>
      </innerBoundaryIs>
  </Polygon>
 </MultiGeometry>
</Placemark>
<Placemark>
  <name>10%</name>
  <visibility>1</visibility>
  <styleUrl>#poly_10</styleUrl>
  <MultiGeometry>
    <Polygon>
      <outerBoundaryIs>
        <LinearRing>
          <coordinates>
-111.77,45.25,2000 -111.75,45.26,2000 -111.72,45.27,2000 -111.69,45.29,2000 -111.67,45.30,2000 -111.64,45.31,2000 -111.62,45.31,2000 -111.59,45.32,2000 -111.57,45.33,2000 -111.54,45.33,2000 -111.51,45.33,2000 -111.48,45.33,2000 -111.45,45.33,2000 -111.42,45.32,2000 -111.39,45.32,2000 -111.36,45.31,2000 -111.34,45.30,2000 -111.31,45.30,2000 -111.29,45.29,2000 -111.26,45.28,2000 -111.24,45.27,2000 -111.23,45.25,2000 -111.21,45.24,2000 -111.20,45.22,2000 -111.19,45.20,2000 -111.18,45.18,2000 -111.17,45.16,2000 -111.16,45.14,2000 -111.15,45.12,2000 -111.15,45.10,2000 -111.14,45.07,2000 -111.14,45.05,2000 -111.14,45.03,2000 -111.14,45.01,2000 -111.15,44.99,2000 -111.16,44.96,2000 -111.18,44.94,2000 -111.19,44.92,2000 -111.20,44.90,2000 -111.21,44.88,2000 -111.22,44.87,2000 -111.23,44.86,2000 -111.25,44.85,2000 -111.27,44.84,2000 -111.29,44.83,2000 -111.31,44.81,2000 -111.33,44.79,2000 -111.36,44.78,2000 -111.39,44.76,2000 -111.41,44.75,2000 -111.44,44.75,2000 -111.47,44.75,2000 -111.49,44.76,2000 -111.52,44.77,2000 -111.55,44.78,2000 -111.58,44.79,2000 -111.61,44.80,2000 -111.63,44.81,2000 -111.65,44.82,2000 -111.68,44.83,2000 -111.70,44.84,2000 -111.71,44.85,2000 -111.73,44.86,2000 -111.75,44.88,2000 -111.77,44.90,2000 -111.80,44.91,2000 -111.81,44.93,2000 -111.83,44.95,2000 -111.84,44.97,2000 -111.85,44.99,2000 -111.85,45.01,2000 -111.85,45.03,2000 -111.85,45.05,2000 -111.84,45.07,2000 -111.84,45.09,2000 -111.83,45.11,2000 -111.83,45.13,2000 -111.82,45.15,2000 -111.77,45.25,2000 
          </coordinates>
        </LinearRing>
      </outerBoundaryIs>
      <innerBoundaryIs>
        <LinearRing>
          <coordinates>
-111.53,45.24,3000 -111.51,45.24,3000 -111.49,45.24,3000 -111.47,45.23,3000 -111.45,45.23,3000 -111.44,45.23,3000 -111.42,45.22,3000 -111.40,45.22,3000 -111.39,45.21,3000 -111.37,45.20,3000 -111.36,45.19,3000 -111.35,45.18,3000 -111.34,45.17,3000 -111.33,45.16,3000 -111.32,45.15,3000 -111.31,45.13,3000 -111.30,45.12,3000 -111.29,45.10,3000 -111.29,45.09,3000 -111.28,45.08,3000 -111.28,45.06,3000 -111.28,45.05,3000 -111.28,45.03,3000 -111.28,45.02,3000 -111.28,45.01,3000 -111.29,45.00,3000 -111.30,44.98,3000 -111.31,44.97,3000 -111.32,44.96,3000 -111.33,44.94,3000 -111.34,44.93,3000 -111.36,44.91,3000 -111.37,44.90,3000 -111.39,44.89,3000 -111.40,44.88,3000 -111.42,44.87,3000 -111.43,44.87,3000 -111.45,44.86,3000 -111.46,44.86,3000 -111.47,44.86,3000 -111.49,44.86,3000 -111.51,44.87,3000 -111.52,44.87,3000 -111.54,44.88,3000 -111.56,44.89,3000 -111.58,44.90,3000 -111.60,44.91,3000 -111.61,44.92,3000 -111.63,44.93,3000 -111.65,44.94,3000 -111.66,44.96,3000 -111.67,44.97,3000 -111.68,44.98,3000 -111.69,44.99,3000 -111.70,45.00,3000 -111.70,45.01,3000 -111.70,45.03,3000 -111.70,45.04,3000 -111.70,45.05,3000 -111.70,45.06,3000 -111.69,45.08,3000 -111.69,45.09,3000 -111.68,45.10,3000 -111.67,45.12,3000 -111.67,45.13,3000 -111.66,45.15,3000 -111.65,45.16,3000 -111.53,45.24,3000 
          </coordinates>
        </LinearRing>
      </innerBoundaryIs>
  </Polygon>
 </MultiGeometry>
</Placemark>
<Placemark>
  <name>10%</name>
  <visibility>1</visibility>
  <styleUrl>#poly_10</styleUrl>
  <MultiGeometry>
    <Polygon>
      <outerBoundaryIs>
        <LinearRing>
          <coordinates>
-113.43,46.22,2000 -113.41,46.22,2000 -113.39,46.22,2000 -113.37,46.22,2000 -113.35,46.21,2000 -113.33,46.21,2000 -113.31,46.21,2000 -113.30,46.21,2000 -113.28,46.21,2000 -113.26,46.21,2000 -113.24,46.22,2000 -113.22,46.22,2000 -113.20,46.22,2000 -113.18,46.21,2000 -113.17,46.20,2000 -113.15,46.20,2000 -113.14,46.19,2000 -113.12,46.18,2000 -113.11,46.17,2000 -113.09,46.16,2000 -113.07,46.14,2000 -113.06,46.13,2000 -113.04,46.12,2000 -113.03,46.11,2000 -113.02,46.09,2000 -113.01,46.08,2000 -113.01,46.07,2000 -113.01,46.06,2000 -113.01,46.04,2000 -113.02,46.03,2000 -113.02,46.01,2000 -113.03,46.00,2000 -113.04,45.98,2000 -113.05,45.97,2000 -113.07,45.96,2000 -113.08,45.94,2000 -113.09,45.93,2000 -113.10,45.92,2000 -113.11,45.91,2000 -113.12,45.90,2000 -113.14,45.89,2000 -113.15,45.88,2000 -113.17,45.88,2000 -113.19,45.88,2000 -113.21,45.88,2000 -113.23,45.87,2000 -113.24,45.87,2000 -113.26,45.86,2000 -113.28,45.85,2000 -113.30,45.84,2000 -113.32,45.84,2000 -113.34,45.83,2000 -113.35,45.83,2000 -113.37,45.83,2000 -113.38,45.83,2000 -113.39,45.84,2000 -113.41,45.86,2000 -113.42,45.87,2000 -113.43,45.87,2000 -113.45,45.88,2000 -113.46,45.89,2000 -113.48,45.90,2000 -113.50,45.91,2000 -113.52,45.92,2000 -113.54,45.93,2000 -113.55,45.94,2000 -113.57,45.95,2000 -113.59,45.96,2000 -113.60,45.98,2000 -113.61,45.99,2000 -113.62,46.00,2000 -113.62,46.01,2000 -113.62,46.02,2000 -113.62,46.03,2000 -113.62,46.05,2000 -113.61,46.06,2000 -113.61,46.07,2000 -113.60,46.08,2000 -113.59,46.09,2000 -113.58,46.11,2000 -113.57,46.12,2000 -113.55,46.13,2000 -113.54,46.15,2000 -113.52,46.16,2000 -113.51,46.17,2000 -113.50,46.19,2000 -113.48,46.20,2000 -113.43,46.22,2000 
          </coordinates>
        </LinearRing>
      </outerBoundaryIs>
  </Polygon>
 </MultiGeometry>
</Placemark>
<Placemark>
  <name>20%</name>
  <visibility>1</visibility>
  <styleUrl>#poly_20</styleUrl>
  <MultiGeometry>
    <Polygon>
      <outerBoundaryIs>
        <LinearRing>
          <coordinates>
-111.53,45.24,3000 -111.51,45.24,3000 -111.49,45.24,3000 -111.47,45.23,3000 -111.45,45.23,3000 -111.44,45.23,3000 -111.42,45.22,3000 -111.40,45.22,3000 -111.39,45.21,3000 -111.37,45.20,3000 -111.36,45.19,3000 -111.35,45.18,3000 -111.34,45.17,3000 -111.33,45.16,3000 -111.32,45.15,3000 -111.31,45.13,3000 -111.30,45.12,3000 -111.29,45.10,3000 -111.29,45.09,3000 -111.28,45.08,3000 -111.28,45.06,3000 -111.28,45.05,3000 -111.28,45.03,3000 -111.28,45.02,3000 -111.28,45.01,3000 -111.29,45.00,3000 -111.30,44.98,3000 -111.31,44.97,3000 -111.32,44.96,3000 -111.33,44.94,3000 -111.34,44.93,3000 -111.36,44.91,3000 -111.37,44.90,3000 -111.39,44.89,3000 -111.40,44.88,3000 -111.42,44.87,3000 -111.43,44.87,3000 -111.45,44.86,3000 -111.46,44.86,3000 -111.47,44.86,3000 -111.49,44.86,3000 -111.51,44.87,3000 -111.52,44.87,3000 -111.54,44.88,3000 -111.56,44.89,3000 -111.58,44.90,3000 -111.60,44.91,3000 -111.61,44.92,3000 -111.63,44.93,3000 -111.65,44.94,3000 -111.66,44.96,3000 -111.67,44.97,3000 -111.68,44.98,3000 -111.69,44.99,3000 -111.70,45.00,3000 -111.70,45.01,3000 -111.70,45.03,3000 -111.70,45.04,3000 -111.70,45.05,3000 -111.70,45.06,3000 -111.69,45.08,3000 -111.69,45.09,3000 -111.68,45.10,3000 -111.67,45.12,3000 -111.67,45.13,3000 -111.66,45.15,3000 -111.65,45.16,3000 -111.53,45.24,3000 
          </coordinates>
        </LinearRing>
      </outerBoundaryIs>
  </Polygon>
 </MultiGeometry>
</Placemark>
<Placemark>
  <name>20%</name>
  <visibility>1</visibility>
  <styleUrl>#poly_20</styleUrl>
  <MultiGeometry>
    <Polygon>
      <outerBoundaryIs>
        <LinearRing>
          <coordinates>
-110.07,45.31,3000 -110.04,45.31,3000 -110.02,45.31,3000 -109.99,45.31,3000 -109.97,45.31,3000 -109.95,45.31,3000 -109.93,45.31,3000 -109.91,45.31,3000 -109.89,45.31,3000 -109.87,45.31,3000 -109.86,45.31,3000 -109.85,45.31,3000 -109.83,45.31,3000 -109.82,45.31,3000 -109.80,45.30,3000 -109.78,45.30,3000 -109.76,45.29,3000 -109.74,45.29,3000 -109.72,45.28,3000 -109.69,45.28,3000 -109.67,45.27,3000 -109.65,45.26,3000 -109.63,45.26,3000 -109.60,45.25,3000 -109.59,45.25,3000 -109.57,45.24,3000 -109.54,45.23,3000 -109.52,45.22,3000 -109.51,45.22,3000 -109.49,45.21,3000 -109.48,45.20,3000 -109.46,45.19,3000 -109.45,45.17,3000 -109.44,45.16,3000 -109.44,45.15,3000 -109.43,45.13,3000 -109.42,45.12,3000 -109.42,45.10,3000 -109.41,45.09,3000 -109.41,45.07,3000 -109.40,45.06,3000 -109.40,45.04,3000 -109.40,45.03,3000 -109.40,45.01,3000 -109.40,45.00,3000 -109.41,44.99,3000 -109.41,44.97,3000 -109.42,44.96,3000 -109.43,44.94,3000 -109.45,44.93,3000 -109.46,44.92,3000 -109.48,44.91,3000 -109.50,44.91,3000 -109.52,44.90,3000 -109.54,44.90,3000 -109.56,44.89,3000 -109.58,44.89,3000 -109.60,44.89,3000 -109.62,44.89,3000 -109.64,44.90,3000 -109.67,44.90,3000 -109.69,44.90,3000 -109.71,44.90,3000 -109.73,44.90,3000 -109.75,44.91,3000 -109.77,44.91,3000 -109.79,44.91,3000 -109.82,44.92,3000 -109.83,44.93,3000 -109.85,44.93,3000 -109.87,44.94,3000 -109.88,44.95,3000 -109.90,44.96,3000 -109.92,44.97,3000 -109.93,44.98,3000 -109.95,44.99,3000 -109.97,45.00,3000 -109.98,45.01,3000 -110.00,45.02,3000 -110.01,45.03,3000 -110.03,45.04,3000 -110.05,45.05,3000 -110.07,45.06,3000 -110.09,45.06,3000 -110.10,45.07,3000 -110.12,45.08,3000 -110.13,45.09,3000 -110.14,45.11,3000 -110.14,45.12,3000 -110.14,45.13,3000 -110.14,45.15,3000 -110.14,45.16,3000 -110.14,45.17,3000 -110.14,45.19,3000 -110.13,45.21,3000 -110.13,45.22,3000 -110.13,45.24,3000 -110.12,45.26,3000 -110.12,45.27,3000 -110.11,45.29,3000 -110.07,45.31,3000 
          </coordinates>
        </LinearRing>
      </outerBoundaryIs>
      <innerBoundaryIs>
        <LinearRing>
          <coordinates>
-109.82,45.22,4000 -109.81,45.22,4000 -109.79,45.22,4000 -109.78,45.21,4000 -109.76,45.21,4000 -109.75,45.21,4000 -109.73,45.21,4000 -109.72,45.20,4000 -109.71,45.20,4000 -109.69,45.20,4000 -109.68,45.20,4000 -109.67,45.19,4000 -109.66,45.19,4000 -109.65,45.19,4000 -109.63,45.18,4000 -109.62,45.18,4000 -109.61,45.18,4000 -109.60,45.17,4000 -109.60,45.17,4000 -109.59,45.16,4000 -109.58,45.16,4000 -109.57,45.15,4000 -109.56,45.15,4000 -109.56,45.14,4000 -109.55,45.13,4000 -109.55,45.12,4000 -109.55,45.11,4000 -109.55,45.10,4000 -109.54,45.09,4000 -109.54,45.08,4000 -109.54,45.07,4000 -109.54,45.06,4000 -109.54,45.05,4000 -109.54,45.05,4000 -109.54,45.04,4000 -109.54,45.03,4000 -109.53,45.02,4000 -109.53,45.01,4000 -109.53,45.00,4000 -109.53,44.99,4000 -109.53,44.99,4000 -109.54,44.99,4000 -109.54,44.99,4000 -109.56,44.99,4000 -109.57,44.99,4000 -109.58,44.99,4000 -109.59,44.99,4000 -109.60,44.99,4000 -109.61,44.99,4000 -109.62,44.99,4000 -109.63,44.99,4000 -109.65,44.99,4000 -109.66,44.99,4000 -109.67,44.99,4000 -109.69,44.99,4000 -109.70,45.00,4000 -109.72,45.00,4000 -109.73,45.00,4000 -109.74,45.00,4000 -109.76,45.00,4000 -109.77,45.01,4000 -109.78,45.01,4000 -109.79,45.01,4000 -109.80,45.02,4000 -109.81,45.02,4000 -109.82,45.03,4000 -109.83,45.03,4000 -109.84,45.04,4000 -109.85,45.04,4000 -109.86,45.05,4000 -109.86,45.05,4000 -109.87,45.06,4000 -109.88,45.07,4000 -109.89,45.07,4000 -109.90,45.08,4000 -109.91,45.09,4000 -109.92,45.09,4000 -109.93,45.10,4000 -109.93,45.11,4000 -109.94,45.12,4000 -109.95,45.12,4000 -109.96,45.13,4000 -109.82,45.22,4000 
          </coordinates>
        </LinearRing>
      </innerBoundaryIs>
  </Polygon>
 </MultiGeometry>
</Placemark>
<Placemark>
  <name>20%</name>
  <visibility>1</visibility>
  <styleUrl>#poly_20</styleUrl>
  <MultiGeometry>
    <Polygon>
      <outerBoundaryIs>
        <LinearRing>
          <coordinates>
-112.09,45.65,3000 -112.08,45.66,3000 -112.08,45.66,3000 -112.07,45.64,3000 -112.07,45.64,3000 -112.07,45.63,3000 -112.07,45.63,3000 -112.07,45.62,3000 -112.06,45.61,3000 -112.06,45.61,3000 -112.06,45.60,3000 -112.06,45.59,3000 -112.06,45.58,3000 -112.06,45.58,3000 -112.05,45.57,3000 -112.05,45.56,3000 -112.05,45.55,3000 -112.05,45.54,3000 -112.05,45.53,3000 -112.05,45.53,3000 -112.05,45.52,3000 -112.05,45.51,3000 -112.04,45.50,3000 -112.04,45.50,3000 -112.04,45.49,3000 -112.04,45.48,3000 -112.04,45.48,3000 -112.04,45.47,3000 -112.04,45.47,3000 -112.04,45.45,3000 -112.05,45.46,3000 -112.06,45.46,3000 -112.06,45.45,3000 -112.07,45.47,3000 -112.07,45.47,3000 -112.07,45.48,3000 -112.07,45.48,3000 -112.07,45.49,3000 -112.07,45.49,3000 -112.08,45.50,3000 -112.08,45.50,3000 -112.08,45.51,3000 -112.08,45.52,3000 -112.08,45.52,3000 -112.08,45.53,3000 -112.08,45.54,3000 -112.08,45.54,3000 -112.08,45.55,3000 -112.09,45.56,3000 -112.09,45.57,3000 -112.09,45.57,3000 -112.09,45.58,3000 -112.09,45.59,3000 -112.09,45.60,3000 -112.09,45.61,3000 -112.10,45.61,3000 -112.10,45.62,3000 -112.10,45.63,3000 -112.10,45.64,3000 -112.09,45.65,3000 
          </coordinates>
        </LinearRing>
      </outerBoundaryIs>
  </Polygon>
 </MultiGeometry>
</Placemark>
<Placemark>
  <name>30%</name>
  <visibility>1</visibility>
  <styleUrl>#poly_30</styleUrl>
  <MultiGeometry>
    <Polygon>
      <outerBoundaryIs>
        <LinearRing>
          <coordinates>
-109.82,45.22,4000 -109.81,45.22,4000 -109.79,45.22,4000 -109.78,45.21,4000 -109.76,45.21,4000 -109.75,45.21,4000 -109.73,45.21,4000 -109.72,45.20,4000 -109.71,45.20,4000 -109.69,45.20,4000 -109.68,45.20,4000 -109.67,45.19,4000 -109.66,45.19,4000 -109.65,45.19,4000 -109.63,45.18,4000 -109.62,45.18,4000 -109.61,45.18,4000 -109.60,45.17,4000 -109.60,45.17,4000 -109.59,45.16,4000 -109.58,45.16,4000 -109.57,45.15,4000 -109.56,45.15,4000 -109.56,45.14,4000 -109.55,45.13,4000 -109.55,45.12,4000 -109.55,45.11,4000 -109.55,45.10,4000 -109.54,45.09,4000 -109.54,45.08,4000 -109.54,45.07,4000 -109.54,45.06,4000 -109.54,45.05,4000 -109.54,45.05,4000 -109.54,45.04,4000 -109.54,45.03,4000 -109.53,45.02,4000 -109.53,45.01,4000 -109.53,45.00,4000 -109.53,44.99,4000 -109.53,44.99,4000 -109.54,44.99,4000 -109.54,44.99,4000 -109.56,44.99,4000 -109.57,44.99,4000 -109.58,44.99,4000 -109.59,44.99,4000 -109.60,44.99,4000 -109.61,44.99,4000 -109.62,44.99,4000 -109.63,44.99,4000 -109.65,44.99,4000 -109.66,44.99,4000 -109.67,44.99,4000 -109.69,44.99,4000 -109.70,45.00,4000 -109.72,45.00,4000 -109.73,45.00,4000 -109.74,45.00,4000 -109.76,45.00,4000 -109.77,45.01,4000 -109.78,45.01,4000 -109.79,45.01,4000 -109.80,45.02,4000 -109.81,45.02,4000 -109.82,45.03,4000 -109.83,45.03,4000 -109.84,45.04,4000 -109.85,45.04,4000 -109.86,45.05,4000 -109.86,45.05,4000 -109.87,45.06,4000 -109.88,45.07,4000 -109.89,45.07,4000 -109.90,45.08,4000 -109.91,45.09,4000 -109.92,45.09,4000 -109.93,45.10,4000 -109.93,45.11,4000 -109.94,45.12,4000 -109.95,45.12,4000 -109.96,45.13,4000 -109.82,45.22,4000 
          </coordinates>
        </LinearRing>
      </outerBoundaryIs>
  </Polygon>
 </MultiGeometry>
</Placemark>
    </Folder>
  </Document>
</kml>
