<?xml version="1.0" encoding="UTF-8"?>
<kml xmlns="http://www.opengis.net/kml/2.2">
<Document id="prb_72hsnow_ge02_f072">
<name>WPC 72-Hr Prob of Snow > 2"</name>
  <open>1</open>
  <snippet>Valid 12Z 10/05/2026 - 12Z 10/08/2026</snippet>
  <description></description>
    <Style id="poly_1">
        <IconStyle>
           <color>00000000</color>
           <scale>1</scale>
        </IconStyle>
        <LabelStyle>
            <color>ff26478b</color>
            <scale>0.8</scale>
        </LabelStyle>
        <LineStyle>
            <color>6626478b</color>
            <width>0</width>
        </LineStyle>
	<PolyStyle>
            <color>6626478b</color>
	</PolyStyle>
        <BalloonStyle>
            <text>
                <![CDATA[ <table border=0 width="300"><tr><td style="font-size:10pt;">
                During this forecast period, there is a <b>1-5%</b> probability of snowfall exceeding the depicted amount in the enclosed area.
                <br/><br/>
                *<span style="font-size:8pt;">Note that in cases where this contour is embedded within a 5% contour, 
                the probability of snowfall exceeding the depicted amount is &lt;1%.</span>
                </td></tr></table>]]>
            </text>
        </BalloonStyle>
    </Style>

    <Style id="poly_5">
        <IconStyle>
           <color>00000000</color>
           <scale>1</scale>
        </IconStyle>
        <LabelStyle>
            <color>ff00eeee</color>
            <scale>0.8</scale>
        </LabelStyle>
        <LineStyle>
            <color>6600eeee</color>
            <width>0.4</width>
        </LineStyle>
	<PolyStyle>
	    <color>6600eeee</color>
	</PolyStyle>
        <BalloonStyle>
            <text>
                <![CDATA[ <table border=0 width="300"><tr><td style="font-size:10pt;">
                During this forecast period, there is a <b>5-10%</b> probability of snowfall exceeding the depicted amount in the enclosed area.
                <br/><br/>
                *<span style="font-size:8pt;">Note that in cases where this contour is embedded within a 10% contour, 
                the probability of snowfall exceeding the depicted amount is &lt;5%.</span>
                </td></tr></table>]]>
            </text>
        </BalloonStyle>
    </Style>

    <Style id="poly_10">
        <IconStyle>
           <color>00000000</color>
           <scale>1</scale>
        </IconStyle>
        <LabelStyle>
            <color>ff00ff7f</color>
            <scale>0.8</scale>
        </LabelStyle>
        <LineStyle>
            <color>6600ff7f</color>
            <width>0.4</width>
        </LineStyle>
	<PolyStyle>
	    <color>6600ff7f</color>
	</PolyStyle>
        <BalloonStyle>
            <text>
                <![CDATA[ <table border=0 width="300"><tr><td style="font-size:10pt;">
                During this forecast period, there is a <b>10-20%</b> probability of snowfall exceeding the depicted amount in the enclosed area.
                <br/><br/>
                *<span style="font-size:8pt;">Note that in cases where this contour is embedded within a 20% contour, 
                the probability of snowfall exceeding the depicted amount is &lt;10%.</span>
                </td></tr></table>]]>
            </text>
        </BalloonStyle>
    </Style>
    
    <Style id="poly_20">
        <IconStyle>
            <color>00000000</color>
            <scale>1</scale>
        </IconStyle>
        <LabelStyle>
            <color>ff00cd00</color>
            <scale>0.8</scale>
        </LabelStyle>
        <LineStyle>
            <color>6600cd00</color>
	    <width>0.4</width>
	</LineStyle>
	<PolyStyle>
	    <color>6600cd00</color>
	</PolyStyle>
        <BalloonStyle>
            <text>
                <![CDATA[ <table border=0 width="300"><tr><td style="font-size:10pt;">
                During this forecast period, there is a <b>20-30%</b> probability of snowfall exceeding the depicted amount in the enclosed area.
                <br/><br/>
                *<span style="font-size:8pt;">Note that in cases where this contour is embedded within a 30% contour, 
                the probability of snowfall exceeding the depicted amount is &lt;20%.</span>
                </td></tr></table>]]>
            </text>
        </BalloonStyle>
    </Style>

    <Style id="poly_30">
        <IconStyle>
            <color>00000000</color>
            <scale>1</scale>
        </IconStyle>
        <LabelStyle>
            <color>ff008b00</color>
            <scale>0.8</scale>
        </LabelStyle>
        <LineStyle>
            <color>66008b00</color>
	    <width>0.4</width>
	</LineStyle>
	<PolyStyle>
	    <color>66008b00</color>
	</PolyStyle>
        <BalloonStyle>
            <text>
                <![CDATA[ <table border=0 width="300"><tr><td style="font-size:10pt;">
                During this forecast period, there is a <b>30-40%</b> probability of snowfall exceeding the depicted amount in the enclosed area.
                <br/><br/>
                *<span style="font-size:8pt;">Note that in cases where this contour is embedded within a 40% contour, 
                the probability of snowfall exceeding the depicted amount is &lt;30%.</span>
                </td></tr></table>]]>
            </text>
        </BalloonStyle>
    </Style>

    <Style id="poly_40">
        <IconStyle>
            <color>00000000</color>
            <scale>1</scale>
        </IconStyle>
        <LabelStyle>
            <color>ff8b4e10</color>
            <scale>0.8</scale>
        </LabelStyle>
        <LineStyle>
            <color>668b4e10</color>
	    <width>0.4</width>
	</LineStyle>
	<PolyStyle>
	    <color>668b4e10</color>
	</PolyStyle>
        <BalloonStyle>
            <text>
                <![CDATA[ <table border=0 width="300"><tr><td style="font-size:10pt;">
                During this forecast period, there is a <b>40-50%</b> probability of snowfall exceeding the depicted amount in the enclosed area.
                <br/><br/>
                *<span style="font-size:8pt;">Note that in cases where this contour is embedded within a 50% contour, 
                the probability of snowfall exceeding the depicted amount is &lt;40%.</span>
                </td></tr></table>]]>
            </text>
        </BalloonStyle>
    </Style>

    <Style id="poly_50">
        <IconStyle>
            <color>00000000</color>
            <scale>1</scale>
        </IconStyle>
        <LabelStyle>
            <color>ffff901e</color>
            <scale>0.8</scale>
        </LabelStyle>
        <LineStyle>
            <color>66ff901e</color>
	    <width>0.4</width>
	</LineStyle>
	<PolyStyle>
	    <color>66ff901e</color>
	</PolyStyle>
        <BalloonStyle>
            <text>
                <![CDATA[ <table border=0 width="300"><tr><td style="font-size:10pt;">
                During this forecast period, there is a <b>50-60%</b> probability of snowfall exceeding the depicted amount in the enclosed area.
                <br/><br/>
                *<span style="font-size:8pt;">Note that in cases where this contour is embedded within a 60% contour, 
                the probability of snowfall exceeding the depicted amount is &lt;50%.</span>
                </td></tr></table>]]>
            </text>
        </BalloonStyle>
    </Style>

    <Style id="poly_60">
        <IconStyle>
            <color>00000000</color>
            <scale>1</scale>
        </IconStyle>
        <LabelStyle>
            <color>ffeeb200</color>
            <scale>0.8</scale>
        </LabelStyle>
        <LineStyle>
            <color>66eeb200</color>
	    <width>0.4</width>
	</LineStyle>
	<PolyStyle>
	    <color>66eeb200</color>
	</PolyStyle>
        <BalloonStyle>
            <text>
                <![CDATA[ <table border=0 width="300"><tr><td style="font-size:10pt;">
                During this forecast period, there is a <b>60-70%</b> probability of snowfall exceeding the depicted amount in the enclosed area.
                <br/><br/>
                *<span style="font-size:8pt;">Note that in cases where this contour is embedded within a 70% contour, 
                the probability of snowfall exceeding the depicted amount is &lt;60%.</span>
                </td></tr></table>]]>
            </text>
        </BalloonStyle>
    </Style>
    
    <Style id="poly_70">
        <IconStyle>
            <color>00000000</color>
            <scale>1</scale>
        </IconStyle>
        <LabelStyle>
            <color>ffeeee00</color>
            <scale>0.8</scale>
        </LabelStyle>
        <LineStyle>
            <color>66eeee00</color>
	    <width>0.4</width>
	</LineStyle>
	<PolyStyle>
	    <color>66eeee00</color>
	</PolyStyle>
        <BalloonStyle>
            <text>
                <![CDATA[ <table border=0 width="300"><tr><td style="font-size:10pt;">
                During this forecast period, there is a <b>70-80%</b> probability of snowfall exceeding the depicted amount in the enclosed area.
                <br/><br/>
                *<span style="font-size:8pt;">Note that in cases where this contour is embedded within a 80% contour, 
                the probability of snowfall exceeding the depicted amount is &lt;70%.</span>
                </td></tr></table>]]>
            </text>
        </BalloonStyle>
    </Style>

    <Style id="poly_80">
        <IconStyle>
            <color>00000000</color>
            <scale>1</scale>
        </IconStyle>
        <LabelStyle>
            <color>ff4782ff</color>
            <scale>0.8</scale>
        </LabelStyle>
        <LineStyle>
            <color>664782ff</color>
	    <width>0.4</width>
	</LineStyle>
	<PolyStyle>
	    <color>664782ff</color>
	</PolyStyle>
        <BalloonStyle>
            <text>
                <![CDATA[ <table border=0 width="300"><tr><td style="font-size:10pt;">
                During this forecast period, there is a <b>80-90%</b> probability of snowfall exceeding the depicted amount in the enclosed area.
                <br/><br/>
                *<span style="font-size:8pt;">Note that in cases where this contour is embedded within a 90% contour, 
                the probability of snowfall exceeding the depicted amount is &lt;80%.</span>
                </td></tr></table>]]>
            </text>
        </BalloonStyle>
    </Style>

    <Style id="poly_90">
        <IconStyle>
            <color>00000000</color>
            <scale>1</scale>
        </IconStyle>
        <LabelStyle>
            <color>ff2c2cee</color>
            <scale>0.8</scale>
        </LabelStyle>
        <LineStyle>
            <color>662c2cee</color>
            <width>0.4</width>
        </LineStyle>
        <PolyStyle>
            <color>662c2cee</color>
        </PolyStyle>
        <BalloonStyle>
            <text>
                <![CDATA[ <table border=0 width="300"><tr><td style="font-size:10pt;">
                During this forecast period, there is a <b>90-95%</b> probability of snowfall exceeding the depicted amount in the enclosed area.
                <br/><br/>
                *<span style="font-size:8pt;">Note that in cases where this contour is embedded within a 95% contour, 
                the probability of snowfall exceeding the depicted amount is &lt;90%.</span>
                </td></tr></table>]]>
            </text>
        </BalloonStyle>
    </Style>

    <Style id="poly_95">
        <IconStyle>
            <color>00000000</color>
            <scale>1</scale>
        </IconStyle>
        <LabelStyle>
            <color>ff00008b</color>
            <scale>0.8</scale>
        </LabelStyle>
        <LineStyle>
            <color>6600008b</color>
	    <width>0.4</width>
	</LineStyle>
	<PolyStyle>
	    <color>6600008b</color>
	</PolyStyle>
        <BalloonStyle>
            <text>
                <![CDATA[ <table border=0 width="300"><tr><td style="font-size:10pt;">
                The probability of snowfall exceeding the depicted amount is <b>&ge;95%</b> in the enclosed area during this forecast period.
                </td></tr></table>]]>
            </text>
        </BalloonStyle>
    </Style>

  <ScreenOverlay>
    <name>Logos</name>
    <description></description>
    <Icon>
      <href>https://www.wpc.ncep.noaa.gov/images/noaa_and_nws_logo.png</href>
    </Icon>
   <overlayXY x=".01" y=".01" xunits="fraction" yunits="fraction" />
   <screenXY x=".01" y=".01" xunits="fraction" yunits="fraction" />
   <rotationXY x="0" y="0" xunits="fraction" yunits="fraction" />
   <size x="-1" y="-1" xunits="fraction" yunits="fraction" />
  </ScreenOverlay>
    <Folder>
      <name>Snow Probabilities</name>
      <open>0</open>
<Placemark>
  <name>1%</name>
  <visibility>1</visibility>
  <styleUrl>#poly_1</styleUrl>
  <MultiGeometry>
    <Polygon>
      <outerBoundaryIs>
        <LinearRing>
          <coordinates>
-71.58,48.29,0 -71.52,48.30,0 -71.45,48.30,0 -71.39,48.31,0 -71.32,48.32,0 -71.26,48.32,0 -71.19,48.32,0 -71.13,48.32,0 -71.07,48.31,0 -71.01,48.30,0 -70.94,48.29,0 -70.88,48.27,0 -70.82,48.25,0 -70.75,48.23,0 -70.70,48.21,0 -70.65,48.19,0 -70.60,48.17,0 -70.55,48.14,0 -70.51,48.11,0 -70.47,48.08,0 -70.44,48.04,0 -70.42,48.01,0 -70.40,47.97,0 -70.38,47.92,0 -70.36,47.88,0 -70.35,47.83,0 -70.35,47.78,0 -70.36,47.74,0 -70.38,47.70,0 -70.42,47.67,0 -70.47,47.64,0 -70.51,47.59,0 -70.53,47.56,0 -70.55,47.52,0 -70.56,47.47,0 -70.58,47.43,0 -70.60,47.38,0 -70.62,47.34,0 -70.64,47.30,0 -70.67,47.27,0 -70.71,47.24,0 -70.75,47.21,0 -70.80,47.18,0 -70.86,47.17,0 -70.91,47.15,0 -70.97,47.13,0 -71.02,47.11,0 -71.08,47.10,0 -71.14,47.08,0 -71.21,47.07,0 -71.27,47.06,0 -71.33,47.05,0 -71.40,47.05,0 -71.46,47.05,0 -71.52,47.06,0 -71.59,47.07,0 -71.65,47.08,0 -71.72,47.09,0 -71.78,47.11,0 -71.83,47.12,0 -71.88,47.14,0 -71.94,47.17,0 -71.98,47.20,0 -72.02,47.24,0 -72.05,47.28,0 -72.08,47.33,0 -72.10,47.37,0 -72.12,47.40,0 -72.14,47.45,0 -72.16,47.49,0 -72.17,47.53,0 -72.18,47.58,0 -72.18,47.62,0 -72.18,47.67,0 -72.17,47.71,0 -72.15,47.76,0 -72.13,47.81,0 -72.11,47.86,0 -72.09,47.90,0 -72.07,47.94,0 -72.04,47.98,0 -72.00,48.02,0 -71.97,48.05,0 -71.93,48.08,0 -71.89,48.10,0 -71.58,48.29,0 
          </coordinates>
        </LinearRing>
      </outerBoundaryIs>
      <innerBoundaryIs>
        <LinearRing>
          <coordinates>
-71.35,48.20,1000 -71.29,48.21,1000 -71.24,48.22,1000 -71.19,48.22,1000 -71.14,48.22,1000 -71.09,48.22,1000 -71.04,48.21,1000 -70.99,48.19,1000 -70.94,48.17,1000 -70.91,48.15,1000 -70.86,48.14,1000 -70.82,48.12,1000 -70.78,48.10,1000 -70.73,48.07,1000 -70.68,48.04,1000 -70.64,48.02,1000 -70.60,47.99,1000 -70.57,47.96,1000 -70.55,47.93,1000 -70.54,47.90,1000 -70.53,47.87,1000 -70.52,47.83,1000 -70.52,47.79,1000 -70.52,47.76,1000 -70.53,47.73,1000 -70.54,47.70,1000 -70.55,47.66,1000 -70.57,47.63,1000 -70.59,47.60,1000 -70.61,47.57,1000 -70.63,47.53,1000 -70.66,47.50,1000 -70.69,47.47,1000 -70.71,47.44,1000 -70.75,47.41,1000 -70.79,47.38,1000 -70.82,47.36,1000 -70.84,47.34,1000 -70.86,47.31,1000 -70.89,47.29,1000 -70.92,47.27,1000 -70.97,47.26,1000 -71.01,47.24,1000 -71.06,47.22,1000 -71.11,47.21,1000 -71.16,47.20,1000 -71.21,47.20,1000 -71.26,47.19,1000 -71.31,47.19,1000 -71.36,47.19,1000 -71.41,47.19,1000 -71.46,47.20,1000 -71.51,47.20,1000 -71.56,47.21,1000 -71.61,47.22,1000 -71.66,47.23,1000 -71.71,47.25,1000 -71.76,47.26,1000 -71.80,47.28,1000 -71.84,47.30,1000 -71.88,47.33,1000 -71.91,47.35,1000 -71.93,47.39,1000 -71.95,47.42,1000 -71.96,47.45,1000 -71.97,47.48,1000 -71.98,47.52,1000 -71.98,47.56,1000 -71.98,47.59,1000 -71.98,47.62,1000 -71.97,47.66,1000 -71.97,47.69,1000 -71.96,47.73,1000 -71.95,47.76,1000 -71.94,47.79,1000 -71.93,47.83,1000 -71.91,47.86,1000 -71.90,47.89,1000 -71.88,47.92,1000 -71.86,47.95,1000 -71.83,47.99,1000 -71.80,48.02,1000 -71.77,48.05,1000 -71.74,48.07,1000 -71.71,48.10,1000 -71.68,48.11,1000 -71.63,48.13,1000 -71.59,48.14,1000 -71.54,48.16,1000 -71.48,48.17,1000 -71.42,48.19,1000 -71.36,48.20,1000 -71.35,48.20,1000 
          </coordinates>
        </LinearRing>
      </innerBoundaryIs>
  </Polygon>
 </MultiGeometry>
</Placemark>
<Placemark>
  <name>1%</name>
  <visibility>1</visibility>
  <styleUrl>#poly_1</styleUrl>
  <MultiGeometry>
    <Polygon>
      <outerBoundaryIs>
        <LinearRing>
          <coordinates>
-73.72,48.91,0 -73.69,48.91,0 -73.66,48.92,0 -73.62,48.92,0 -73.59,48.93,0 -73.56,48.93,0 -73.53,48.92,0 -73.50,48.92,0 -73.47,48.91,0 -73.45,48.90,0 -73.42,48.89,0 -73.39,48.87,0 -73.37,48.85,0 -73.34,48.83,0 -73.32,48.81,0 -73.30,48.79,0 -73.28,48.77,0 -73.26,48.76,0 -73.25,48.75,0 -73.25,48.74,0 -73.25,48.73,0 -73.24,48.71,0 -73.23,48.69,0 -73.22,48.67,0 -73.22,48.65,0 -73.21,48.62,0 -73.21,48.60,0 -73.21,48.58,0 -73.22,48.56,0 -73.23,48.54,0 -73.24,48.51,0 -73.26,48.49,0 -73.28,48.47,0 -73.30,48.45,0 -73.31,48.43,0 -73.32,48.42,0 -73.33,48.42,0 -73.35,48.41,0 -73.37,48.40,0 -73.40,48.39,0 -73.42,48.38,0 -73.46,48.36,0 -73.49,48.35,0 -73.52,48.33,0 -73.55,48.32,0 -73.58,48.32,0 -73.61,48.31,0 -73.64,48.31,0 -73.68,48.31,0 -73.71,48.31,0 -73.74,48.32,0 -73.77,48.33,0 -73.80,48.34,0 -73.83,48.35,0 -73.85,48.36,0 -73.87,48.37,0 -73.89,48.39,0 -73.91,48.40,0 -73.93,48.42,0 -73.95,48.43,0 -73.97,48.45,0 -73.98,48.47,0 -73.99,48.49,0 -74.00,48.51,0 -74.01,48.53,0 -74.01,48.55,0 -74.02,48.57,0 -74.02,48.60,0 -74.02,48.62,0 -74.02,48.64,0 -74.02,48.66,0 -74.02,48.68,0 -74.01,48.70,0 -74.00,48.72,0 -73.99,48.74,0 -73.98,48.76,0 -73.97,48.78,0 -73.95,48.80,0 -73.94,48.82,0 -73.72,48.91,0 
          </coordinates>
        </LinearRing>
      </outerBoundaryIs>
  </Polygon>
 </MultiGeometry>
</Placemark>
<Placemark>
  <name>1%</name>
  <visibility>1</visibility>
  <styleUrl>#poly_1</styleUrl>
  <MultiGeometry>
    <Polygon>
      <outerBoundaryIs>
        <LinearRing>
          <coordinates>
-66.14,49.34,0 -66.10,49.34,0 -66.05,49.34,0 -66.01,49.34,0 -65.96,49.34,0 -65.92,49.33,0 -65.88,49.33,0 -65.84,49.32,0 -65.79,49.32,0 -65.75,49.31,0 -65.71,49.30,0 -65.67,49.29,0 -65.64,49.27,0 -65.61,49.25,0 -65.58,49.23,0 -65.56,49.21,0 -65.54,49.18,0 -65.52,49.16,0 -65.51,49.13,0 -65.50,49.10,0 -65.50,49.08,0 -65.50,49.05,0 -65.51,49.02,0 -65.51,48.99,0 -65.52,48.96,0 -65.53,48.93,0 -65.53,48.91,0 -65.54,48.88,0 -65.55,48.85,0 -65.56,48.83,0 -65.58,48.80,0 -65.60,48.78,0 -65.62,48.75,0 -65.64,48.73,0 -65.66,48.71,0 -65.69,48.69,0 -65.71,48.67,0 -65.73,48.65,0 -65.76,48.63,0 -65.79,48.61,0 -65.83,48.60,0 -65.87,48.59,0 -65.90,48.59,0 -65.94,48.58,0 -65.97,48.58,0 -66.01,48.58,0 -66.05,48.58,0 -66.09,48.58,0 -66.13,48.58,0 -66.17,48.58,0 -66.21,48.59,0 -66.26,48.59,0 -66.30,48.60,0 -66.34,48.60,0 -66.38,48.61,0 -66.42,48.62,0 -66.46,48.63,0 -66.51,48.63,0 -66.55,48.64,0 -66.59,48.66,0 -66.62,48.67,0 -66.65,48.69,0 -66.68,48.71,0 -66.71,48.73,0 -66.74,48.75,0 -66.76,48.78,0 -66.77,48.80,0 -66.78,48.83,0 -66.78,48.85,0 -66.78,48.88,0 -66.77,48.91,0 -66.76,48.93,0 -66.74,48.96,0 -66.72,48.98,0 -66.69,49.01,0 -66.66,49.03,0 -66.63,49.06,0 -66.59,49.08,0 -66.56,49.10,0 -66.54,49.11,0 -66.49,49.12,0 -66.46,49.13,0 -66.44,49.15,0 -66.42,49.17,0 -66.40,49.19,0 -66.38,49.22,0 -66.36,49.25,0 -66.14,49.34,0 
          </coordinates>
        </LinearRing>
      </outerBoundaryIs>
      <innerBoundaryIs>
        <LinearRing>
          <coordinates>
-65.91,49.23,1000 -65.89,49.22,1000 -65.87,49.21,1000 -65.84,49.19,1000 -65.82,49.18,1000 -65.80,49.17,1000 -65.78,49.16,1000 -65.76,49.15,1000 -65.74,49.13,1000 -65.72,49.12,1000 -65.70,49.10,1000 -65.69,49.09,1000 -65.67,49.07,1000 -65.66,49.05,1000 -65.65,49.04,1000 -65.64,49.02,1000 -65.63,49.00,1000 -65.63,48.98,1000 -65.63,48.96,1000 -65.64,48.95,1000 -65.65,48.93,1000 -65.66,48.91,1000 -65.67,48.89,1000 -65.68,48.87,1000 -65.70,48.85,1000 -65.71,48.83,1000 -65.72,48.82,1000 -65.73,48.80,1000 -65.75,48.79,1000 -65.76,48.78,1000 -65.78,48.77,1000 -65.81,48.76,1000 -65.83,48.75,1000 -65.85,48.75,1000 -65.88,48.74,1000 -65.91,48.73,1000 -65.94,48.73,1000 -65.97,48.72,1000 -66.00,48.72,1000 -66.03,48.71,1000 -66.06,48.71,1000 -66.09,48.71,1000 -66.12,48.71,1000 -66.15,48.71,1000 -66.17,48.72,1000 -66.20,48.72,1000 -66.23,48.73,1000 -66.25,48.74,1000 -66.28,48.75,1000 -66.30,48.76,1000 -66.32,48.77,1000 -66.34,48.78,1000 -66.36,48.79,1000 -66.38,48.81,1000 -66.39,48.82,1000 -66.41,48.84,1000 -66.42,48.85,1000 -66.44,48.87,1000 -66.45,48.89,1000 -66.46,48.90,1000 -66.46,48.92,1000 -66.46,48.94,1000 -66.46,48.96,1000 -66.45,48.97,1000 -66.45,48.99,1000 -66.44,49.01,1000 -66.42,49.03,1000 -66.41,49.05,1000 -66.39,49.06,1000 -66.38,49.08,1000 -66.36,49.09,1000 -66.34,49.11,1000 -66.32,49.12,1000 -66.30,49.14,1000 -66.28,49.15,1000 -66.25,49.16,1000 -66.23,49.17,1000 -66.21,49.18,1000 -66.19,49.19,1000 -66.16,49.20,1000 -66.13,49.21,1000 -66.11,49.21,1000 -66.08,49.21,1000 -66.06,49.21,1000 -65.91,49.23,1000 
          </coordinates>
        </LinearRing>
      </innerBoundaryIs>
  </Polygon>
 </MultiGeometry>
</Placemark>
<Placemark>
  <name>1%</name>
  <visibility>1</visibility>
  <styleUrl>#poly_1</styleUrl>
  <MultiGeometry>
    <Polygon>
      <outerBoundaryIs>
        <LinearRing>
          <coordinates>
-70.81,49.28,0 -70.76,49.27,0 -70.70,49.27,0 -70.65,49.26,0 -70.61,49.25,0 -70.56,49.23,0 -70.52,49.21,0 -70.47,49.18,0 -70.43,49.15,0 -70.40,49.12,0 -70.37,49.10,0 -70.35,49.08,0 -70.33,49.06,0 -70.30,49.03,0 -70.27,48.99,0 -70.23,48.96,0 -70.20,48.92,0 -70.18,48.90,0 -70.16,48.87,0 -70.15,48.85,0 -70.13,48.83,0 -70.11,48.81,0 -70.08,48.78,0 -70.05,48.75,0 -70.04,48.72,0 -70.03,48.69,0 -70.03,48.65,0 -70.03,48.62,0 -70.04,48.58,0 -70.06,48.55,0 -70.08,48.52,0 -70.11,48.50,0 -70.15,48.47,0 -70.18,48.45,0 -70.22,48.43,0 -70.24,48.41,0 -70.28,48.39,0 -70.31,48.38,0 -70.36,48.37,0 -70.41,48.35,0 -70.46,48.34,0 -70.51,48.33,0 -70.56,48.32,0 -70.61,48.32,0 -70.66,48.32,0 -70.71,48.33,0 -70.75,48.34,0 -70.80,48.35,0 -70.84,48.36,0 -70.88,48.38,0 -70.93,48.40,0 -70.97,48.42,0 -71.00,48.43,0 -71.03,48.45,0 -71.07,48.47,0 -71.09,48.51,0 -71.11,48.53,0 -71.13,48.57,0 -71.15,48.60,0 -71.18,48.64,0 -71.20,48.67,0 -71.21,48.69,0 -71.21,48.71,0 -71.21,48.73,0 -71.22,48.75,0 -71.24,48.78,0 -71.26,48.81,0 -71.27,48.84,0 -71.28,48.87,0 -71.28,48.90,0 -71.27,48.93,0 -71.25,48.97,0 -71.24,49.00,0 -71.22,49.03,0 -71.19,49.06,0 -71.16,49.09,0 -71.13,49.12,0 -71.10,49.14,0 -71.07,49.17,0 -71.06,49.18,0 -70.81,49.28,0 
          </coordinates>
        </LinearRing>
      </outerBoundaryIs>
      <innerBoundaryIs>
        <LinearRing>
          <coordinates>
-70.88,49.01,1000 -70.85,49.01,1000 -70.81,49.02,1000 -70.78,49.02,1000 -70.75,49.02,1000 -70.72,49.02,1000 -70.69,49.02,1000 -70.67,49.02,1000 -70.64,49.02,1000 -70.62,49.02,1000 -70.59,49.01,1000 -70.57,49.00,1000 -70.55,48.98,1000 -70.54,48.97,1000 -70.52,48.95,1000 -70.50,48.94,1000 -70.48,48.92,1000 -70.46,48.91,1000 -70.45,48.89,1000 -70.43,48.88,1000 -70.41,48.86,1000 -70.40,48.85,1000 -70.38,48.83,1000 -70.36,48.82,1000 -70.35,48.80,1000 -70.34,48.79,1000 -70.33,48.77,1000 -70.32,48.75,1000 -70.32,48.73,1000 -70.31,48.72,1000 -70.31,48.70,1000 -70.31,48.68,1000 -70.31,48.66,1000 -70.31,48.64,1000 -70.31,48.62,1000 -70.32,48.60,1000 -70.33,48.59,1000 -70.34,48.57,1000 -70.36,48.56,1000 -70.38,48.55,1000 -70.41,48.53,1000 -70.43,48.52,1000 -70.46,48.51,1000 -70.48,48.51,1000 -70.51,48.50,1000 -70.53,48.50,1000 -70.56,48.49,1000 -70.59,48.49,1000 -70.62,48.49,1000 -70.65,48.49,1000 -70.68,48.49,1000 -70.71,48.50,1000 -70.73,48.50,1000 -70.76,48.51,1000 -70.78,48.52,1000 -70.80,48.53,1000 -70.83,48.54,1000 -70.85,48.55,1000 -70.87,48.57,1000 -70.89,48.58,1000 -70.91,48.60,1000 -70.93,48.61,1000 -70.95,48.63,1000 -70.97,48.64,1000 -70.98,48.66,1000 -70.99,48.68,1000 -71.00,48.69,1000 -71.01,48.71,1000 -71.02,48.73,1000 -71.03,48.75,1000 -71.03,48.77,1000 -71.03,48.79,1000 -71.03,48.81,1000 -71.03,48.82,1000 -71.03,48.84,1000 -71.02,48.86,1000 -71.02,48.88,1000 -71.01,48.89,1000 -70.99,48.91,1000 -70.98,48.93,1000 -70.96,48.94,1000 -70.95,48.96,1000 -70.93,48.97,1000 -70.91,48.99,1000 -70.88,49.01,1000 
          </coordinates>
        </LinearRing>
      </innerBoundaryIs>
  </Polygon>
 </MultiGeometry>
</Placemark>
<Placemark>
  <name>5%</name>
  <visibility>1</visibility>
  <styleUrl>#poly_5</styleUrl>
  <MultiGeometry>
    <Polygon>
      <outerBoundaryIs>
        <LinearRing>
          <coordinates>
-65.91,49.23,1000 -65.89,49.22,1000 -65.87,49.21,1000 -65.84,49.19,1000 -65.82,49.18,1000 -65.80,49.17,1000 -65.78,49.16,1000 -65.76,49.15,1000 -65.74,49.13,1000 -65.72,49.12,1000 -65.70,49.10,1000 -65.69,49.09,1000 -65.67,49.07,1000 -65.66,49.05,1000 -65.65,49.04,1000 -65.64,49.02,1000 -65.63,49.00,1000 -65.63,48.98,1000 -65.63,48.96,1000 -65.64,48.95,1000 -65.65,48.93,1000 -65.66,48.91,1000 -65.67,48.89,1000 -65.68,48.87,1000 -65.70,48.85,1000 -65.71,48.83,1000 -65.72,48.82,1000 -65.73,48.80,1000 -65.75,48.79,1000 -65.76,48.78,1000 -65.78,48.77,1000 -65.81,48.76,1000 -65.83,48.75,1000 -65.85,48.75,1000 -65.88,48.74,1000 -65.91,48.73,1000 -65.94,48.73,1000 -65.97,48.72,1000 -66.00,48.72,1000 -66.03,48.71,1000 -66.06,48.71,1000 -66.09,48.71,1000 -66.12,48.71,1000 -66.15,48.71,1000 -66.17,48.72,1000 -66.20,48.72,1000 -66.23,48.73,1000 -66.25,48.74,1000 -66.28,48.75,1000 -66.30,48.76,1000 -66.32,48.77,1000 -66.34,48.78,1000 -66.36,48.79,1000 -66.38,48.81,1000 -66.39,48.82,1000 -66.41,48.84,1000 -66.42,48.85,1000 -66.44,48.87,1000 -66.45,48.89,1000 -66.46,48.90,1000 -66.46,48.92,1000 -66.46,48.94,1000 -66.46,48.96,1000 -66.45,48.97,1000 -66.45,48.99,1000 -66.44,49.01,1000 -66.42,49.03,1000 -66.41,49.05,1000 -66.39,49.06,1000 -66.38,49.08,1000 -66.36,49.09,1000 -66.34,49.11,1000 -66.32,49.12,1000 -66.30,49.14,1000 -66.28,49.15,1000 -66.25,49.16,1000 -66.23,49.17,1000 -66.21,49.18,1000 -66.19,49.19,1000 -66.16,49.20,1000 -66.13,49.21,1000 -66.11,49.21,1000 -66.08,49.21,1000 -66.06,49.21,1000 -65.91,49.23,1000 
          </coordinates>
        </LinearRing>
      </outerBoundaryIs>
      <innerBoundaryIs>
        <LinearRing>
          <coordinates>
-66.23,49.07,2000 -66.21,49.08,2000 -66.19,49.09,2000 -66.17,49.09,2000 -66.15,49.10,2000 -66.13,49.11,2000 -66.11,49.11,2000 -66.09,49.12,2000 -66.07,49.12,2000 -66.06,49.13,2000 -66.04,49.13,2000 -66.02,49.14,2000 -66.00,49.14,2000 -65.99,49.14,2000 -65.97,49.14,2000 -65.95,49.14,2000 -65.94,49.14,2000 -65.92,49.14,2000 -65.91,49.13,2000 -65.89,49.12,2000 -65.87,49.12,2000 -65.86,49.11,2000 -65.84,49.10,2000 -65.83,49.08,2000 -65.82,49.07,2000 -65.80,49.06,2000 -65.79,49.05,2000 -65.79,49.04,2000 -65.78,49.02,2000 -65.77,49.01,2000 -65.77,49.00,2000 -65.77,48.99,2000 -65.77,48.98,2000 -65.77,48.97,2000 -65.78,48.95,2000 -65.79,48.94,2000 -65.79,48.93,2000 -65.80,48.91,2000 -65.81,48.90,2000 -65.82,48.89,2000 -65.84,48.88,2000 -65.85,48.87,2000 -65.86,48.86,2000 -65.87,48.85,2000 -65.88,48.84,2000 -65.89,48.83,2000 -65.91,48.82,2000 -65.93,48.81,2000 -65.94,48.80,2000 -65.96,48.80,2000 -65.98,48.79,2000 -66.00,48.79,2000 -66.02,48.79,2000 -66.04,48.79,2000 -66.06,48.79,2000 -66.08,48.79,2000 -66.09,48.80,2000 -66.11,48.80,2000 -66.13,48.81,2000 -66.15,48.82,2000 -66.17,48.83,2000 -66.19,48.84,2000 -66.20,48.85,2000 -66.22,48.85,2000 -66.24,48.86,2000 -66.25,48.87,2000 -66.27,48.88,2000 -66.28,48.89,2000 -66.29,48.89,2000 -66.29,48.90,2000 -66.29,48.91,2000 -66.29,48.92,2000 -66.28,48.93,2000 -66.28,48.94,2000 -66.28,48.95,2000 -66.27,48.96,2000 -66.27,48.97,2000 -66.26,48.99,2000 -66.26,49.00,2000 -66.25,49.01,2000 -66.25,49.03,2000 -66.24,49.04,2000 -66.24,49.06,2000 -66.23,49.07,2000 
          </coordinates>
        </LinearRing>
      </innerBoundaryIs>
  </Polygon>
 </MultiGeometry>
</Placemark>
<Placemark>
  <name>5%</name>
  <visibility>1</visibility>
  <styleUrl>#poly_5</styleUrl>
  <MultiGeometry>
    <Polygon>
      <outerBoundaryIs>
        <LinearRing>
          <coordinates>
-70.88,49.01,1000 -70.85,49.01,1000 -70.81,49.02,1000 -70.78,49.02,1000 -70.75,49.02,1000 -70.72,49.02,1000 -70.69,49.02,1000 -70.67,49.02,1000 -70.64,49.02,1000 -70.62,49.02,1000 -70.59,49.01,1000 -70.57,49.00,1000 -70.55,48.98,1000 -70.54,48.97,1000 -70.52,48.95,1000 -70.50,48.94,1000 -70.48,48.92,1000 -70.46,48.91,1000 -70.45,48.89,1000 -70.43,48.88,1000 -70.41,48.86,1000 -70.40,48.85,1000 -70.38,48.83,1000 -70.36,48.82,1000 -70.35,48.80,1000 -70.34,48.79,1000 -70.33,48.77,1000 -70.32,48.75,1000 -70.32,48.73,1000 -70.31,48.72,1000 -70.31,48.70,1000 -70.31,48.68,1000 -70.31,48.66,1000 -70.31,48.64,1000 -70.31,48.62,1000 -70.32,48.60,1000 -70.33,48.59,1000 -70.34,48.57,1000 -70.36,48.56,1000 -70.38,48.55,1000 -70.41,48.53,1000 -70.43,48.52,1000 -70.46,48.51,1000 -70.48,48.51,1000 -70.51,48.50,1000 -70.53,48.50,1000 -70.56,48.49,1000 -70.59,48.49,1000 -70.62,48.49,1000 -70.65,48.49,1000 -70.68,48.49,1000 -70.71,48.50,1000 -70.73,48.50,1000 -70.76,48.51,1000 -70.78,48.52,1000 -70.80,48.53,1000 -70.83,48.54,1000 -70.85,48.55,1000 -70.87,48.57,1000 -70.89,48.58,1000 -70.91,48.60,1000 -70.93,48.61,1000 -70.95,48.63,1000 -70.97,48.64,1000 -70.98,48.66,1000 -70.99,48.68,1000 -71.00,48.69,1000 -71.01,48.71,1000 -71.02,48.73,1000 -71.03,48.75,1000 -71.03,48.77,1000 -71.03,48.79,1000 -71.03,48.81,1000 -71.03,48.82,1000 -71.03,48.84,1000 -71.02,48.86,1000 -71.02,48.88,1000 -71.01,48.89,1000 -70.99,48.91,1000 -70.98,48.93,1000 -70.96,48.94,1000 -70.95,48.96,1000 -70.93,48.97,1000 -70.91,48.99,1000 -70.88,49.01,1000 
          </coordinates>
        </LinearRing>
      </outerBoundaryIs>
  </Polygon>
 </MultiGeometry>
</Placemark>
<Placemark>
  <name>5%</name>
  <visibility>1</visibility>
  <styleUrl>#poly_5</styleUrl>
  <MultiGeometry>
    <Polygon>
      <outerBoundaryIs>
        <LinearRing>
          <coordinates>
-71.35,48.20,1000 -71.29,48.21,1000 -71.24,48.22,1000 -71.19,48.22,1000 -71.14,48.22,1000 -71.09,48.22,1000 -71.04,48.21,1000 -70.99,48.19,1000 -70.94,48.17,1000 -70.91,48.15,1000 -70.86,48.14,1000 -70.82,48.12,1000 -70.78,48.10,1000 -70.73,48.07,1000 -70.68,48.04,1000 -70.64,48.02,1000 -70.60,47.99,1000 -70.57,47.96,1000 -70.55,47.93,1000 -70.54,47.90,1000 -70.53,47.87,1000 -70.52,47.83,1000 -70.52,47.79,1000 -70.52,47.76,1000 -70.53,47.73,1000 -70.54,47.70,1000 -70.55,47.66,1000 -70.57,47.63,1000 -70.59,47.60,1000 -70.61,47.57,1000 -70.63,47.53,1000 -70.66,47.50,1000 -70.69,47.47,1000 -70.71,47.44,1000 -70.75,47.41,1000 -70.79,47.38,1000 -70.82,47.36,1000 -70.84,47.34,1000 -70.86,47.31,1000 -70.89,47.29,1000 -70.92,47.27,1000 -70.97,47.26,1000 -71.01,47.24,1000 -71.06,47.22,1000 -71.11,47.21,1000 -71.16,47.20,1000 -71.21,47.20,1000 -71.26,47.19,1000 -71.31,47.19,1000 -71.36,47.19,1000 -71.41,47.19,1000 -71.46,47.20,1000 -71.51,47.20,1000 -71.56,47.21,1000 -71.61,47.22,1000 -71.66,47.23,1000 -71.71,47.25,1000 -71.76,47.26,1000 -71.80,47.28,1000 -71.84,47.30,1000 -71.88,47.33,1000 -71.91,47.35,1000 -71.93,47.39,1000 -71.95,47.42,1000 -71.96,47.45,1000 -71.97,47.48,1000 -71.98,47.52,1000 -71.98,47.56,1000 -71.98,47.59,1000 -71.98,47.62,1000 -71.97,47.66,1000 -71.97,47.69,1000 -71.96,47.73,1000 -71.95,47.76,1000 -71.94,47.79,1000 -71.93,47.83,1000 -71.91,47.86,1000 -71.90,47.89,1000 -71.88,47.92,1000 -71.86,47.95,1000 -71.83,47.99,1000 -71.80,48.02,1000 -71.77,48.05,1000 -71.74,48.07,1000 -71.71,48.10,1000 -71.68,48.11,1000 -71.63,48.13,1000 -71.59,48.14,1000 -71.54,48.16,1000 -71.48,48.17,1000 -71.42,48.19,1000 -71.36,48.20,1000 -71.35,48.20,1000 
          </coordinates>
        </LinearRing>
      </outerBoundaryIs>
      <innerBoundaryIs>
        <LinearRing>
          <coordinates>
-71.37,48.15,2000 -71.33,48.15,2000 -71.28,48.15,2000 -71.24,48.16,2000 -71.19,48.16,2000 -71.15,48.15,2000 -71.11,48.15,2000 -71.06,48.14,2000 -71.01,48.13,2000 -70.97,48.12,2000 -70.92,48.11,2000 -70.88,48.09,2000 -70.85,48.07,2000 -70.81,48.05,2000 -70.78,48.02,2000 -70.75,47.99,2000 -70.72,47.97,2000 -70.70,47.95,2000 -70.68,47.92,2000 -70.67,47.90,2000 -70.66,47.87,2000 -70.64,47.84,2000 -70.62,47.81,2000 -70.62,47.77,2000 -70.63,47.74,2000 -70.64,47.70,2000 -70.66,47.67,2000 -70.67,47.64,2000 -70.69,47.61,2000 -70.71,47.58,2000 -70.73,47.56,2000 -70.75,47.54,2000 -70.77,47.52,2000 -70.78,47.50,2000 -70.79,47.49,2000 -70.82,47.46,2000 -70.84,47.44,2000 -70.88,47.42,2000 -70.91,47.40,2000 -70.95,47.37,2000 -70.98,47.35,2000 -71.02,47.33,2000 -71.04,47.31,2000 -71.06,47.29,2000 -71.09,47.29,2000 -71.12,47.28,2000 -71.16,47.28,2000 -71.21,47.27,2000 -71.26,47.26,2000 -71.31,47.25,2000 -71.35,47.25,2000 -71.40,47.25,2000 -71.45,47.25,2000 -71.50,47.26,2000 -71.54,47.27,2000 -71.59,47.28,2000 -71.63,47.30,2000 -71.67,47.32,2000 -71.70,47.34,2000 -71.74,47.36,2000 -71.77,47.38,2000 -71.79,47.40,2000 -71.81,47.42,2000 -71.82,47.44,2000 -71.84,47.46,2000 -71.86,47.49,2000 -71.88,47.52,2000 -71.89,47.55,2000 -71.90,47.58,2000 -71.90,47.61,2000 -71.90,47.64,2000 -71.90,47.66,2000 -71.90,47.69,2000 -71.89,47.72,2000 -71.88,47.75,2000 -71.87,47.78,2000 -71.86,47.81,2000 -71.84,47.83,2000 -71.83,47.86,2000 -71.81,47.89,2000 -71.79,47.91,2000 -71.76,47.94,2000 -71.72,47.97,2000 -71.69,47.99,2000 -71.66,48.01,2000 -71.62,48.04,2000 -71.60,48.06,2000 -71.37,48.15,2000 
          </coordinates>
        </LinearRing>
      </innerBoundaryIs>
  </Polygon>
 </MultiGeometry>
</Placemark>
<Placemark>
  <name>10%</name>
  <visibility>1</visibility>
  <styleUrl>#poly_10</styleUrl>
  <MultiGeometry>
    <Polygon>
      <outerBoundaryIs>
        <LinearRing>
          <coordinates>
-71.37,48.15,2000 -71.33,48.15,2000 -71.28,48.15,2000 -71.24,48.16,2000 -71.19,48.16,2000 -71.15,48.15,2000 -71.11,48.15,2000 -71.06,48.14,2000 -71.01,48.13,2000 -70.97,48.12,2000 -70.92,48.11,2000 -70.88,48.09,2000 -70.85,48.07,2000 -70.81,48.05,2000 -70.78,48.02,2000 -70.75,47.99,2000 -70.72,47.97,2000 -70.70,47.95,2000 -70.68,47.92,2000 -70.67,47.90,2000 -70.66,47.87,2000 -70.64,47.84,2000 -70.62,47.81,2000 -70.62,47.77,2000 -70.63,47.74,2000 -70.64,47.70,2000 -70.66,47.67,2000 -70.67,47.64,2000 -70.69,47.61,2000 -70.71,47.58,2000 -70.73,47.56,2000 -70.75,47.54,2000 -70.77,47.52,2000 -70.78,47.50,2000 -70.79,47.49,2000 -70.82,47.46,2000 -70.84,47.44,2000 -70.88,47.42,2000 -70.91,47.40,2000 -70.95,47.37,2000 -70.98,47.35,2000 -71.02,47.33,2000 -71.04,47.31,2000 -71.06,47.29,2000 -71.09,47.29,2000 -71.12,47.28,2000 -71.16,47.28,2000 -71.21,47.27,2000 -71.26,47.26,2000 -71.31,47.25,2000 -71.35,47.25,2000 -71.40,47.25,2000 -71.45,47.25,2000 -71.50,47.26,2000 -71.54,47.27,2000 -71.59,47.28,2000 -71.63,47.30,2000 -71.67,47.32,2000 -71.70,47.34,2000 -71.74,47.36,2000 -71.77,47.38,2000 -71.79,47.40,2000 -71.81,47.42,2000 -71.82,47.44,2000 -71.84,47.46,2000 -71.86,47.49,2000 -71.88,47.52,2000 -71.89,47.55,2000 -71.90,47.58,2000 -71.90,47.61,2000 -71.90,47.64,2000 -71.90,47.66,2000 -71.90,47.69,2000 -71.89,47.72,2000 -71.88,47.75,2000 -71.87,47.78,2000 -71.86,47.81,2000 -71.84,47.83,2000 -71.83,47.86,2000 -71.81,47.89,2000 -71.79,47.91,2000 -71.76,47.94,2000 -71.72,47.97,2000 -71.69,47.99,2000 -71.66,48.01,2000 -71.62,48.04,2000 -71.60,48.06,2000 -71.37,48.15,2000 
          </coordinates>
        </LinearRing>
      </outerBoundaryIs>
      <innerBoundaryIs>
        <LinearRing>
          <coordinates>
-71.39,48.05,3000 -71.35,48.06,3000 -71.31,48.07,3000 -71.28,48.07,3000 -71.24,48.08,3000 -71.20,48.08,3000 -71.17,48.08,3000 -71.13,48.08,3000 -71.09,48.07,3000 -71.06,48.06,3000 -71.02,48.05,3000 -70.98,48.03,3000 -70.95,48.01,3000 -70.92,48.00,3000 -70.90,47.99,3000 -70.88,47.99,3000 -70.87,47.97,3000 -70.86,47.96,3000 -70.84,47.94,3000 -70.82,47.91,3000 -70.80,47.89,3000 -70.79,47.86,3000 -70.77,47.84,3000 -70.76,47.81,3000 -70.75,47.79,3000 -70.75,47.77,3000 -70.75,47.74,3000 -70.76,47.72,3000 -70.77,47.70,3000 -70.78,47.68,3000 -70.80,47.65,3000 -70.81,47.63,3000 -70.83,47.61,3000 -70.85,47.58,3000 -70.87,47.56,3000 -70.89,47.53,3000 -70.91,47.51,3000 -70.93,47.49,3000 -70.95,47.47,3000 -70.98,47.45,3000 -71.00,47.43,3000 -71.02,47.42,3000 -71.06,47.41,3000 -71.09,47.40,3000 -71.12,47.39,3000 -71.16,47.38,3000 -71.20,47.37,3000 -71.24,47.36,3000 -71.28,47.35,3000 -71.32,47.35,3000 -71.36,47.35,3000 -71.39,47.35,3000 -71.43,47.35,3000 -71.46,47.36,3000 -71.50,47.37,3000 -71.53,47.38,3000 -71.56,47.39,3000 -71.59,47.41,3000 -71.61,47.43,3000 -71.64,47.45,3000 -71.66,47.47,3000 -71.69,47.50,3000 -71.71,47.52,3000 -71.73,47.55,3000 -71.74,47.57,3000 -71.75,47.60,3000 -71.75,47.62,3000 -71.75,47.65,3000 -71.75,47.67,3000 -71.74,47.69,3000 -71.74,47.71,3000 -71.74,47.73,3000 -71.74,47.74,3000 -71.72,47.75,3000 -71.71,47.77,3000 -71.70,47.79,3000 -71.69,47.81,3000 -71.68,47.84,3000 -71.66,47.86,3000 -71.64,47.89,3000 -71.62,47.91,3000 -71.60,47.93,3000 -71.57,47.95,3000 -71.54,47.96,3000 -71.51,47.98,3000 -71.48,48.00,3000 -71.45,48.02,3000 -71.42,48.04,3000 -71.39,48.05,3000 
          </coordinates>
        </LinearRing>
      </innerBoundaryIs>
  </Polygon>
 </MultiGeometry>
</Placemark>
<Placemark>
  <name>10%</name>
  <visibility>1</visibility>
  <styleUrl>#poly_10</styleUrl>
  <MultiGeometry>
    <Polygon>
      <outerBoundaryIs>
        <LinearRing>
          <coordinates>
-66.23,49.07,2000 -66.21,49.08,2000 -66.19,49.09,2000 -66.17,49.09,2000 -66.15,49.10,2000 -66.13,49.11,2000 -66.11,49.11,2000 -66.09,49.12,2000 -66.07,49.12,2000 -66.06,49.13,2000 -66.04,49.13,2000 -66.02,49.14,2000 -66.00,49.14,2000 -65.99,49.14,2000 -65.97,49.14,2000 -65.95,49.14,2000 -65.94,49.14,2000 -65.92,49.14,2000 -65.91,49.13,2000 -65.89,49.12,2000 -65.87,49.12,2000 -65.86,49.11,2000 -65.84,49.10,2000 -65.83,49.08,2000 -65.82,49.07,2000 -65.80,49.06,2000 -65.79,49.05,2000 -65.79,49.04,2000 -65.78,49.02,2000 -65.77,49.01,2000 -65.77,49.00,2000 -65.77,48.99,2000 -65.77,48.98,2000 -65.77,48.97,2000 -65.78,48.95,2000 -65.79,48.94,2000 -65.79,48.93,2000 -65.80,48.91,2000 -65.81,48.90,2000 -65.82,48.89,2000 -65.84,48.88,2000 -65.85,48.87,2000 -65.86,48.86,2000 -65.87,48.85,2000 -65.88,48.84,2000 -65.89,48.83,2000 -65.91,48.82,2000 -65.93,48.81,2000 -65.94,48.80,2000 -65.96,48.80,2000 -65.98,48.79,2000 -66.00,48.79,2000 -66.02,48.79,2000 -66.04,48.79,2000 -66.06,48.79,2000 -66.08,48.79,2000 -66.09,48.80,2000 -66.11,48.80,2000 -66.13,48.81,2000 -66.15,48.82,2000 -66.17,48.83,2000 -66.19,48.84,2000 -66.20,48.85,2000 -66.22,48.85,2000 -66.24,48.86,2000 -66.25,48.87,2000 -66.27,48.88,2000 -66.28,48.89,2000 -66.29,48.89,2000 -66.29,48.90,2000 -66.29,48.91,2000 -66.29,48.92,2000 -66.28,48.93,2000 -66.28,48.94,2000 -66.28,48.95,2000 -66.27,48.96,2000 -66.27,48.97,2000 -66.26,48.99,2000 -66.26,49.00,2000 -66.25,49.01,2000 -66.25,49.03,2000 -66.24,49.04,2000 -66.24,49.06,2000 -66.23,49.07,2000 
          </coordinates>
        </LinearRing>
      </outerBoundaryIs>
  </Polygon>
 </MultiGeometry>
</Placemark>
<Placemark>
  <name>20%</name>
  <visibility>1</visibility>
  <styleUrl>#poly_20</styleUrl>
  <MultiGeometry>
    <Polygon>
      <outerBoundaryIs>
        <LinearRing>
          <coordinates>
-71.39,48.05,3000 -71.35,48.06,3000 -71.31,48.07,3000 -71.28,48.07,3000 -71.24,48.08,3000 -71.20,48.08,3000 -71.17,48.08,3000 -71.13,48.08,3000 -71.09,48.07,3000 -71.06,48.06,3000 -71.02,48.05,3000 -70.98,48.03,3000 -70.95,48.01,3000 -70.92,48.00,3000 -70.90,47.99,3000 -70.88,47.99,3000 -70.87,47.97,3000 -70.86,47.96,3000 -70.84,47.94,3000 -70.82,47.91,3000 -70.80,47.89,3000 -70.79,47.86,3000 -70.77,47.84,3000 -70.76,47.81,3000 -70.75,47.79,3000 -70.75,47.77,3000 -70.75,47.74,3000 -70.76,47.72,3000 -70.77,47.70,3000 -70.78,47.68,3000 -70.80,47.65,3000 -70.81,47.63,3000 -70.83,47.61,3000 -70.85,47.58,3000 -70.87,47.56,3000 -70.89,47.53,3000 -70.91,47.51,3000 -70.93,47.49,3000 -70.95,47.47,3000 -70.98,47.45,3000 -71.00,47.43,3000 -71.02,47.42,3000 -71.06,47.41,3000 -71.09,47.40,3000 -71.12,47.39,3000 -71.16,47.38,3000 -71.20,47.37,3000 -71.24,47.36,3000 -71.28,47.35,3000 -71.32,47.35,3000 -71.36,47.35,3000 -71.39,47.35,3000 -71.43,47.35,3000 -71.46,47.36,3000 -71.50,47.37,3000 -71.53,47.38,3000 -71.56,47.39,3000 -71.59,47.41,3000 -71.61,47.43,3000 -71.64,47.45,3000 -71.66,47.47,3000 -71.69,47.50,3000 -71.71,47.52,3000 -71.73,47.55,3000 -71.74,47.57,3000 -71.75,47.60,3000 -71.75,47.62,3000 -71.75,47.65,3000 -71.75,47.67,3000 -71.74,47.69,3000 -71.74,47.71,3000 -71.74,47.73,3000 -71.74,47.74,3000 -71.72,47.75,3000 -71.71,47.77,3000 -71.70,47.79,3000 -71.69,47.81,3000 -71.68,47.84,3000 -71.66,47.86,3000 -71.64,47.89,3000 -71.62,47.91,3000 -71.60,47.93,3000 -71.57,47.95,3000 -71.54,47.96,3000 -71.51,47.98,3000 -71.48,48.00,3000 -71.45,48.02,3000 -71.42,48.04,3000 -71.39,48.05,3000 
          </coordinates>
        </LinearRing>
      </outerBoundaryIs>
      <innerBoundaryIs>
        <LinearRing>
          <coordinates>
-71.42,47.96,4000 -71.39,47.97,4000 -71.36,47.98,4000 -71.33,47.98,4000 -71.30,47.99,4000 -71.27,48.00,4000 -71.24,48.00,4000 -71.21,48.00,4000 -71.18,48.00,4000 -71.15,48.00,4000 -71.12,48.00,4000 -71.09,47.99,4000 -71.06,47.98,4000 -71.04,47.97,4000 -71.01,47.95,4000 -70.98,47.94,4000 -70.96,47.92,4000 -70.94,47.91,4000 -70.92,47.90,4000 -70.90,47.88,4000 -70.88,47.87,4000 -70.87,47.85,4000 -70.86,47.84,4000 -70.85,47.82,4000 -70.85,47.80,4000 -70.85,47.78,4000 -70.85,47.76,4000 -70.86,47.74,4000 -70.86,47.72,4000 -70.87,47.70,4000 -70.88,47.68,4000 -70.89,47.66,4000 -70.90,47.64,4000 -70.92,47.62,4000 -70.93,47.60,4000 -70.95,47.58,4000 -70.98,47.56,4000 -71.00,47.55,4000 -71.01,47.53,4000 -71.03,47.52,4000 -71.05,47.50,4000 -71.05,47.50,4000 -71.08,47.49,4000 -71.10,47.48,4000 -71.12,47.47,4000 -71.15,47.46,4000 -71.18,47.45,4000 -71.22,47.44,4000 -71.25,47.43,4000 -71.28,47.42,4000 -71.31,47.42,4000 -71.34,47.42,4000 -71.37,47.43,4000 -71.40,47.43,4000 -71.43,47.44,4000 -71.46,47.45,4000 -71.49,47.46,4000 -71.52,47.47,4000 -71.54,47.48,4000 -71.57,47.49,4000 -71.59,47.50,4000 -71.60,47.51,4000 -71.61,47.53,4000 -71.62,47.55,4000 -71.63,47.57,4000 -71.63,47.59,4000 -71.64,47.61,4000 -71.64,47.63,4000 -71.64,47.65,4000 -71.64,47.68,4000 -71.64,47.70,4000 -71.64,47.72,4000 -71.63,47.74,4000 -71.62,47.76,4000 -71.61,47.78,4000 -71.60,47.80,4000 -71.59,47.82,4000 -71.57,47.84,4000 -71.56,47.86,4000 -71.54,47.88,4000 -71.42,47.96,4000 
          </coordinates>
        </LinearRing>
      </innerBoundaryIs>
  </Polygon>
 </MultiGeometry>
</Placemark>
<Placemark>
  <name>30%</name>
  <visibility>1</visibility>
  <styleUrl>#poly_30</styleUrl>
  <MultiGeometry>
    <Polygon>
      <outerBoundaryIs>
        <LinearRing>
          <coordinates>
-71.42,47.96,4000 -71.39,47.97,4000 -71.36,47.98,4000 -71.33,47.98,4000 -71.30,47.99,4000 -71.27,48.00,4000 -71.24,48.00,4000 -71.21,48.00,4000 -71.18,48.00,4000 -71.15,48.00,4000 -71.12,48.00,4000 -71.09,47.99,4000 -71.06,47.98,4000 -71.04,47.97,4000 -71.01,47.95,4000 -70.98,47.94,4000 -70.96,47.92,4000 -70.94,47.91,4000 -70.92,47.90,4000 -70.90,47.88,4000 -70.88,47.87,4000 -70.87,47.85,4000 -70.86,47.84,4000 -70.85,47.82,4000 -70.85,47.80,4000 -70.85,47.78,4000 -70.85,47.76,4000 -70.86,47.74,4000 -70.86,47.72,4000 -70.87,47.70,4000 -70.88,47.68,4000 -70.89,47.66,4000 -70.90,47.64,4000 -70.92,47.62,4000 -70.93,47.60,4000 -70.95,47.58,4000 -70.98,47.56,4000 -71.00,47.55,4000 -71.01,47.53,4000 -71.03,47.52,4000 -71.05,47.50,4000 -71.05,47.50,4000 -71.08,47.49,4000 -71.10,47.48,4000 -71.12,47.47,4000 -71.15,47.46,4000 -71.18,47.45,4000 -71.22,47.44,4000 -71.25,47.43,4000 -71.28,47.42,4000 -71.31,47.42,4000 -71.34,47.42,4000 -71.37,47.43,4000 -71.40,47.43,4000 -71.43,47.44,4000 -71.46,47.45,4000 -71.49,47.46,4000 -71.52,47.47,4000 -71.54,47.48,4000 -71.57,47.49,4000 -71.59,47.50,4000 -71.60,47.51,4000 -71.61,47.53,4000 -71.62,47.55,4000 -71.63,47.57,4000 -71.63,47.59,4000 -71.64,47.61,4000 -71.64,47.63,4000 -71.64,47.65,4000 -71.64,47.68,4000 -71.64,47.70,4000 -71.64,47.72,4000 -71.63,47.74,4000 -71.62,47.76,4000 -71.61,47.78,4000 -71.60,47.80,4000 -71.59,47.82,4000 -71.57,47.84,4000 -71.56,47.86,4000 -71.54,47.88,4000 -71.42,47.96,4000 
          </coordinates>
        </LinearRing>
      </outerBoundaryIs>
      <innerBoundaryIs>
        <LinearRing>
          <coordinates>
-71.44,47.87,5000 -71.42,47.88,5000 -71.40,47.89,5000 -71.38,47.90,5000 -71.36,47.91,5000 -71.34,47.92,5000 -71.31,47.92,5000 -71.29,47.93,5000 -71.26,47.93,5000 -71.24,47.94,5000 -71.21,47.94,5000 -71.19,47.94,5000 -71.17,47.94,5000 -71.15,47.94,5000 -71.13,47.93,5000 -71.11,47.92,5000 -71.08,47.91,5000 -71.06,47.90,5000 -71.04,47.89,5000 -71.02,47.88,5000 -71.00,47.86,5000 -70.99,47.85,5000 -70.97,47.84,5000 -70.96,47.82,5000 -70.95,47.81,5000 -70.94,47.79,5000 -70.94,47.78,5000 -70.94,47.76,5000 -70.95,47.74,5000 -70.96,47.72,5000 -70.96,47.70,5000 -70.97,47.69,5000 -70.98,47.67,5000 -70.99,47.66,5000 -70.99,47.65,5000 -70.99,47.64,5000 -71.00,47.63,5000 -71.02,47.63,5000 -71.03,47.62,5000 -71.06,47.61,5000 -71.08,47.59,5000 -71.10,47.58,5000 -71.12,47.57,5000 -71.15,47.56,5000 -71.17,47.55,5000 -71.19,47.53,5000 -71.21,47.53,5000 -71.23,47.52,5000 -71.24,47.51,5000 -71.27,47.49,5000 -71.27,47.49,5000 -71.29,47.49,5000 -71.31,47.49,5000 -71.33,47.50,5000 -71.35,47.51,5000 -71.38,47.51,5000 -71.40,47.52,5000 -71.42,47.53,5000 -71.44,47.54,5000 -71.47,47.55,5000 -71.49,47.55,5000 -71.50,47.56,5000 -71.52,47.58,5000 -71.53,47.59,5000 -71.54,47.61,5000 -71.54,47.62,5000 -71.55,47.64,5000 -71.55,47.66,5000 -71.55,47.67,5000 -71.55,47.69,5000 -71.55,47.71,5000 -71.55,47.72,5000 -71.54,47.74,5000 -71.53,47.75,5000 -71.53,47.77,5000 -71.52,47.79,5000 -71.51,47.80,5000 -71.50,47.82,5000 -71.49,47.83,5000 -71.47,47.85,5000 -71.46,47.86,5000 -71.44,47.87,5000 -71.44,47.87,5000 
          </coordinates>
        </LinearRing>
      </innerBoundaryIs>
  </Polygon>
 </MultiGeometry>
</Placemark>
<Placemark>
  <name>40%</name>
  <visibility>1</visibility>
  <styleUrl>#poly_40</styleUrl>
  <MultiGeometry>
    <Polygon>
      <outerBoundaryIs>
        <LinearRing>
          <coordinates>
-71.44,47.87,5000 -71.42,47.88,5000 -71.40,47.89,5000 -71.38,47.90,5000 -71.36,47.91,5000 -71.34,47.92,5000 -71.31,47.92,5000 -71.29,47.93,5000 -71.26,47.93,5000 -71.24,47.94,5000 -71.21,47.94,5000 -71.19,47.94,5000 -71.17,47.94,5000 -71.15,47.94,5000 -71.13,47.93,5000 -71.11,47.92,5000 -71.08,47.91,5000 -71.06,47.90,5000 -71.04,47.89,5000 -71.02,47.88,5000 -71.00,47.86,5000 -70.99,47.85,5000 -70.97,47.84,5000 -70.96,47.82,5000 -70.95,47.81,5000 -70.94,47.79,5000 -70.94,47.78,5000 -70.94,47.76,5000 -70.95,47.74,5000 -70.96,47.72,5000 -70.96,47.70,5000 -70.97,47.69,5000 -70.98,47.67,5000 -70.99,47.66,5000 -70.99,47.65,5000 -70.99,47.64,5000 -71.00,47.63,5000 -71.02,47.63,5000 -71.03,47.62,5000 -71.06,47.61,5000 -71.08,47.59,5000 -71.10,47.58,5000 -71.12,47.57,5000 -71.15,47.56,5000 -71.17,47.55,5000 -71.19,47.53,5000 -71.21,47.53,5000 -71.23,47.52,5000 -71.24,47.51,5000 -71.27,47.49,5000 -71.27,47.49,5000 -71.29,47.49,5000 -71.31,47.49,5000 -71.33,47.50,5000 -71.35,47.51,5000 -71.38,47.51,5000 -71.40,47.52,5000 -71.42,47.53,5000 -71.44,47.54,5000 -71.47,47.55,5000 -71.49,47.55,5000 -71.50,47.56,5000 -71.52,47.58,5000 -71.53,47.59,5000 -71.54,47.61,5000 -71.54,47.62,5000 -71.55,47.64,5000 -71.55,47.66,5000 -71.55,47.67,5000 -71.55,47.69,5000 -71.55,47.71,5000 -71.55,47.72,5000 -71.54,47.74,5000 -71.53,47.75,5000 -71.53,47.77,5000 -71.52,47.79,5000 -71.51,47.80,5000 -71.50,47.82,5000 -71.49,47.83,5000 -71.47,47.85,5000 -71.46,47.86,5000 -71.44,47.87,5000 -71.44,47.87,5000 
          </coordinates>
        </LinearRing>
      </outerBoundaryIs>
      <innerBoundaryIs>
        <LinearRing>
          <coordinates>
-71.19,47.87,6000 -71.18,47.87,6000 -71.17,47.87,6000 -71.16,47.86,6000 -71.15,47.86,6000 -71.14,47.84,6000 -71.13,47.83,6000 -71.13,47.82,6000 -71.13,47.82,6000 -71.12,47.81,6000 -71.12,47.80,6000 -71.12,47.79,6000 -71.12,47.78,6000 -71.11,47.76,6000 -71.11,47.75,6000 -71.11,47.74,6000 -71.11,47.73,6000 -71.11,47.72,6000 -71.11,47.71,6000 -71.11,47.70,6000 -71.11,47.69,6000 -71.11,47.68,6000 -71.12,47.67,6000 -71.12,47.66,6000 -71.13,47.65,6000 -71.13,47.64,6000 -71.14,47.63,6000 -71.15,47.62,6000 -71.17,47.61,6000 -71.18,47.61,6000 -71.19,47.60,6000 -71.20,47.60,6000 -71.22,47.59,6000 -71.23,47.59,6000 -71.25,47.59,6000 -71.26,47.59,6000 -71.27,47.59,6000 -71.28,47.59,6000 -71.30,47.60,6000 -71.31,47.60,6000 -71.33,47.61,6000 -71.34,47.62,6000 -71.36,47.62,6000 -71.37,47.63,6000 -71.38,47.64,6000 -71.40,47.65,6000 -71.41,47.66,6000 -71.42,47.67,6000 -71.43,47.67,6000 -71.43,47.68,6000 -71.44,47.69,6000 -71.44,47.70,6000 -71.44,47.71,6000 -71.44,47.71,6000 -71.43,47.72,6000 -71.43,47.73,6000 -71.42,47.74,6000 -71.42,47.74,6000 -71.41,47.75,6000 -71.40,47.76,6000 -71.39,47.77,6000 -71.38,47.78,6000 -71.37,47.78,6000 -71.36,47.79,6000 -71.34,47.80,6000 -71.33,47.81,6000 -71.32,47.82,6000 -71.30,47.82,6000 -71.29,47.83,6000 -71.27,47.84,6000 -71.26,47.85,6000 -71.19,47.87,6000 
          </coordinates>
        </LinearRing>
      </innerBoundaryIs>
  </Polygon>
 </MultiGeometry>
</Placemark>
<Placemark>
  <name>50%</name>
  <visibility>1</visibility>
  <styleUrl>#poly_50</styleUrl>
  <MultiGeometry>
    <Polygon>
      <outerBoundaryIs>
        <LinearRing>
          <coordinates>
-71.19,47.87,6000 -71.18,47.87,6000 -71.17,47.87,6000 -71.16,47.86,6000 -71.15,47.86,6000 -71.14,47.84,6000 -71.13,47.83,6000 -71.13,47.82,6000 -71.13,47.82,6000 -71.12,47.81,6000 -71.12,47.80,6000 -71.12,47.79,6000 -71.12,47.78,6000 -71.11,47.76,6000 -71.11,47.75,6000 -71.11,47.74,6000 -71.11,47.73,6000 -71.11,47.72,6000 -71.11,47.71,6000 -71.11,47.70,6000 -71.11,47.69,6000 -71.11,47.68,6000 -71.12,47.67,6000 -71.12,47.66,6000 -71.13,47.65,6000 -71.13,47.64,6000 -71.14,47.63,6000 -71.15,47.62,6000 -71.17,47.61,6000 -71.18,47.61,6000 -71.19,47.60,6000 -71.20,47.60,6000 -71.22,47.59,6000 -71.23,47.59,6000 -71.25,47.59,6000 -71.26,47.59,6000 -71.27,47.59,6000 -71.28,47.59,6000 -71.30,47.60,6000 -71.31,47.60,6000 -71.33,47.61,6000 -71.34,47.62,6000 -71.36,47.62,6000 -71.37,47.63,6000 -71.38,47.64,6000 -71.40,47.65,6000 -71.41,47.66,6000 -71.42,47.67,6000 -71.43,47.67,6000 -71.43,47.68,6000 -71.44,47.69,6000 -71.44,47.70,6000 -71.44,47.71,6000 -71.44,47.71,6000 -71.43,47.72,6000 -71.43,47.73,6000 -71.42,47.74,6000 -71.42,47.74,6000 -71.41,47.75,6000 -71.40,47.76,6000 -71.39,47.77,6000 -71.38,47.78,6000 -71.37,47.78,6000 -71.36,47.79,6000 -71.34,47.80,6000 -71.33,47.81,6000 -71.32,47.82,6000 -71.30,47.82,6000 -71.29,47.83,6000 -71.27,47.84,6000 -71.26,47.85,6000 -71.19,47.87,6000 
          </coordinates>
        </LinearRing>
      </outerBoundaryIs>
  </Polygon>
 </MultiGeometry>
</Placemark>
    </Folder>
  </Document>
</kml>
