<?xml version="1.0" encoding="UTF-8"?>
<kml xmlns="http://www.opengis.net/kml/2.2">
<Document id="prb_72hsnow_ge02_f072">
<name>WPC 72-Hr Prob of Snow > 2"</name>
  <open>1</open>
  <snippet>Valid 12Z 05/08/2026 - 12Z 05/11/2026</snippet>
  <description></description>
    <Style id="poly_1">
        <IconStyle>
           <color>00000000</color>
           <scale>1</scale>
        </IconStyle>
        <LabelStyle>
            <color>ff26478b</color>
            <scale>0.8</scale>
        </LabelStyle>
        <LineStyle>
            <color>6626478b</color>
            <width>0</width>
        </LineStyle>
	<PolyStyle>
            <color>6626478b</color>
	</PolyStyle>
        <BalloonStyle>
            <text>
                <![CDATA[ <table border=0 width="300"><tr><td style="font-size:10pt;">
                During this forecast period, there is a <b>1-5%</b> probability of snowfall exceeding the depicted amount in the enclosed area.
                <br/><br/>
                *<span style="font-size:8pt;">Note that in cases where this contour is embedded within a 5% contour, 
                the probability of snowfall exceeding the depicted amount is &lt;1%.</span>
                </td></tr></table>]]>
            </text>
        </BalloonStyle>
    </Style>

    <Style id="poly_5">
        <IconStyle>
           <color>00000000</color>
           <scale>1</scale>
        </IconStyle>
        <LabelStyle>
            <color>ff00eeee</color>
            <scale>0.8</scale>
        </LabelStyle>
        <LineStyle>
            <color>6600eeee</color>
            <width>0.4</width>
        </LineStyle>
	<PolyStyle>
	    <color>6600eeee</color>
	</PolyStyle>
        <BalloonStyle>
            <text>
                <![CDATA[ <table border=0 width="300"><tr><td style="font-size:10pt;">
                During this forecast period, there is a <b>5-10%</b> probability of snowfall exceeding the depicted amount in the enclosed area.
                <br/><br/>
                *<span style="font-size:8pt;">Note that in cases where this contour is embedded within a 10% contour, 
                the probability of snowfall exceeding the depicted amount is &lt;5%.</span>
                </td></tr></table>]]>
            </text>
        </BalloonStyle>
    </Style>

    <Style id="poly_10">
        <IconStyle>
           <color>00000000</color>
           <scale>1</scale>
        </IconStyle>
        <LabelStyle>
            <color>ff00ff7f</color>
            <scale>0.8</scale>
        </LabelStyle>
        <LineStyle>
            <color>6600ff7f</color>
            <width>0.4</width>
        </LineStyle>
	<PolyStyle>
	    <color>6600ff7f</color>
	</PolyStyle>
        <BalloonStyle>
            <text>
                <![CDATA[ <table border=0 width="300"><tr><td style="font-size:10pt;">
                During this forecast period, there is a <b>10-20%</b> probability of snowfall exceeding the depicted amount in the enclosed area.
                <br/><br/>
                *<span style="font-size:8pt;">Note that in cases where this contour is embedded within a 20% contour, 
                the probability of snowfall exceeding the depicted amount is &lt;10%.</span>
                </td></tr></table>]]>
            </text>
        </BalloonStyle>
    </Style>
    
    <Style id="poly_20">
        <IconStyle>
            <color>00000000</color>
            <scale>1</scale>
        </IconStyle>
        <LabelStyle>
            <color>ff00cd00</color>
            <scale>0.8</scale>
        </LabelStyle>
        <LineStyle>
            <color>6600cd00</color>
	    <width>0.4</width>
	</LineStyle>
	<PolyStyle>
	    <color>6600cd00</color>
	</PolyStyle>
        <BalloonStyle>
            <text>
                <![CDATA[ <table border=0 width="300"><tr><td style="font-size:10pt;">
                During this forecast period, there is a <b>20-30%</b> probability of snowfall exceeding the depicted amount in the enclosed area.
                <br/><br/>
                *<span style="font-size:8pt;">Note that in cases where this contour is embedded within a 30% contour, 
                the probability of snowfall exceeding the depicted amount is &lt;20%.</span>
                </td></tr></table>]]>
            </text>
        </BalloonStyle>
    </Style>

    <Style id="poly_30">
        <IconStyle>
            <color>00000000</color>
            <scale>1</scale>
        </IconStyle>
        <LabelStyle>
            <color>ff008b00</color>
            <scale>0.8</scale>
        </LabelStyle>
        <LineStyle>
            <color>66008b00</color>
	    <width>0.4</width>
	</LineStyle>
	<PolyStyle>
	    <color>66008b00</color>
	</PolyStyle>
        <BalloonStyle>
            <text>
                <![CDATA[ <table border=0 width="300"><tr><td style="font-size:10pt;">
                During this forecast period, there is a <b>30-40%</b> probability of snowfall exceeding the depicted amount in the enclosed area.
                <br/><br/>
                *<span style="font-size:8pt;">Note that in cases where this contour is embedded within a 40% contour, 
                the probability of snowfall exceeding the depicted amount is &lt;30%.</span>
                </td></tr></table>]]>
            </text>
        </BalloonStyle>
    </Style>

    <Style id="poly_40">
        <IconStyle>
            <color>00000000</color>
            <scale>1</scale>
        </IconStyle>
        <LabelStyle>
            <color>ff8b4e10</color>
            <scale>0.8</scale>
        </LabelStyle>
        <LineStyle>
            <color>668b4e10</color>
	    <width>0.4</width>
	</LineStyle>
	<PolyStyle>
	    <color>668b4e10</color>
	</PolyStyle>
        <BalloonStyle>
            <text>
                <![CDATA[ <table border=0 width="300"><tr><td style="font-size:10pt;">
                During this forecast period, there is a <b>40-50%</b> probability of snowfall exceeding the depicted amount in the enclosed area.
                <br/><br/>
                *<span style="font-size:8pt;">Note that in cases where this contour is embedded within a 50% contour, 
                the probability of snowfall exceeding the depicted amount is &lt;40%.</span>
                </td></tr></table>]]>
            </text>
        </BalloonStyle>
    </Style>

    <Style id="poly_50">
        <IconStyle>
            <color>00000000</color>
            <scale>1</scale>
        </IconStyle>
        <LabelStyle>
            <color>ffff901e</color>
            <scale>0.8</scale>
        </LabelStyle>
        <LineStyle>
            <color>66ff901e</color>
	    <width>0.4</width>
	</LineStyle>
	<PolyStyle>
	    <color>66ff901e</color>
	</PolyStyle>
        <BalloonStyle>
            <text>
                <![CDATA[ <table border=0 width="300"><tr><td style="font-size:10pt;">
                During this forecast period, there is a <b>50-60%</b> probability of snowfall exceeding the depicted amount in the enclosed area.
                <br/><br/>
                *<span style="font-size:8pt;">Note that in cases where this contour is embedded within a 60% contour, 
                the probability of snowfall exceeding the depicted amount is &lt;50%.</span>
                </td></tr></table>]]>
            </text>
        </BalloonStyle>
    </Style>

    <Style id="poly_60">
        <IconStyle>
            <color>00000000</color>
            <scale>1</scale>
        </IconStyle>
        <LabelStyle>
            <color>ffeeb200</color>
            <scale>0.8</scale>
        </LabelStyle>
        <LineStyle>
            <color>66eeb200</color>
	    <width>0.4</width>
	</LineStyle>
	<PolyStyle>
	    <color>66eeb200</color>
	</PolyStyle>
        <BalloonStyle>
            <text>
                <![CDATA[ <table border=0 width="300"><tr><td style="font-size:10pt;">
                During this forecast period, there is a <b>60-70%</b> probability of snowfall exceeding the depicted amount in the enclosed area.
                <br/><br/>
                *<span style="font-size:8pt;">Note that in cases where this contour is embedded within a 70% contour, 
                the probability of snowfall exceeding the depicted amount is &lt;60%.</span>
                </td></tr></table>]]>
            </text>
        </BalloonStyle>
    </Style>
    
    <Style id="poly_70">
        <IconStyle>
            <color>00000000</color>
            <scale>1</scale>
        </IconStyle>
        <LabelStyle>
            <color>ffeeee00</color>
            <scale>0.8</scale>
        </LabelStyle>
        <LineStyle>
            <color>66eeee00</color>
	    <width>0.4</width>
	</LineStyle>
	<PolyStyle>
	    <color>66eeee00</color>
	</PolyStyle>
        <BalloonStyle>
            <text>
                <![CDATA[ <table border=0 width="300"><tr><td style="font-size:10pt;">
                During this forecast period, there is a <b>70-80%</b> probability of snowfall exceeding the depicted amount in the enclosed area.
                <br/><br/>
                *<span style="font-size:8pt;">Note that in cases where this contour is embedded within a 80% contour, 
                the probability of snowfall exceeding the depicted amount is &lt;70%.</span>
                </td></tr></table>]]>
            </text>
        </BalloonStyle>
    </Style>

    <Style id="poly_80">
        <IconStyle>
            <color>00000000</color>
            <scale>1</scale>
        </IconStyle>
        <LabelStyle>
            <color>ff4782ff</color>
            <scale>0.8</scale>
        </LabelStyle>
        <LineStyle>
            <color>664782ff</color>
	    <width>0.4</width>
	</LineStyle>
	<PolyStyle>
	    <color>664782ff</color>
	</PolyStyle>
        <BalloonStyle>
            <text>
                <![CDATA[ <table border=0 width="300"><tr><td style="font-size:10pt;">
                During this forecast period, there is a <b>80-90%</b> probability of snowfall exceeding the depicted amount in the enclosed area.
                <br/><br/>
                *<span style="font-size:8pt;">Note that in cases where this contour is embedded within a 90% contour, 
                the probability of snowfall exceeding the depicted amount is &lt;80%.</span>
                </td></tr></table>]]>
            </text>
        </BalloonStyle>
    </Style>

    <Style id="poly_90">
        <IconStyle>
            <color>00000000</color>
            <scale>1</scale>
        </IconStyle>
        <LabelStyle>
            <color>ff2c2cee</color>
            <scale>0.8</scale>
        </LabelStyle>
        <LineStyle>
            <color>662c2cee</color>
            <width>0.4</width>
        </LineStyle>
        <PolyStyle>
            <color>662c2cee</color>
        </PolyStyle>
        <BalloonStyle>
            <text>
                <![CDATA[ <table border=0 width="300"><tr><td style="font-size:10pt;">
                During this forecast period, there is a <b>90-95%</b> probability of snowfall exceeding the depicted amount in the enclosed area.
                <br/><br/>
                *<span style="font-size:8pt;">Note that in cases where this contour is embedded within a 95% contour, 
                the probability of snowfall exceeding the depicted amount is &lt;90%.</span>
                </td></tr></table>]]>
            </text>
        </BalloonStyle>
    </Style>

    <Style id="poly_95">
        <IconStyle>
            <color>00000000</color>
            <scale>1</scale>
        </IconStyle>
        <LabelStyle>
            <color>ff00008b</color>
            <scale>0.8</scale>
        </LabelStyle>
        <LineStyle>
            <color>6600008b</color>
	    <width>0.4</width>
	</LineStyle>
	<PolyStyle>
	    <color>6600008b</color>
	</PolyStyle>
        <BalloonStyle>
            <text>
                <![CDATA[ <table border=0 width="300"><tr><td style="font-size:10pt;">
                The probability of snowfall exceeding the depicted amount is <b>&ge;95%</b> in the enclosed area during this forecast period.
                </td></tr></table>]]>
            </text>
        </BalloonStyle>
    </Style>

  <ScreenOverlay>
    <name>Logos</name>
    <description></description>
    <Icon>
      <href>https://www.wpc.ncep.noaa.gov/images/noaa_and_nws_logo.png</href>
    </Icon>
   <overlayXY x=".01" y=".01" xunits="fraction" yunits="fraction" />
   <screenXY x=".01" y=".01" xunits="fraction" yunits="fraction" />
   <rotationXY x="0" y="0" xunits="fraction" yunits="fraction" />
   <size x="-1" y="-1" xunits="fraction" yunits="fraction" />
  </ScreenOverlay>
    <Folder>
      <name>Snow Probabilities</name>
      <open>0</open>
<Placemark>
  <name>1%</name>
  <visibility>1</visibility>
  <styleUrl>#poly_1</styleUrl>
  <MultiGeometry>
    <Polygon>
      <outerBoundaryIs>
        <LinearRing>
          <coordinates>
-107.56,44.71,0 -107.53,44.72,0 -107.49,44.73,0 -107.46,44.74,0 -107.42,44.75,0 -107.39,44.76,0 -107.35,44.77,0 -107.32,44.77,0 -107.29,44.77,0 -107.25,44.77,0 -107.21,44.77,0 -107.18,44.77,0 -107.14,44.76,0 -107.11,44.76,0 -107.08,44.75,0 -107.05,44.74,0 -107.01,44.72,0 -106.98,44.71,0 -106.96,44.69,0 -106.93,44.67,0 -106.91,44.65,0 -106.89,44.63,0 -106.88,44.61,0 -106.87,44.59,0 -106.86,44.56,0 -106.85,44.54,0 -106.84,44.51,0 -106.83,44.49,0 -106.82,44.47,0 -106.81,44.44,0 -106.81,44.42,0 -106.80,44.39,0 -106.80,44.37,0 -106.80,44.35,0 -106.81,44.32,0 -106.82,44.30,0 -106.84,44.28,0 -106.86,44.25,0 -106.88,44.23,0 -106.90,44.20,0 -106.93,44.18,0 -106.95,44.16,0 -106.97,44.14,0 -106.98,44.13,0 -107.00,44.12,0 -107.02,44.11,0 -107.05,44.10,0 -107.09,44.09,0 -107.12,44.07,0 -107.16,44.06,0 -107.20,44.05,0 -107.23,44.05,0 -107.26,44.05,0 -107.29,44.06,0 -107.32,44.08,0 -107.35,44.09,0 -107.38,44.10,0 -107.40,44.11,0 -107.43,44.11,0 -107.45,44.11,0 -107.48,44.12,0 -107.50,44.13,0 -107.53,44.15,0 -107.55,44.16,0 -107.58,44.18,0 -107.61,44.20,0 -107.64,44.22,0 -107.66,44.24,0 -107.68,44.26,0 -107.69,44.28,0 -107.71,44.31,0 -107.71,44.33,0 -107.72,44.35,0 -107.72,44.38,0 -107.72,44.40,0 -107.72,44.43,0 -107.72,44.46,0 -107.72,44.48,0 -107.71,44.51,0 -107.70,44.53,0 -107.70,44.56,0 -107.69,44.58,0 -107.68,44.61,0 -107.56,44.71,0 
          </coordinates>
        </LinearRing>
      </outerBoundaryIs>
      <innerBoundaryIs>
        <LinearRing>
          <coordinates>
-107.52,44.47,1000 -107.51,44.48,1000 -107.49,44.50,1000 -107.48,44.51,1000 -107.46,44.53,1000 -107.45,44.54,1000 -107.43,44.56,1000 -107.42,44.57,1000 -107.41,44.58,1000 -107.39,44.59,1000 -107.38,44.60,1000 -107.36,44.61,1000 -107.35,44.62,1000 -107.33,44.62,1000 -107.32,44.63,1000 -107.30,44.63,1000 -107.28,44.63,1000 -107.26,44.63,1000 -107.24,44.62,1000 -107.22,44.62,1000 -107.20,44.61,1000 -107.18,44.60,1000 -107.15,44.59,1000 -107.13,44.58,1000 -107.11,44.57,1000 -107.10,44.56,1000 -107.08,44.55,1000 -107.06,44.54,1000 -107.05,44.53,1000 -107.02,44.52,1000 -107.01,44.51,1000 -107.00,44.50,1000 -106.99,44.49,1000 -106.99,44.48,1000 -106.99,44.47,1000 -106.99,44.45,1000 -106.99,44.44,1000 -107.00,44.42,1000 -107.00,44.40,1000 -107.01,44.38,1000 -107.01,44.37,1000 -107.02,44.35,1000 -107.02,44.34,1000 -107.02,44.32,1000 -107.02,44.31,1000 -107.04,44.30,1000 -107.05,44.29,1000 -107.06,44.29,1000 -107.08,44.28,1000 -107.10,44.27,1000 -107.12,44.26,1000 -107.14,44.25,1000 -107.16,44.24,1000 -107.18,44.23,1000 -107.20,44.22,1000 -107.21,44.22,1000 -107.23,44.21,1000 -107.25,44.21,1000 -107.27,44.21,1000 -107.29,44.21,1000 -107.31,44.22,1000 -107.33,44.22,1000 -107.35,44.23,1000 -107.37,44.24,1000 -107.38,44.25,1000 -107.40,44.26,1000 -107.42,44.27,1000 -107.43,44.28,1000 -107.45,44.29,1000 -107.46,44.31,1000 -107.47,44.32,1000 -107.48,44.34,1000 -107.49,44.35,1000 -107.50,44.37,1000 -107.50,44.38,1000 -107.51,44.39,1000 -107.52,44.41,1000 -107.53,44.42,1000 -107.54,44.43,1000 -107.54,44.44,1000 -107.52,44.47,1000 
          </coordinates>
        </LinearRing>
      </innerBoundaryIs>
  </Polygon>
 </MultiGeometry>
</Placemark>
<Placemark>
  <name>5%</name>
  <visibility>1</visibility>
  <styleUrl>#poly_5</styleUrl>
  <MultiGeometry>
    <Polygon>
      <outerBoundaryIs>
        <LinearRing>
          <coordinates>
-107.52,44.47,1000 -107.51,44.48,1000 -107.49,44.50,1000 -107.48,44.51,1000 -107.46,44.53,1000 -107.45,44.54,1000 -107.43,44.56,1000 -107.42,44.57,1000 -107.41,44.58,1000 -107.39,44.59,1000 -107.38,44.60,1000 -107.36,44.61,1000 -107.35,44.62,1000 -107.33,44.62,1000 -107.32,44.63,1000 -107.30,44.63,1000 -107.28,44.63,1000 -107.26,44.63,1000 -107.24,44.62,1000 -107.22,44.62,1000 -107.20,44.61,1000 -107.18,44.60,1000 -107.15,44.59,1000 -107.13,44.58,1000 -107.11,44.57,1000 -107.10,44.56,1000 -107.08,44.55,1000 -107.06,44.54,1000 -107.05,44.53,1000 -107.02,44.52,1000 -107.01,44.51,1000 -107.00,44.50,1000 -106.99,44.49,1000 -106.99,44.48,1000 -106.99,44.47,1000 -106.99,44.45,1000 -106.99,44.44,1000 -107.00,44.42,1000 -107.00,44.40,1000 -107.01,44.38,1000 -107.01,44.37,1000 -107.02,44.35,1000 -107.02,44.34,1000 -107.02,44.32,1000 -107.02,44.31,1000 -107.04,44.30,1000 -107.05,44.29,1000 -107.06,44.29,1000 -107.08,44.28,1000 -107.10,44.27,1000 -107.12,44.26,1000 -107.14,44.25,1000 -107.16,44.24,1000 -107.18,44.23,1000 -107.20,44.22,1000 -107.21,44.22,1000 -107.23,44.21,1000 -107.25,44.21,1000 -107.27,44.21,1000 -107.29,44.21,1000 -107.31,44.22,1000 -107.33,44.22,1000 -107.35,44.23,1000 -107.37,44.24,1000 -107.38,44.25,1000 -107.40,44.26,1000 -107.42,44.27,1000 -107.43,44.28,1000 -107.45,44.29,1000 -107.46,44.31,1000 -107.47,44.32,1000 -107.48,44.34,1000 -107.49,44.35,1000 -107.50,44.37,1000 -107.50,44.38,1000 -107.51,44.39,1000 -107.52,44.41,1000 -107.53,44.42,1000 -107.54,44.43,1000 -107.54,44.44,1000 -107.52,44.47,1000 
          </coordinates>
        </LinearRing>
      </outerBoundaryIs>
  </Polygon>
 </MultiGeometry>
</Placemark>
    </Folder>
  </Document>
</kml>
