<?xml version="1.0" encoding="UTF-8"?>
<kml xmlns="http://www.opengis.net/kml/2.2">
<Document id="prb_72hsnow_ge02_f072">
<name>WPC 72-Hr Prob of Snow > 2"</name>
  <open>1</open>
  <snippet>Valid 12Z 05/24/2026 - 12Z 05/27/2026</snippet>
  <description></description>
    <Style id="poly_1">
        <IconStyle>
           <color>00000000</color>
           <scale>1</scale>
        </IconStyle>
        <LabelStyle>
            <color>ff26478b</color>
            <scale>0.8</scale>
        </LabelStyle>
        <LineStyle>
            <color>6626478b</color>
            <width>0</width>
        </LineStyle>
	<PolyStyle>
            <color>6626478b</color>
	</PolyStyle>
        <BalloonStyle>
            <text>
                <![CDATA[ <table border=0 width="300"><tr><td style="font-size:10pt;">
                During this forecast period, there is a <b>1-5%</b> probability of snowfall exceeding the depicted amount in the enclosed area.
                <br/><br/>
                *<span style="font-size:8pt;">Note that in cases where this contour is embedded within a 5% contour, 
                the probability of snowfall exceeding the depicted amount is &lt;1%.</span>
                </td></tr></table>]]>
            </text>
        </BalloonStyle>
    </Style>

    <Style id="poly_5">
        <IconStyle>
           <color>00000000</color>
           <scale>1</scale>
        </IconStyle>
        <LabelStyle>
            <color>ff00eeee</color>
            <scale>0.8</scale>
        </LabelStyle>
        <LineStyle>
            <color>6600eeee</color>
            <width>0.4</width>
        </LineStyle>
	<PolyStyle>
	    <color>6600eeee</color>
	</PolyStyle>
        <BalloonStyle>
            <text>
                <![CDATA[ <table border=0 width="300"><tr><td style="font-size:10pt;">
                During this forecast period, there is a <b>5-10%</b> probability of snowfall exceeding the depicted amount in the enclosed area.
                <br/><br/>
                *<span style="font-size:8pt;">Note that in cases where this contour is embedded within a 10% contour, 
                the probability of snowfall exceeding the depicted amount is &lt;5%.</span>
                </td></tr></table>]]>
            </text>
        </BalloonStyle>
    </Style>

    <Style id="poly_10">
        <IconStyle>
           <color>00000000</color>
           <scale>1</scale>
        </IconStyle>
        <LabelStyle>
            <color>ff00ff7f</color>
            <scale>0.8</scale>
        </LabelStyle>
        <LineStyle>
            <color>6600ff7f</color>
            <width>0.4</width>
        </LineStyle>
	<PolyStyle>
	    <color>6600ff7f</color>
	</PolyStyle>
        <BalloonStyle>
            <text>
                <![CDATA[ <table border=0 width="300"><tr><td style="font-size:10pt;">
                During this forecast period, there is a <b>10-20%</b> probability of snowfall exceeding the depicted amount in the enclosed area.
                <br/><br/>
                *<span style="font-size:8pt;">Note that in cases where this contour is embedded within a 20% contour, 
                the probability of snowfall exceeding the depicted amount is &lt;10%.</span>
                </td></tr></table>]]>
            </text>
        </BalloonStyle>
    </Style>
    
    <Style id="poly_20">
        <IconStyle>
            <color>00000000</color>
            <scale>1</scale>
        </IconStyle>
        <LabelStyle>
            <color>ff00cd00</color>
            <scale>0.8</scale>
        </LabelStyle>
        <LineStyle>
            <color>6600cd00</color>
	    <width>0.4</width>
	</LineStyle>
	<PolyStyle>
	    <color>6600cd00</color>
	</PolyStyle>
        <BalloonStyle>
            <text>
                <![CDATA[ <table border=0 width="300"><tr><td style="font-size:10pt;">
                During this forecast period, there is a <b>20-30%</b> probability of snowfall exceeding the depicted amount in the enclosed area.
                <br/><br/>
                *<span style="font-size:8pt;">Note that in cases where this contour is embedded within a 30% contour, 
                the probability of snowfall exceeding the depicted amount is &lt;20%.</span>
                </td></tr></table>]]>
            </text>
        </BalloonStyle>
    </Style>

    <Style id="poly_30">
        <IconStyle>
            <color>00000000</color>
            <scale>1</scale>
        </IconStyle>
        <LabelStyle>
            <color>ff008b00</color>
            <scale>0.8</scale>
        </LabelStyle>
        <LineStyle>
            <color>66008b00</color>
	    <width>0.4</width>
	</LineStyle>
	<PolyStyle>
	    <color>66008b00</color>
	</PolyStyle>
        <BalloonStyle>
            <text>
                <![CDATA[ <table border=0 width="300"><tr><td style="font-size:10pt;">
                During this forecast period, there is a <b>30-40%</b> probability of snowfall exceeding the depicted amount in the enclosed area.
                <br/><br/>
                *<span style="font-size:8pt;">Note that in cases where this contour is embedded within a 40% contour, 
                the probability of snowfall exceeding the depicted amount is &lt;30%.</span>
                </td></tr></table>]]>
            </text>
        </BalloonStyle>
    </Style>

    <Style id="poly_40">
        <IconStyle>
            <color>00000000</color>
            <scale>1</scale>
        </IconStyle>
        <LabelStyle>
            <color>ff8b4e10</color>
            <scale>0.8</scale>
        </LabelStyle>
        <LineStyle>
            <color>668b4e10</color>
	    <width>0.4</width>
	</LineStyle>
	<PolyStyle>
	    <color>668b4e10</color>
	</PolyStyle>
        <BalloonStyle>
            <text>
                <![CDATA[ <table border=0 width="300"><tr><td style="font-size:10pt;">
                During this forecast period, there is a <b>40-50%</b> probability of snowfall exceeding the depicted amount in the enclosed area.
                <br/><br/>
                *<span style="font-size:8pt;">Note that in cases where this contour is embedded within a 50% contour, 
                the probability of snowfall exceeding the depicted amount is &lt;40%.</span>
                </td></tr></table>]]>
            </text>
        </BalloonStyle>
    </Style>

    <Style id="poly_50">
        <IconStyle>
            <color>00000000</color>
            <scale>1</scale>
        </IconStyle>
        <LabelStyle>
            <color>ffff901e</color>
            <scale>0.8</scale>
        </LabelStyle>
        <LineStyle>
            <color>66ff901e</color>
	    <width>0.4</width>
	</LineStyle>
	<PolyStyle>
	    <color>66ff901e</color>
	</PolyStyle>
        <BalloonStyle>
            <text>
                <![CDATA[ <table border=0 width="300"><tr><td style="font-size:10pt;">
                During this forecast period, there is a <b>50-60%</b> probability of snowfall exceeding the depicted amount in the enclosed area.
                <br/><br/>
                *<span style="font-size:8pt;">Note that in cases where this contour is embedded within a 60% contour, 
                the probability of snowfall exceeding the depicted amount is &lt;50%.</span>
                </td></tr></table>]]>
            </text>
        </BalloonStyle>
    </Style>

    <Style id="poly_60">
        <IconStyle>
            <color>00000000</color>
            <scale>1</scale>
        </IconStyle>
        <LabelStyle>
            <color>ffeeb200</color>
            <scale>0.8</scale>
        </LabelStyle>
        <LineStyle>
            <color>66eeb200</color>
	    <width>0.4</width>
	</LineStyle>
	<PolyStyle>
	    <color>66eeb200</color>
	</PolyStyle>
        <BalloonStyle>
            <text>
                <![CDATA[ <table border=0 width="300"><tr><td style="font-size:10pt;">
                During this forecast period, there is a <b>60-70%</b> probability of snowfall exceeding the depicted amount in the enclosed area.
                <br/><br/>
                *<span style="font-size:8pt;">Note that in cases where this contour is embedded within a 70% contour, 
                the probability of snowfall exceeding the depicted amount is &lt;60%.</span>
                </td></tr></table>]]>
            </text>
        </BalloonStyle>
    </Style>
    
    <Style id="poly_70">
        <IconStyle>
            <color>00000000</color>
            <scale>1</scale>
        </IconStyle>
        <LabelStyle>
            <color>ffeeee00</color>
            <scale>0.8</scale>
        </LabelStyle>
        <LineStyle>
            <color>66eeee00</color>
	    <width>0.4</width>
	</LineStyle>
	<PolyStyle>
	    <color>66eeee00</color>
	</PolyStyle>
        <BalloonStyle>
            <text>
                <![CDATA[ <table border=0 width="300"><tr><td style="font-size:10pt;">
                During this forecast period, there is a <b>70-80%</b> probability of snowfall exceeding the depicted amount in the enclosed area.
                <br/><br/>
                *<span style="font-size:8pt;">Note that in cases where this contour is embedded within a 80% contour, 
                the probability of snowfall exceeding the depicted amount is &lt;70%.</span>
                </td></tr></table>]]>
            </text>
        </BalloonStyle>
    </Style>

    <Style id="poly_80">
        <IconStyle>
            <color>00000000</color>
            <scale>1</scale>
        </IconStyle>
        <LabelStyle>
            <color>ff4782ff</color>
            <scale>0.8</scale>
        </LabelStyle>
        <LineStyle>
            <color>664782ff</color>
	    <width>0.4</width>
	</LineStyle>
	<PolyStyle>
	    <color>664782ff</color>
	</PolyStyle>
        <BalloonStyle>
            <text>
                <![CDATA[ <table border=0 width="300"><tr><td style="font-size:10pt;">
                During this forecast period, there is a <b>80-90%</b> probability of snowfall exceeding the depicted amount in the enclosed area.
                <br/><br/>
                *<span style="font-size:8pt;">Note that in cases where this contour is embedded within a 90% contour, 
                the probability of snowfall exceeding the depicted amount is &lt;80%.</span>
                </td></tr></table>]]>
            </text>
        </BalloonStyle>
    </Style>

    <Style id="poly_90">
        <IconStyle>
            <color>00000000</color>
            <scale>1</scale>
        </IconStyle>
        <LabelStyle>
            <color>ff2c2cee</color>
            <scale>0.8</scale>
        </LabelStyle>
        <LineStyle>
            <color>662c2cee</color>
            <width>0.4</width>
        </LineStyle>
        <PolyStyle>
            <color>662c2cee</color>
        </PolyStyle>
        <BalloonStyle>
            <text>
                <![CDATA[ <table border=0 width="300"><tr><td style="font-size:10pt;">
                During this forecast period, there is a <b>90-95%</b> probability of snowfall exceeding the depicted amount in the enclosed area.
                <br/><br/>
                *<span style="font-size:8pt;">Note that in cases where this contour is embedded within a 95% contour, 
                the probability of snowfall exceeding the depicted amount is &lt;90%.</span>
                </td></tr></table>]]>
            </text>
        </BalloonStyle>
    </Style>

    <Style id="poly_95">
        <IconStyle>
            <color>00000000</color>
            <scale>1</scale>
        </IconStyle>
        <LabelStyle>
            <color>ff00008b</color>
            <scale>0.8</scale>
        </LabelStyle>
        <LineStyle>
            <color>6600008b</color>
	    <width>0.4</width>
	</LineStyle>
	<PolyStyle>
	    <color>6600008b</color>
	</PolyStyle>
        <BalloonStyle>
            <text>
                <![CDATA[ <table border=0 width="300"><tr><td style="font-size:10pt;">
                The probability of snowfall exceeding the depicted amount is <b>&ge;95%</b> in the enclosed area during this forecast period.
                </td></tr></table>]]>
            </text>
        </BalloonStyle>
    </Style>

  <ScreenOverlay>
    <name>Logos</name>
    <description></description>
    <Icon>
      <href>https://www.wpc.ncep.noaa.gov/images/noaa_and_nws_logo.png</href>
    </Icon>
   <overlayXY x=".01" y=".01" xunits="fraction" yunits="fraction" />
   <screenXY x=".01" y=".01" xunits="fraction" yunits="fraction" />
   <rotationXY x="0" y="0" xunits="fraction" yunits="fraction" />
   <size x="-1" y="-1" xunits="fraction" yunits="fraction" />
  </ScreenOverlay>
    <Folder>
      <name>Snow Probabilities</name>
      <open>0</open>
<Placemark>
  <name>1%</name>
  <visibility>1</visibility>
  <styleUrl>#poly_1</styleUrl>
  <MultiGeometry>
    <Polygon>
      <outerBoundaryIs>
        <LinearRing>
          <coordinates>
-125.81,49.70,0 -125.79,49.70,0 -125.76,49.70,0 -125.74,49.71,0 -125.72,49.71,0 -125.70,49.71,0 -125.68,49.71,0 -125.66,49.71,0 -125.64,49.71,0 -125.62,49.71,0 -125.60,49.71,0 -125.58,49.71,0 -125.57,49.71,0 -125.55,49.71,0 -125.53,49.71,0 -125.51,49.71,0 -125.49,49.70,0 -125.48,49.70,0 -125.46,49.69,0 -125.45,49.68,0 -125.43,49.67,0 -125.42,49.66,0 -125.41,49.66,0 -125.39,49.65,0 -125.38,49.64,0 -125.36,49.63,0 -125.35,49.62,0 -125.33,49.61,0 -125.32,49.60,0 -125.31,49.59,0 -125.29,49.57,0 -125.28,49.56,0 -125.27,49.55,0 -125.27,49.54,0 -125.26,49.53,0 -125.26,49.52,0 -125.26,49.51,0 -125.26,49.50,0 -125.27,49.49,0 -125.28,49.47,0 -125.29,49.46,0 -125.30,49.45,0 -125.31,49.43,0 -125.32,49.42,0 -125.34,49.41,0 -125.35,49.40,0 -125.37,49.39,0 -125.38,49.38,0 -125.40,49.37,0 -125.41,49.36,0 -125.43,49.36,0 -125.45,49.36,0 -125.46,49.36,0 -125.48,49.36,0 -125.50,49.36,0 -125.52,49.36,0 -125.54,49.37,0 -125.57,49.38,0 -125.59,49.38,0 -125.61,49.39,0 -125.63,49.39,0 -125.65,49.40,0 -125.67,49.41,0 -125.68,49.41,0 -125.70,49.42,0 -125.71,49.42,0 -125.74,49.43,0 -125.75,49.43,0 -125.75,49.43,0 -125.76,49.45,0 -125.77,49.46,0 -125.77,49.47,0 -125.78,49.48,0 -125.79,49.49,0 -125.79,49.50,0 -125.80,49.51,0 -125.81,49.52,0 -125.82,49.53,0 -125.83,49.55,0 -125.83,49.56,0 -125.84,49.57,0 -125.85,49.59,0 -125.86,49.60,0 -125.81,49.70,0 
          </coordinates>
        </LinearRing>
      </outerBoundaryIs>
  </Polygon>
 </MultiGeometry>
</Placemark>
<Placemark>
  <name>1%</name>
  <visibility>1</visibility>
  <styleUrl>#poly_1</styleUrl>
  <MultiGeometry>
    <Polygon>
      <outerBoundaryIs>
        <LinearRing>
          <coordinates>
-123.67,47.95,0 -123.65,47.96,0 -123.62,47.98,0 -123.60,47.99,0 -123.57,48.00,0 -123.55,48.01,0 -123.52,48.02,0 -123.49,48.03,0 -123.47,48.04,0 -123.44,48.04,0 -123.41,48.04,0 -123.38,48.04,0 -123.35,48.04,0 -123.32,48.04,0 -123.29,48.04,0 -123.26,48.03,0 -123.23,48.03,0 -123.20,48.02,0 -123.18,48.02,0 -123.15,48.01,0 -123.12,48.01,0 -123.10,48.00,0 -123.08,47.99,0 -123.06,47.97,0 -123.05,47.96,0 -123.03,47.94,0 -123.01,47.93,0 -123.00,47.91,0 -122.98,47.89,0 -122.97,47.88,0 -122.96,47.86,0 -122.95,47.84,0 -122.94,47.82,0 -122.94,47.80,0 -122.94,47.78,0 -122.94,47.76,0 -122.94,47.74,0 -122.95,47.71,0 -122.95,47.69,0 -122.96,47.67,0 -122.96,47.66,0 -122.97,47.64,0 -122.98,47.62,0 -122.99,47.60,0 -123.00,47.59,0 -123.02,47.58,0 -123.04,47.57,0 -123.06,47.56,0 -123.08,47.55,0 -123.10,47.54,0 -123.13,47.53,0 -123.16,47.52,0 -123.19,47.51,0 -123.21,47.50,0 -123.24,47.49,0 -123.27,47.49,0 -123.30,47.49,0 -123.33,47.49,0 -123.36,47.49,0 -123.39,47.49,0 -123.42,47.49,0 -123.45,47.50,0 -123.48,47.50,0 -123.51,47.51,0 -123.53,47.51,0 -123.56,47.52,0 -123.58,47.52,0 -123.60,47.53,0 -123.62,47.55,0 -123.63,47.56,0 -123.65,47.58,0 -123.67,47.59,0 -123.69,47.61,0 -123.71,47.63,0 -123.72,47.64,0 -123.74,47.66,0 -123.75,47.68,0 -123.76,47.70,0 -123.76,47.72,0 -123.77,47.74,0 -123.77,47.75,0 -123.76,47.77,0 -123.76,47.79,0 -123.75,47.81,0 -123.75,47.83,0 -123.74,47.85,0 -123.73,47.87,0 -123.67,47.95,0 
          </coordinates>
        </LinearRing>
      </outerBoundaryIs>
  </Polygon>
 </MultiGeometry>
</Placemark>
<Placemark>
  <name>1%</name>
  <visibility>1</visibility>
  <styleUrl>#poly_1</styleUrl>
  <MultiGeometry>
    <Polygon>
      <outerBoundaryIs>
        <LinearRing>
          <coordinates>
-124.92,50.89,0 -124.81,50.91,0 -124.71,50.93,0 -124.60,50.94,0 -124.49,50.96,0 -124.39,50.98,0 -124.28,50.99,0 -124.17,51.01,0 -124.06,51.03,0 -123.94,51.04,0 -123.83,51.06,0 -123.71,51.08,0 -123.60,51.09,0 -123.50,51.10,0 -123.41,51.11,0 -123.28,51.12,0 -123.19,51.11,0 -123.10,51.10,0 -123.03,51.08,0 -122.96,51.04,0 -122.90,50.98,0 -122.85,50.92,0 -122.81,50.87,0 -122.79,50.80,0 -122.78,50.73,0 -122.75,50.69,0 -122.68,50.68,0 -122.59,50.70,0 -122.49,50.72,0 -122.40,50.73,0 -122.31,50.74,0 -122.21,50.75,0 -122.11,50.75,0 -122.02,50.74,0 -121.92,50.72,0 -121.84,50.70,0 -121.77,50.67,0 -121.72,50.62,0 -121.69,50.56,0 -121.65,50.51,0 -121.57,50.47,0 -121.48,50.44,0 -121.41,50.39,0 -121.37,50.34,0 -121.34,50.28,0 -121.32,50.21,0 -121.32,50.15,0 -121.33,50.09,0 -121.36,50.03,0 -121.40,49.97,0 -121.45,49.93,0 -121.54,49.90,0 -121.64,49.88,0 -121.73,49.85,0 -121.80,49.81,0 -121.86,49.76,0 -121.91,49.71,0 -121.95,49.67,0 -121.99,49.63,0 -122.05,49.59,0 -122.11,49.55,0 -122.18,49.51,0 -122.26,49.48,0 -122.34,49.45,0 -122.43,49.43,0 -122.53,49.43,0 -122.63,49.43,0 -122.72,49.43,0 -122.82,49.44,0 -122.91,49.47,0 -123.01,49.50,0 -123.09,49.53,0 -123.18,49.56,0 -123.27,49.59,0 -123.36,49.62,0 -123.44,49.64,0 -123.54,49.65,0 -123.63,49.65,0 -123.72,49.65,0 -123.80,49.67,0 -123.87,49.71,0 -123.93,49.76,0 -123.98,49.82,0 -124.02,49.87,0 -124.05,49.93,0 -124.06,49.99,0 -124.09,50.04,0 -124.17,50.08,0 -124.28,50.12,0 -124.36,50.16,0 -124.40,50.22,0 -124.41,50.28,0 -124.45,50.32,0 -124.52,50.32,0 -124.61,50.30,0 -124.71,50.30,0 -124.79,50.33,0 -124.87,50.37,0 -124.95,50.43,0 -125.01,50.48,0 -125.05,50.54,0 -125.07,50.60,0 -125.08,50.66,0 -125.08,50.73,0 -124.92,50.89,0 
          </coordinates>
        </LinearRing>
      </outerBoundaryIs>
      <innerBoundaryIs>
        <LinearRing>
          <coordinates>
-124.88,50.79,1000 -124.81,50.83,1000 -124.74,50.87,1000 -124.67,50.90,1000 -124.60,50.92,1000 -124.52,50.93,1000 -124.42,50.95,1000 -124.33,50.96,1000 -124.23,50.98,1000 -124.13,50.99,1000 -124.02,51.01,1000 -123.91,51.02,1000 -123.81,51.03,1000 -123.70,51.05,1000 -123.60,51.07,1000 -123.50,51.08,1000 -123.41,51.08,1000 -123.31,51.08,1000 -123.23,51.07,1000 -123.15,51.05,1000 -123.06,51.00,1000 -123.01,50.96,1000 -122.97,50.90,1000 -122.92,50.83,1000 -122.87,50.76,1000 -122.82,50.69,1000 -122.77,50.63,1000 -122.73,50.57,1000 -122.69,50.54,1000 -122.61,50.53,1000 -122.54,50.57,1000 -122.46,50.61,1000 -122.38,50.62,1000 -122.28,50.63,1000 -122.19,50.64,1000 -122.10,50.63,1000 -122.02,50.61,1000 -121.95,50.58,1000 -121.89,50.54,1000 -121.82,50.50,1000 -121.75,50.45,1000 -121.68,50.40,1000 -121.62,50.34,1000 -121.57,50.29,1000 -121.53,50.23,1000 -121.50,50.18,1000 -121.51,50.12,1000 -121.54,50.07,1000 -121.59,50.02,1000 -121.65,49.96,1000 -121.71,49.92,1000 -121.78,49.89,1000 -121.85,49.87,1000 -121.93,49.84,1000 -122.01,49.81,1000 -122.07,49.77,1000 -122.12,49.73,1000 -122.18,49.68,1000 -122.23,49.64,1000 -122.29,49.60,1000 -122.37,49.57,1000 -122.45,49.55,1000 -122.53,49.53,1000 -122.61,49.52,1000 -122.69,49.52,1000 -122.76,49.52,1000 -122.89,49.55,1000 -122.96,49.57,1000 -123.05,49.59,1000 -123.15,49.62,1000 -123.26,49.65,1000 -123.37,49.68,1000 -123.47,49.71,1000 -123.56,49.74,1000 -123.63,49.76,1000 -123.73,49.79,1000 -123.80,49.82,1000 -123.85,49.84,1000 -123.91,49.88,1000 -123.96,49.93,1000 -124.01,49.98,1000 -124.05,50.04,1000 -124.09,50.10,1000 -124.14,50.15,1000 -124.20,50.20,1000 -124.25,50.25,1000 -124.31,50.29,1000 -124.38,50.32,1000 -124.47,50.35,1000 -124.57,50.37,1000 -124.67,50.38,1000 -124.75,50.41,1000 -124.82,50.44,1000 -124.87,50.48,1000 -124.92,50.53,1000 -124.96,50.57,1000 -124.88,50.79,1000 
          </coordinates>
        </LinearRing>
      </innerBoundaryIs>
  </Polygon>
 </MultiGeometry>
</Placemark>
<Placemark>
  <name>1%</name>
  <visibility>1</visibility>
  <styleUrl>#poly_1</styleUrl>
  <MultiGeometry>
    <Polygon>
      <outerBoundaryIs>
        <LinearRing>
          <coordinates>
-120.74,49.28,0 -120.70,49.29,0 -120.66,49.29,0 -120.62,49.30,0 -120.58,49.31,0 -120.54,49.31,0 -120.50,49.32,0 -120.46,49.33,0 -120.42,49.33,0 -120.38,49.34,0 -120.33,49.34,0 -120.29,49.35,0 -120.25,49.35,0 -120.21,49.35,0 -120.16,49.36,0 -120.12,49.36,0 -120.08,49.36,0 -120.03,49.36,0 -119.99,49.36,0 -119.95,49.35,0 -119.90,49.34,0 -119.86,49.33,0 -119.82,49.32,0 -119.77,49.31,0 -119.74,49.30,0 -119.71,49.29,0 -119.67,49.28,0 -119.65,49.26,0 -119.63,49.24,0 -119.60,49.22,0 -119.57,49.19,0 -119.55,49.17,0 -119.52,49.14,0 -119.51,49.11,0 -119.51,49.08,0 -119.51,49.05,0 -119.52,49.02,0 -119.54,48.99,0 -119.55,48.96,0 -119.56,48.94,0 -119.57,48.92,0 -119.60,48.90,0 -119.62,48.88,0 -119.64,48.86,0 -119.67,48.83,0 -119.70,48.81,0 -119.73,48.78,0 -119.75,48.76,0 -119.77,48.74,0 -119.79,48.72,0 -119.81,48.71,0 -119.83,48.69,0 -119.87,48.67,0 -119.90,48.65,0 -119.94,48.62,0 -119.98,48.60,0 -120.02,48.58,0 -120.06,48.57,0 -120.10,48.56,0 -120.14,48.55,0 -120.19,48.54,0 -120.23,48.54,0 -120.27,48.53,0 -120.31,48.52,0 -120.35,48.52,0 -120.39,48.52,0 -120.44,48.51,0 -120.48,48.51,0 -120.52,48.51,0 -120.56,48.51,0 -120.61,48.51,0 -120.66,48.51,0 -120.70,48.51,0 -120.74,48.51,0 -120.78,48.52,0 -120.82,48.53,0 -120.85,48.54,0 -120.89,48.56,0 -120.91,48.58,0 -120.94,48.60,0 -120.96,48.62,0 -120.98,48.64,0 -121.00,48.67,0 -121.01,48.70,0 -121.03,48.72,0 -121.04,48.75,0 -121.05,48.78,0 -121.06,48.81,0 -121.06,48.83,0 -121.07,48.86,0 -121.07,48.89,0 -121.06,48.92,0 -121.05,48.95,0 -121.03,48.98,0 -121.00,49.01,0 -120.98,49.04,0 -120.96,49.06,0 -120.94,49.08,0 -120.93,49.10,0 -120.74,49.28,0 
          </coordinates>
        </LinearRing>
      </outerBoundaryIs>
      <innerBoundaryIs>
        <LinearRing>
          <coordinates>
-120.48,49.26,1000 -120.45,49.27,1000 -120.41,49.27,1000 -120.37,49.28,1000 -120.34,49.28,1000 -120.30,49.29,1000 -120.27,49.29,1000 -120.23,49.29,1000 -120.20,49.29,1000 -120.16,49.29,1000 -120.12,49.28,1000 -120.08,49.28,1000 -120.05,49.27,1000 -120.01,49.27,1000 -119.98,49.26,1000 -119.96,49.26,1000 -119.92,49.25,1000 -119.91,49.25,1000 -119.88,49.23,1000 -119.86,49.22,1000 -119.84,49.20,1000 -119.81,49.19,1000 -119.79,49.17,1000 -119.76,49.15,1000 -119.74,49.13,1000 -119.72,49.11,1000 -119.71,49.09,1000 -119.70,49.07,1000 -119.70,49.05,1000 -119.70,49.02,1000 -119.70,49.00,1000 -119.71,48.97,1000 -119.71,48.95,1000 -119.72,48.93,1000 -119.73,48.91,1000 -119.74,48.89,1000 -119.76,48.87,1000 -119.78,48.85,1000 -119.81,48.84,1000 -119.84,48.82,1000 -119.86,48.81,1000 -119.89,48.79,1000 -119.91,48.78,1000 -119.94,48.77,1000 -119.97,48.75,1000 -120.00,48.74,1000 -120.03,48.72,1000 -120.06,48.71,1000 -120.09,48.70,1000 -120.12,48.68,1000 -120.14,48.67,1000 -120.17,48.66,1000 -120.20,48.65,1000 -120.23,48.64,1000 -120.26,48.63,1000 -120.29,48.62,1000 -120.33,48.62,1000 -120.37,48.61,1000 -120.41,48.61,1000 -120.45,48.61,1000 -120.49,48.62,1000 -120.52,48.62,1000 -120.55,48.62,1000 -120.58,48.62,1000 -120.61,48.64,1000 -120.63,48.65,1000 -120.65,48.66,1000 -120.68,48.68,1000 -120.71,48.69,1000 -120.74,48.71,1000 -120.77,48.73,1000 -120.79,48.74,1000 -120.81,48.76,1000 -120.83,48.78,1000 -120.84,48.80,1000 -120.85,48.83,1000 -120.86,48.85,1000 -120.86,48.88,1000 -120.85,48.90,1000 -120.85,48.93,1000 -120.84,48.95,1000 -120.83,48.97,1000 -120.81,49.00,1000 -120.79,49.02,1000 -120.77,49.04,1000 -120.74,49.07,1000 -120.72,49.09,1000 -120.70,49.11,1000 -120.69,49.12,1000 -120.67,49.14,1000 -120.48,49.26,1000 
          </coordinates>
        </LinearRing>
      </innerBoundaryIs>
  </Polygon>
 </MultiGeometry>
</Placemark>
<Placemark>
  <name>1%</name>
  <visibility>1</visibility>
  <styleUrl>#poly_1</styleUrl>
  <MultiGeometry>
    <Polygon>
      <outerBoundaryIs>
        <LinearRing>
          <coordinates>
-117.45,45.44,0 -117.45,45.45,0 -117.42,45.43,0 -117.41,45.43,0 -117.40,45.42,0 -117.38,45.41,0 -117.37,45.41,0 -117.35,45.40,0 -117.34,45.39,0 -117.32,45.38,0 -117.30,45.37,0 -117.28,45.36,0 -117.26,45.35,0 -117.25,45.34,0 -117.23,45.34,0 -117.21,45.33,0 -117.20,45.32,0 -117.19,45.31,0 -117.18,45.31,0 -117.15,45.29,0 -117.16,45.29,0 -117.15,45.29,0 -117.17,45.27,0 -117.18,45.26,0 -117.18,45.25,0 -117.19,45.25,0 -117.20,45.23,0 -117.22,45.22,0 -117.23,45.21,0 -117.24,45.20,0 -117.25,45.19,0 -117.27,45.17,0 -117.28,45.16,0 -117.29,45.15,0 -117.30,45.14,0 -117.31,45.12,0 -117.32,45.12,0 -117.33,45.11,0 -117.34,45.10,0 -117.36,45.08,0 -117.37,45.08,0 -117.37,45.08,0 -117.37,45.08,0 -117.40,45.09,0 -117.41,45.09,0 -117.42,45.10,0 -117.44,45.11,0 -117.45,45.11,0 -117.47,45.12,0 -117.49,45.13,0 -117.51,45.14,0 -117.53,45.15,0 -117.55,45.16,0 -117.56,45.17,0 -117.58,45.18,0 -117.60,45.18,0 -117.61,45.19,0 -117.63,45.20,0 -117.64,45.21,0 -117.65,45.21,0 -117.67,45.23,0 -117.66,45.23,0 -117.67,45.23,0 -117.66,45.25,0 -117.65,45.26,0 -117.65,45.26,0 -117.64,45.27,0 -117.63,45.28,0 -117.62,45.29,0 -117.61,45.30,0 -117.60,45.31,0 -117.59,45.32,0 -117.58,45.33,0 -117.57,45.34,0 -117.56,45.35,0 -117.55,45.37,0 -117.53,45.38,0 -117.52,45.39,0 -117.51,45.40,0 -117.49,45.42,0 -117.48,45.43,0 -117.45,45.44,0 
          </coordinates>
        </LinearRing>
      </outerBoundaryIs>
  </Polygon>
 </MultiGeometry>
</Placemark>
<Placemark>
  <name>1%</name>
  <visibility>1</visibility>
  <styleUrl>#poly_1</styleUrl>
  <MultiGeometry>
    <Polygon>
      <outerBoundaryIs>
        <LinearRing>
          <coordinates>
-122.10,44.43,0 -121.99,44.45,0 -121.89,44.47,0 -121.79,44.48,0 -121.70,44.49,0 -121.63,44.49,0 -121.54,44.47,0 -121.49,44.44,0 -121.44,44.40,0 -121.40,44.35,0 -121.37,44.29,0 -121.35,44.23,0 -121.33,44.17,0 -121.32,44.12,0 -121.32,44.06,0 -121.35,44.00,0 -121.40,43.93,0 -121.46,43.87,0 -121.53,43.83,0 -121.61,43.79,0 -121.68,43.76,0 -121.73,43.72,0 -121.78,43.68,0 -121.80,43.64,0 -121.78,43.59,0 -121.74,43.53,0 -121.72,43.47,0 -121.72,43.41,0 -121.74,43.35,0 -121.76,43.29,0 -121.77,43.22,0 -121.77,43.15,0 -121.77,43.08,0 -121.76,43.01,0 -121.77,42.94,0 -121.79,42.87,0 -121.81,42.81,0 -121.84,42.75,0 -121.87,42.70,0 -121.93,42.65,0 -122.00,42.62,0 -122.07,42.59,0 -122.15,42.57,0 -122.23,42.55,0 -122.31,42.57,0 -122.36,42.60,0 -122.42,42.65,0 -122.47,42.71,0 -122.52,42.77,0 -122.55,42.82,0 -122.58,42.88,0 -122.59,42.94,0 -122.58,42.99,0 -122.55,43.04,0 -122.52,43.09,0 -122.48,43.15,0 -122.46,43.20,0 -122.45,43.25,0 -122.43,43.31,0 -122.42,43.37,0 -122.41,43.44,0 -122.40,43.52,0 -122.39,43.59,0 -122.37,43.65,0 -122.30,43.69,0 -122.22,43.72,0 -122.16,43.77,0 -122.16,43.83,0 -122.17,43.90,0 -122.19,43.98,0 -122.22,44.05,0 -122.23,44.11,0 -122.24,44.18,0 -122.24,44.24,0 -122.24,44.28,0 -122.10,44.43,0 
          </coordinates>
        </LinearRing>
      </outerBoundaryIs>
      <innerBoundaryIs>
        <LinearRing>
          <coordinates>
-122.21,43.06,1000 -122.21,43.07,1000 -122.20,43.07,1000 -122.18,43.05,1000 -122.18,43.05,1000 -122.17,43.04,1000 -122.16,43.03,1000 -122.16,43.03,1000 -122.15,43.02,1000 -122.14,43.01,1000 -122.14,43.01,1000 -122.13,43.00,1000 -122.12,42.99,1000 -122.11,42.98,1000 -122.11,42.97,1000 -122.10,42.96,1000 -122.09,42.95,1000 -122.08,42.94,1000 -122.08,42.94,1000 -122.07,42.93,1000 -122.07,42.92,1000 -122.06,42.91,1000 -122.06,42.91,1000 -122.06,42.90,1000 -122.06,42.89,1000 -122.06,42.88,1000 -122.07,42.87,1000 -122.07,42.86,1000 -122.08,42.86,1000 -122.09,42.85,1000 -122.09,42.84,1000 -122.10,42.83,1000 -122.11,42.83,1000 -122.12,42.82,1000 -122.13,42.82,1000 -122.14,42.82,1000 -122.15,42.82,1000 -122.16,42.82,1000 -122.17,42.82,1000 -122.18,42.82,1000 -122.20,42.83,1000 -122.21,42.83,1000 -122.22,42.84,1000 -122.23,42.84,1000 -122.24,42.85,1000 -122.25,42.86,1000 -122.25,42.87,1000 -122.25,42.88,1000 -122.25,42.88,1000 -122.25,42.89,1000 -122.25,42.90,1000 -122.25,42.90,1000 -122.25,42.91,1000 -122.25,42.92,1000 -122.25,42.93,1000 -122.25,42.93,1000 -122.25,42.94,1000 -122.25,42.95,1000 -122.25,42.96,1000 -122.24,42.97,1000 -122.24,42.98,1000 -122.24,42.99,1000 -122.24,43.00,1000 -122.23,43.01,1000 -122.23,43.02,1000 -122.23,43.03,1000 -122.22,43.04,1000 -122.22,43.05,1000 -122.21,43.06,1000 
          </coordinates>
        </LinearRing>
      </innerBoundaryIs>
      <innerBoundaryIs>
        <LinearRing>
          <coordinates>
-121.85,44.39,1000 -121.83,44.39,1000 -121.81,44.38,1000 -121.78,44.38,1000 -121.76,44.37,1000 -121.74,44.37,1000 -121.72,44.37,1000 -121.70,44.36,1000 -121.68,44.35,1000 -121.66,44.35,1000 -121.64,44.34,1000 -121.62,44.33,1000 -121.60,44.32,1000 -121.58,44.31,1000 -121.56,44.30,1000 -121.54,44.29,1000 -121.52,44.27,1000 -121.51,44.26,1000 -121.49,44.25,1000 -121.48,44.23,1000 -121.47,44.21,1000 -121.47,44.19,1000 -121.47,44.18,1000 -121.47,44.16,1000 -121.47,44.14,1000 -121.48,44.11,1000 -121.48,44.09,1000 -121.49,44.07,1000 -121.49,44.06,1000 -121.50,44.04,1000 -121.50,44.03,1000 -121.51,44.03,1000 -121.52,44.02,1000 -121.53,44.01,1000 -121.55,44.00,1000 -121.57,43.98,1000 -121.58,43.97,1000 -121.60,43.95,1000 -121.62,43.94,1000 -121.65,43.93,1000 -121.67,43.91,1000 -121.69,43.91,1000 -121.71,43.90,1000 -121.73,43.90,1000 -121.76,43.90,1000 -121.78,43.90,1000 -121.81,43.91,1000 -121.84,43.92,1000 -121.87,43.93,1000 -121.89,43.93,1000 -121.92,43.94,1000 -121.94,43.95,1000 -121.96,43.96,1000 -121.97,43.96,1000 -121.98,43.97,1000 -121.99,43.98,1000 -122.00,43.99,1000 -122.01,44.01,1000 -122.03,44.02,1000 -122.04,44.04,1000 -122.06,44.06,1000 -122.07,44.07,1000 -122.09,44.09,1000 -122.09,44.11,1000 -122.10,44.12,1000 -122.10,44.14,1000 -122.10,44.16,1000 -122.09,44.18,1000 -122.08,44.19,1000 -122.07,44.21,1000 -122.06,44.23,1000 -122.05,44.24,1000 -122.04,44.26,1000 -122.03,44.27,1000 -122.01,44.28,1000 -122.00,44.30,1000 -121.98,44.31,1000 -121.97,44.32,1000 -121.85,44.39,1000 
          </coordinates>
        </LinearRing>
      </innerBoundaryIs>
  </Polygon>
 </MultiGeometry>
</Placemark>
<Placemark>
  <name>1%</name>
  <visibility>1</visibility>
  <styleUrl>#poly_1</styleUrl>
  <MultiGeometry>
    <Polygon>
      <outerBoundaryIs>
        <LinearRing>
          <coordinates>
-118.61,45.14,0 -118.59,45.15,0 -118.56,45.17,0 -118.54,45.18,0 -118.51,45.19,0 -118.49,45.20,0 -118.47,45.21,0 -118.44,45.22,0 -118.42,45.23,0 -118.39,45.23,0 -118.37,45.23,0 -118.34,45.23,0 -118.31,45.22,0 -118.28,45.22,0 -118.25,45.21,0 -118.22,45.20,0 -118.20,45.20,0 -118.18,45.19,0 -118.16,45.18,0 -118.14,45.18,0 -118.13,45.17,0 -118.12,45.16,0 -118.10,45.15,0 -118.09,45.14,0 -118.07,45.12,0 -118.05,45.11,0 -118.03,45.09,0 -118.01,45.07,0 -117.99,45.05,0 -117.98,45.04,0 -117.97,45.02,0 -117.97,45.00,0 -117.97,44.98,0 -117.97,44.96,0 -117.98,44.94,0 -117.99,44.92,0 -118.00,44.90,0 -118.01,44.88,0 -118.02,44.87,0 -118.03,44.85,0 -118.03,44.84,0 -118.04,44.83,0 -118.05,44.82,0 -118.07,44.81,0 -118.08,44.80,0 -118.10,44.79,0 -118.12,44.77,0 -118.15,44.76,0 -118.17,44.74,0 -118.19,44.73,0 -118.22,44.72,0 -118.24,44.71,0 -118.26,44.70,0 -118.29,44.69,0 -118.31,44.69,0 -118.34,44.68,0 -118.37,44.68,0 -118.40,44.68,0 -118.43,44.68,0 -118.45,44.68,0 -118.48,44.69,0 -118.50,44.69,0 -118.53,44.69,0 -118.55,44.70,0 -118.57,44.71,0 -118.59,44.72,0 -118.61,44.73,0 -118.63,44.74,0 -118.65,44.76,0 -118.66,44.77,0 -118.68,44.79,0 -118.69,44.81,0 -118.70,44.83,0 -118.72,44.85,0 -118.73,44.87,0 -118.73,44.89,0 -118.74,44.91,0 -118.74,44.93,0 -118.74,44.95,0 -118.73,44.97,0 -118.73,44.98,0 -118.72,45.00,0 -118.71,45.02,0 -118.70,45.04,0 -118.69,45.06,0 -118.68,45.07,0 -118.66,45.09,0 -118.65,45.11,0 -118.61,45.14,0 
          </coordinates>
        </LinearRing>
      </outerBoundaryIs>
  </Polygon>
 </MultiGeometry>
</Placemark>
<Placemark>
  <name>1%</name>
  <visibility>1</visibility>
  <styleUrl>#poly_1</styleUrl>
  <MultiGeometry>
    <Polygon>
      <outerBoundaryIs>
        <LinearRing>
          <coordinates>
-120.93,42.79,0 -120.90,42.78,0 -120.88,42.78,0 -120.85,42.77,0 -120.83,42.77,0 -120.80,42.76,0 -120.78,42.76,0 -120.76,42.75,0 -120.74,42.75,0 -120.72,42.74,0 -120.71,42.74,0 -120.69,42.73,0 -120.68,42.72,0 -120.67,42.72,0 -120.66,42.70,0 -120.65,42.69,0 -120.64,42.68,0 -120.62,42.67,0 -120.61,42.65,0 -120.60,42.64,0 -120.58,42.62,0 -120.57,42.61,0 -120.56,42.59,0 -120.56,42.58,0 -120.56,42.56,0 -120.56,42.55,0 -120.57,42.53,0 -120.58,42.51,0 -120.59,42.50,0 -120.60,42.48,0 -120.61,42.47,0 -120.62,42.46,0 -120.63,42.44,0 -120.64,42.43,0 -120.66,42.42,0 -120.67,42.41,0 -120.69,42.40,0 -120.70,42.39,0 -120.72,42.38,0 -120.73,42.37,0 -120.75,42.35,0 -120.77,42.34,0 -120.79,42.34,0 -120.81,42.33,0 -120.83,42.33,0 -120.85,42.33,0 -120.87,42.33,0 -120.89,42.34,0 -120.91,42.34,0 -120.93,42.35,0 -120.95,42.36,0 -120.97,42.36,0 -120.99,42.37,0 -121.01,42.38,0 -121.03,42.39,0 -121.05,42.40,0 -121.07,42.41,0 -121.09,42.42,0 -121.10,42.43,0 -121.12,42.44,0 -121.13,42.46,0 -121.14,42.47,0 -121.15,42.48,0 -121.16,42.50,0 -121.16,42.51,0 -121.16,42.53,0 -121.16,42.55,0 -121.15,42.56,0 -121.15,42.58,0 -121.14,42.60,0 -121.14,42.61,0 -121.13,42.63,0 -121.13,42.64,0 -121.12,42.66,0 -121.11,42.67,0 -121.10,42.68,0 -120.93,42.79,0 
          </coordinates>
        </LinearRing>
      </outerBoundaryIs>
  </Polygon>
 </MultiGeometry>
</Placemark>
<Placemark>
  <name>1%</name>
  <visibility>1</visibility>
  <styleUrl>#poly_1</styleUrl>
  <MultiGeometry>
    <Polygon>
      <outerBoundaryIs>
        <LinearRing>
          <coordinates>
-121.96,49.03,0 -121.93,49.03,0 -121.91,49.02,0 -121.88,49.02,0 -121.85,49.02,0 -121.83,49.01,0 -121.81,49.01,0 -121.79,49.01,0 -121.77,49.00,0 -121.75,49.00,0 -121.72,48.99,0 -121.71,48.98,0 -121.70,48.97,0 -121.68,48.96,0 -121.67,48.95,0 -121.65,48.94,0 -121.63,48.93,0 -121.61,48.92,0 -121.59,48.90,0 -121.57,48.89,0 -121.56,48.87,0 -121.55,48.86,0 -121.55,48.85,0 -121.55,48.83,0 -121.55,48.81,0 -121.56,48.80,0 -121.57,48.78,0 -121.58,48.76,0 -121.59,48.75,0 -121.59,48.73,0 -121.60,48.72,0 -121.61,48.70,0 -121.62,48.69,0 -121.63,48.68,0 -121.65,48.67,0 -121.66,48.66,0 -121.68,48.65,0 -121.70,48.64,0 -121.72,48.63,0 -121.74,48.62,0 -121.76,48.61,0 -121.78,48.60,0 -121.80,48.59,0 -121.82,48.59,0 -121.84,48.59,0 -121.86,48.59,0 -121.89,48.59,0 -121.91,48.60,0 -121.94,48.60,0 -121.96,48.61,0 -121.98,48.61,0 -122.00,48.62,0 -122.02,48.62,0 -122.04,48.63,0 -122.06,48.63,0 -122.07,48.64,0 -122.08,48.65,0 -122.10,48.66,0 -122.11,48.67,0 -122.13,48.68,0 -122.15,48.69,0 -122.16,48.70,0 -122.18,48.72,0 -122.20,48.73,0 -122.21,48.74,0 -122.22,48.76,0 -122.23,48.77,0 -122.23,48.78,0 -122.23,48.80,0 -122.22,48.81,0 -122.22,48.83,0 -122.21,48.85,0 -122.20,48.86,0 -122.19,48.88,0 -122.18,48.89,0 -122.17,48.90,0 -122.16,48.92,0 -122.14,48.93,0 -122.13,48.94,0 -122.12,48.95,0 -121.96,49.03,0 
          </coordinates>
        </LinearRing>
      </outerBoundaryIs>
  </Polygon>
 </MultiGeometry>
</Placemark>
<Placemark>
  <name>5%</name>
  <visibility>1</visibility>
  <styleUrl>#poly_5</styleUrl>
  <MultiGeometry>
    <Polygon>
      <outerBoundaryIs>
        <LinearRing>
          <coordinates>
-124.88,50.79,1000 -124.81,50.83,1000 -124.74,50.87,1000 -124.67,50.90,1000 -124.60,50.92,1000 -124.52,50.93,1000 -124.42,50.95,1000 -124.33,50.96,1000 -124.23,50.98,1000 -124.13,50.99,1000 -124.02,51.01,1000 -123.91,51.02,1000 -123.81,51.03,1000 -123.70,51.05,1000 -123.60,51.07,1000 -123.50,51.08,1000 -123.41,51.08,1000 -123.31,51.08,1000 -123.23,51.07,1000 -123.15,51.05,1000 -123.06,51.00,1000 -123.01,50.96,1000 -122.97,50.90,1000 -122.92,50.83,1000 -122.87,50.76,1000 -122.82,50.69,1000 -122.77,50.63,1000 -122.73,50.57,1000 -122.69,50.54,1000 -122.61,50.53,1000 -122.54,50.57,1000 -122.46,50.61,1000 -122.38,50.62,1000 -122.28,50.63,1000 -122.19,50.64,1000 -122.10,50.63,1000 -122.02,50.61,1000 -121.95,50.58,1000 -121.89,50.54,1000 -121.82,50.50,1000 -121.75,50.45,1000 -121.68,50.40,1000 -121.62,50.34,1000 -121.57,50.29,1000 -121.53,50.23,1000 -121.50,50.18,1000 -121.51,50.12,1000 -121.54,50.07,1000 -121.59,50.02,1000 -121.65,49.96,1000 -121.71,49.92,1000 -121.78,49.89,1000 -121.85,49.87,1000 -121.93,49.84,1000 -122.01,49.81,1000 -122.07,49.77,1000 -122.12,49.73,1000 -122.18,49.68,1000 -122.23,49.64,1000 -122.29,49.60,1000 -122.37,49.57,1000 -122.45,49.55,1000 -122.53,49.53,1000 -122.61,49.52,1000 -122.69,49.52,1000 -122.76,49.52,1000 -122.89,49.55,1000 -122.96,49.57,1000 -123.05,49.59,1000 -123.15,49.62,1000 -123.26,49.65,1000 -123.37,49.68,1000 -123.47,49.71,1000 -123.56,49.74,1000 -123.63,49.76,1000 -123.73,49.79,1000 -123.80,49.82,1000 -123.85,49.84,1000 -123.91,49.88,1000 -123.96,49.93,1000 -124.01,49.98,1000 -124.05,50.04,1000 -124.09,50.10,1000 -124.14,50.15,1000 -124.20,50.20,1000 -124.25,50.25,1000 -124.31,50.29,1000 -124.38,50.32,1000 -124.47,50.35,1000 -124.57,50.37,1000 -124.67,50.38,1000 -124.75,50.41,1000 -124.82,50.44,1000 -124.87,50.48,1000 -124.92,50.53,1000 -124.96,50.57,1000 -124.88,50.79,1000 
          </coordinates>
        </LinearRing>
      </outerBoundaryIs>
      <innerBoundaryIs>
        <LinearRing>
          <coordinates>
-124.65,50.87,2000 -124.55,50.89,2000 -124.44,50.91,2000 -124.34,50.92,2000 -124.24,50.94,2000 -124.15,50.95,2000 -124.06,50.97,2000 -123.97,50.98,2000 -123.90,50.99,2000 -123.78,51.01,2000 -123.68,51.02,2000 -123.60,51.03,2000 -123.52,51.03,2000 -123.43,51.03,2000 -123.34,51.02,2000 -123.25,51.00,2000 -123.18,50.99,2000 -123.11,50.97,2000 -123.07,50.95,2000 -123.02,50.91,2000 -122.98,50.86,2000 -122.95,50.81,2000 -122.91,50.75,2000 -122.88,50.69,2000 -122.86,50.64,2000 -122.84,50.58,2000 -122.81,50.54,2000 -122.77,50.51,2000 -122.70,50.51,2000 -122.62,50.52,2000 -122.52,50.54,2000 -122.43,50.55,2000 -122.34,50.55,2000 -122.24,50.55,2000 -122.15,50.54,2000 -122.07,50.53,2000 -121.99,50.51,2000 -121.93,50.48,2000 -121.87,50.44,2000 -121.81,50.40,2000 -121.75,50.36,2000 -121.69,50.32,2000 -121.65,50.28,2000 -121.61,50.22,2000 -121.60,50.16,2000 -121.61,50.12,2000 -121.63,50.07,2000 -121.70,50.01,2000 -121.75,49.98,2000 -121.81,49.95,2000 -121.88,49.92,2000 -121.96,49.88,2000 -122.03,49.85,2000 -122.11,49.81,2000 -122.18,49.78,2000 -122.26,49.74,2000 -122.34,49.70,2000 -122.42,49.66,2000 -122.50,49.63,2000 -122.57,49.60,2000 -122.64,49.58,2000 -122.74,49.57,2000 -122.84,49.59,2000 -122.92,49.61,2000 -123.00,49.63,2000 -123.07,49.65,2000 -123.12,49.68,2000 -123.21,49.72,2000 -123.28,49.74,2000 -123.36,49.76,2000 -123.45,49.78,2000 -123.54,49.80,2000 -123.63,49.83,2000 -123.72,49.86,2000 -123.79,49.89,2000 -123.86,49.93,2000 -123.91,49.98,2000 -123.96,50.04,2000 -124.00,50.09,2000 -124.05,50.14,2000 -124.10,50.19,2000 -124.16,50.23,2000 -124.22,50.27,2000 -124.29,50.30,2000 -124.35,50.33,2000 -124.42,50.37,2000 -124.48,50.40,2000 -124.56,50.44,2000 -124.63,50.48,2000 -124.71,50.52,2000 -124.79,50.55,2000 -124.87,50.59,2000 -124.65,50.87,2000 
          </coordinates>
        </LinearRing>
      </innerBoundaryIs>
  </Polygon>
 </MultiGeometry>
</Placemark>
<Placemark>
  <name>5%</name>
  <visibility>1</visibility>
  <styleUrl>#poly_5</styleUrl>
  <MultiGeometry>
    <Polygon>
      <outerBoundaryIs>
        <LinearRing>
          <coordinates>
-122.21,43.06,1000 -122.21,43.07,1000 -122.20,43.07,1000 -122.18,43.05,1000 -122.18,43.05,1000 -122.17,43.04,1000 -122.16,43.03,1000 -122.16,43.03,1000 -122.15,43.02,1000 -122.14,43.01,1000 -122.14,43.01,1000 -122.13,43.00,1000 -122.12,42.99,1000 -122.11,42.98,1000 -122.11,42.97,1000 -122.10,42.96,1000 -122.09,42.95,1000 -122.08,42.94,1000 -122.08,42.94,1000 -122.07,42.93,1000 -122.07,42.92,1000 -122.06,42.91,1000 -122.06,42.91,1000 -122.06,42.90,1000 -122.06,42.89,1000 -122.06,42.88,1000 -122.07,42.87,1000 -122.07,42.86,1000 -122.08,42.86,1000 -122.09,42.85,1000 -122.09,42.84,1000 -122.10,42.83,1000 -122.11,42.83,1000 -122.12,42.82,1000 -122.13,42.82,1000 -122.14,42.82,1000 -122.15,42.82,1000 -122.16,42.82,1000 -122.17,42.82,1000 -122.18,42.82,1000 -122.20,42.83,1000 -122.21,42.83,1000 -122.22,42.84,1000 -122.23,42.84,1000 -122.24,42.85,1000 -122.25,42.86,1000 -122.25,42.87,1000 -122.25,42.88,1000 -122.25,42.88,1000 -122.25,42.89,1000 -122.25,42.90,1000 -122.25,42.90,1000 -122.25,42.91,1000 -122.25,42.92,1000 -122.25,42.93,1000 -122.25,42.93,1000 -122.25,42.94,1000 -122.25,42.95,1000 -122.25,42.96,1000 -122.24,42.97,1000 -122.24,42.98,1000 -122.24,42.99,1000 -122.24,43.00,1000 -122.23,43.01,1000 -122.23,43.02,1000 -122.23,43.03,1000 -122.22,43.04,1000 -122.22,43.05,1000 -122.21,43.06,1000 
          </coordinates>
        </LinearRing>
      </outerBoundaryIs>
  </Polygon>
 </MultiGeometry>
</Placemark>
<Placemark>
  <name>5%</name>
  <visibility>1</visibility>
  <styleUrl>#poly_5</styleUrl>
  <MultiGeometry>
    <Polygon>
      <outerBoundaryIs>
        <LinearRing>
          <coordinates>
-121.85,44.39,1000 -121.83,44.39,1000 -121.81,44.38,1000 -121.78,44.38,1000 -121.76,44.37,1000 -121.74,44.37,1000 -121.72,44.37,1000 -121.70,44.36,1000 -121.68,44.35,1000 -121.66,44.35,1000 -121.64,44.34,1000 -121.62,44.33,1000 -121.60,44.32,1000 -121.58,44.31,1000 -121.56,44.30,1000 -121.54,44.29,1000 -121.52,44.27,1000 -121.51,44.26,1000 -121.49,44.25,1000 -121.48,44.23,1000 -121.47,44.21,1000 -121.47,44.19,1000 -121.47,44.18,1000 -121.47,44.16,1000 -121.47,44.14,1000 -121.48,44.11,1000 -121.48,44.09,1000 -121.49,44.07,1000 -121.49,44.06,1000 -121.50,44.04,1000 -121.50,44.03,1000 -121.51,44.03,1000 -121.52,44.02,1000 -121.53,44.01,1000 -121.55,44.00,1000 -121.57,43.98,1000 -121.58,43.97,1000 -121.60,43.95,1000 -121.62,43.94,1000 -121.65,43.93,1000 -121.67,43.91,1000 -121.69,43.91,1000 -121.71,43.90,1000 -121.73,43.90,1000 -121.76,43.90,1000 -121.78,43.90,1000 -121.81,43.91,1000 -121.84,43.92,1000 -121.87,43.93,1000 -121.89,43.93,1000 -121.92,43.94,1000 -121.94,43.95,1000 -121.96,43.96,1000 -121.97,43.96,1000 -121.98,43.97,1000 -121.99,43.98,1000 -122.00,43.99,1000 -122.01,44.01,1000 -122.03,44.02,1000 -122.04,44.04,1000 -122.06,44.06,1000 -122.07,44.07,1000 -122.09,44.09,1000 -122.09,44.11,1000 -122.10,44.12,1000 -122.10,44.14,1000 -122.10,44.16,1000 -122.09,44.18,1000 -122.08,44.19,1000 -122.07,44.21,1000 -122.06,44.23,1000 -122.05,44.24,1000 -122.04,44.26,1000 -122.03,44.27,1000 -122.01,44.28,1000 -122.00,44.30,1000 -121.98,44.31,1000 -121.97,44.32,1000 -121.85,44.39,1000 
          </coordinates>
        </LinearRing>
      </outerBoundaryIs>
      <innerBoundaryIs>
        <LinearRing>
          <coordinates>
-121.82,44.28,2000 -121.80,44.28,2000 -121.79,44.27,2000 -121.77,44.27,2000 -121.76,44.26,2000 -121.74,44.26,2000 -121.72,44.26,2000 -121.71,44.25,2000 -121.70,44.25,2000 -121.68,44.24,2000 -121.67,44.24,2000 -121.66,44.23,2000 -121.65,44.23,2000 -121.64,44.22,2000 -121.63,44.21,2000 -121.63,44.21,2000 -121.62,44.20,2000 -121.62,44.19,2000 -121.62,44.18,2000 -121.62,44.17,2000 -121.62,44.16,2000 -121.62,44.15,2000 -121.63,44.14,2000 -121.63,44.13,2000 -121.63,44.12,2000 -121.64,44.10,2000 -121.65,44.09,2000 -121.65,44.08,2000 -121.66,44.07,2000 -121.67,44.06,2000 -121.68,44.05,2000 -121.69,44.04,2000 -121.70,44.03,2000 -121.71,44.02,2000 -121.71,44.01,2000 -121.72,44.01,2000 -121.73,44.00,2000 -121.74,44.00,2000 -121.75,44.00,2000 -121.76,44.00,2000 -121.76,44.00,2000 -121.77,44.00,2000 -121.78,44.01,2000 -121.79,44.01,2000 -121.80,44.02,2000 -121.81,44.02,2000 -121.82,44.03,2000 -121.83,44.04,2000 -121.84,44.05,2000 -121.85,44.06,2000 -121.86,44.07,2000 -121.87,44.07,2000 -121.88,44.08,2000 -121.89,44.10,2000 -121.91,44.11,2000 -121.92,44.12,2000 -121.93,44.13,2000 -121.94,44.14,2000 -121.95,44.15,2000 -121.82,44.28,2000 
          </coordinates>
        </LinearRing>
      </innerBoundaryIs>
  </Polygon>
 </MultiGeometry>
</Placemark>
<Placemark>
  <name>5%</name>
  <visibility>1</visibility>
  <styleUrl>#poly_5</styleUrl>
  <MultiGeometry>
    <Polygon>
      <outerBoundaryIs>
        <LinearRing>
          <coordinates>
-120.48,49.26,1000 -120.45,49.27,1000 -120.41,49.27,1000 -120.37,49.28,1000 -120.34,49.28,1000 -120.30,49.29,1000 -120.27,49.29,1000 -120.23,49.29,1000 -120.20,49.29,1000 -120.16,49.29,1000 -120.12,49.28,1000 -120.08,49.28,1000 -120.05,49.27,1000 -120.01,49.27,1000 -119.98,49.26,1000 -119.96,49.26,1000 -119.92,49.25,1000 -119.91,49.25,1000 -119.88,49.23,1000 -119.86,49.22,1000 -119.84,49.20,1000 -119.81,49.19,1000 -119.79,49.17,1000 -119.76,49.15,1000 -119.74,49.13,1000 -119.72,49.11,1000 -119.71,49.09,1000 -119.70,49.07,1000 -119.70,49.05,1000 -119.70,49.02,1000 -119.70,49.00,1000 -119.71,48.97,1000 -119.71,48.95,1000 -119.72,48.93,1000 -119.73,48.91,1000 -119.74,48.89,1000 -119.76,48.87,1000 -119.78,48.85,1000 -119.81,48.84,1000 -119.84,48.82,1000 -119.86,48.81,1000 -119.89,48.79,1000 -119.91,48.78,1000 -119.94,48.77,1000 -119.97,48.75,1000 -120.00,48.74,1000 -120.03,48.72,1000 -120.06,48.71,1000 -120.09,48.70,1000 -120.12,48.68,1000 -120.14,48.67,1000 -120.17,48.66,1000 -120.20,48.65,1000 -120.23,48.64,1000 -120.26,48.63,1000 -120.29,48.62,1000 -120.33,48.62,1000 -120.37,48.61,1000 -120.41,48.61,1000 -120.45,48.61,1000 -120.49,48.62,1000 -120.52,48.62,1000 -120.55,48.62,1000 -120.58,48.62,1000 -120.61,48.64,1000 -120.63,48.65,1000 -120.65,48.66,1000 -120.68,48.68,1000 -120.71,48.69,1000 -120.74,48.71,1000 -120.77,48.73,1000 -120.79,48.74,1000 -120.81,48.76,1000 -120.83,48.78,1000 -120.84,48.80,1000 -120.85,48.83,1000 -120.86,48.85,1000 -120.86,48.88,1000 -120.85,48.90,1000 -120.85,48.93,1000 -120.84,48.95,1000 -120.83,48.97,1000 -120.81,49.00,1000 -120.79,49.02,1000 -120.77,49.04,1000 -120.74,49.07,1000 -120.72,49.09,1000 -120.70,49.11,1000 -120.69,49.12,1000 -120.67,49.14,1000 -120.48,49.26,1000 
          </coordinates>
        </LinearRing>
      </outerBoundaryIs>
      <innerBoundaryIs>
        <LinearRing>
          <coordinates>
-120.45,49.17,2000 -120.42,49.18,2000 -120.39,49.18,2000 -120.36,49.19,2000 -120.33,49.20,2000 -120.30,49.20,2000 -120.28,49.21,2000 -120.25,49.21,2000 -120.23,49.22,2000 -120.21,49.22,2000 -120.18,49.22,2000 -120.16,49.22,2000 -120.14,49.22,2000 -120.11,49.21,2000 -120.09,49.20,2000 -120.06,49.20,2000 -120.03,49.19,2000 -120.01,49.18,2000 -119.98,49.17,2000 -119.95,49.16,2000 -119.93,49.15,2000 -119.91,49.14,2000 -119.88,49.13,2000 -119.86,49.11,2000 -119.84,49.10,2000 -119.83,49.09,2000 -119.82,49.07,2000 -119.82,49.05,2000 -119.82,49.03,2000 -119.83,49.01,2000 -119.84,48.99,2000 -119.85,48.97,2000 -119.86,48.95,2000 -119.87,48.94,2000 -119.87,48.92,2000 -119.86,48.92,2000 -119.88,48.90,2000 -119.89,48.89,2000 -119.91,48.88,2000 -119.93,48.86,2000 -119.94,48.85,2000 -119.97,48.83,2000 -119.99,48.82,2000 -120.01,48.80,2000 -120.04,48.78,2000 -120.06,48.77,2000 -120.08,48.76,2000 -120.10,48.75,2000 -120.13,48.74,2000 -120.15,48.73,2000 -120.18,48.72,2000 -120.20,48.72,2000 -120.23,48.71,2000 -120.26,48.71,2000 -120.28,48.70,2000 -120.31,48.70,2000 -120.34,48.70,2000 -120.36,48.70,2000 -120.39,48.70,2000 -120.42,48.70,2000 -120.45,48.70,2000 -120.48,48.70,2000 -120.51,48.71,2000 -120.53,48.71,2000 -120.56,48.72,2000 -120.58,48.72,2000 -120.61,48.73,2000 -120.64,48.74,2000 -120.66,48.75,2000 -120.68,48.76,2000 -120.70,48.77,2000 -120.71,48.79,2000 -120.72,48.81,2000 -120.72,48.82,2000 -120.72,48.84,2000 -120.73,48.86,2000 -120.73,48.89,2000 -120.73,48.91,2000 -120.72,48.93,2000 -120.72,48.95,2000 -120.72,48.96,2000 -120.72,48.98,2000 -120.71,48.99,2000 -120.69,49.00,2000 -120.67,49.02,2000 -120.66,49.03,2000 -120.64,49.04,2000 -120.62,49.05,2000 -120.60,49.07,2000 -120.58,49.08,2000 -120.56,49.10,2000 -120.54,49.11,2000 -120.52,49.13,2000 -120.49,49.14,2000 -120.47,49.16,2000 -120.45,49.17,2000 
          </coordinates>
        </LinearRing>
      </innerBoundaryIs>
  </Polygon>
 </MultiGeometry>
</Placemark>
<Placemark>
  <name>10%</name>
  <visibility>1</visibility>
  <styleUrl>#poly_10</styleUrl>
  <MultiGeometry>
    <Polygon>
      <outerBoundaryIs>
        <LinearRing>
          <coordinates>
-124.65,50.87,2000 -124.55,50.89,2000 -124.44,50.91,2000 -124.34,50.92,2000 -124.24,50.94,2000 -124.15,50.95,2000 -124.06,50.97,2000 -123.97,50.98,2000 -123.90,50.99,2000 -123.78,51.01,2000 -123.68,51.02,2000 -123.60,51.03,2000 -123.52,51.03,2000 -123.43,51.03,2000 -123.34,51.02,2000 -123.25,51.00,2000 -123.18,50.99,2000 -123.11,50.97,2000 -123.07,50.95,2000 -123.02,50.91,2000 -122.98,50.86,2000 -122.95,50.81,2000 -122.91,50.75,2000 -122.88,50.69,2000 -122.86,50.64,2000 -122.84,50.58,2000 -122.81,50.54,2000 -122.77,50.51,2000 -122.70,50.51,2000 -122.62,50.52,2000 -122.52,50.54,2000 -122.43,50.55,2000 -122.34,50.55,2000 -122.24,50.55,2000 -122.15,50.54,2000 -122.07,50.53,2000 -121.99,50.51,2000 -121.93,50.48,2000 -121.87,50.44,2000 -121.81,50.40,2000 -121.75,50.36,2000 -121.69,50.32,2000 -121.65,50.28,2000 -121.61,50.22,2000 -121.60,50.16,2000 -121.61,50.12,2000 -121.63,50.07,2000 -121.70,50.01,2000 -121.75,49.98,2000 -121.81,49.95,2000 -121.88,49.92,2000 -121.96,49.88,2000 -122.03,49.85,2000 -122.11,49.81,2000 -122.18,49.78,2000 -122.26,49.74,2000 -122.34,49.70,2000 -122.42,49.66,2000 -122.50,49.63,2000 -122.57,49.60,2000 -122.64,49.58,2000 -122.74,49.57,2000 -122.84,49.59,2000 -122.92,49.61,2000 -123.00,49.63,2000 -123.07,49.65,2000 -123.12,49.68,2000 -123.21,49.72,2000 -123.28,49.74,2000 -123.36,49.76,2000 -123.45,49.78,2000 -123.54,49.80,2000 -123.63,49.83,2000 -123.72,49.86,2000 -123.79,49.89,2000 -123.86,49.93,2000 -123.91,49.98,2000 -123.96,50.04,2000 -124.00,50.09,2000 -124.05,50.14,2000 -124.10,50.19,2000 -124.16,50.23,2000 -124.22,50.27,2000 -124.29,50.30,2000 -124.35,50.33,2000 -124.42,50.37,2000 -124.48,50.40,2000 -124.56,50.44,2000 -124.63,50.48,2000 -124.71,50.52,2000 -124.79,50.55,2000 -124.87,50.59,2000 -124.65,50.87,2000 
          </coordinates>
        </LinearRing>
      </outerBoundaryIs>
      <innerBoundaryIs>
        <LinearRing>
          <coordinates>
-124.38,50.86,3000 -124.28,50.87,3000 -124.18,50.89,3000 -124.09,50.90,3000 -124.00,50.91,3000 -123.91,50.93,3000 -123.82,50.94,3000 -123.75,50.95,3000 -123.68,50.95,3000 -123.62,50.96,3000 -123.51,50.97,3000 -123.45,50.97,3000 -123.39,50.96,3000 -123.33,50.95,3000 -123.26,50.93,3000 -123.18,50.91,3000 -123.12,50.88,3000 -123.06,50.84,3000 -123.03,50.80,3000 -123.01,50.74,3000 -122.99,50.68,3000 -122.98,50.61,3000 -122.96,50.55,3000 -122.94,50.49,3000 -122.92,50.45,3000 -122.85,50.40,3000 -122.76,50.38,3000 -122.68,50.37,3000 -122.62,50.37,3000 -122.56,50.39,3000 -122.48,50.41,3000 -122.41,50.43,3000 -122.32,50.45,3000 -122.23,50.46,3000 -122.14,50.45,3000 -122.08,50.43,3000 -122.01,50.39,3000 -121.93,50.35,3000 -121.86,50.31,3000 -121.80,50.26,3000 -121.75,50.22,3000 -121.73,50.18,3000 -121.73,50.13,3000 -121.77,50.09,3000 -121.83,50.05,3000 -121.91,50.00,3000 -121.98,49.96,3000 -122.03,49.93,3000 -122.10,49.89,3000 -122.16,49.85,3000 -122.23,49.82,3000 -122.30,49.78,3000 -122.37,49.75,3000 -122.43,49.73,3000 -122.51,49.71,3000 -122.59,49.69,3000 -122.66,49.68,3000 -122.72,49.67,3000 -122.78,49.67,3000 -122.86,49.67,3000 -122.94,49.69,3000 -122.99,49.71,3000 -123.05,49.74,3000 -123.11,49.77,3000 -123.17,49.81,3000 -123.23,49.83,3000 -123.30,49.85,3000 -123.38,49.85,3000 -123.45,49.86,3000 -123.53,49.89,3000 -123.58,49.92,3000 -123.64,49.96,3000 -123.70,50.01,3000 -123.76,50.06,3000 -123.81,50.11,3000 -123.87,50.15,3000 -123.92,50.19,3000 -123.98,50.22,3000 -124.03,50.26,3000 -124.08,50.29,3000 -124.14,50.32,3000 -124.21,50.36,3000 -124.27,50.39,3000 -124.34,50.42,3000 -124.42,50.45,3000 -124.50,50.49,3000 -124.58,50.52,3000 -124.65,50.55,3000 -124.70,50.58,3000 -124.74,50.61,3000 -124.76,50.66,3000 -124.73,50.71,3000 -124.67,50.75,3000 -124.60,50.79,3000 -124.38,50.86,3000 
          </coordinates>
        </LinearRing>
      </innerBoundaryIs>
  </Polygon>
 </MultiGeometry>
</Placemark>
<Placemark>
  <name>10%</name>
  <visibility>1</visibility>
  <styleUrl>#poly_10</styleUrl>
  <MultiGeometry>
    <Polygon>
      <outerBoundaryIs>
        <LinearRing>
          <coordinates>
-120.45,49.17,2000 -120.42,49.18,2000 -120.39,49.18,2000 -120.36,49.19,2000 -120.33,49.20,2000 -120.30,49.20,2000 -120.28,49.21,2000 -120.25,49.21,2000 -120.23,49.22,2000 -120.21,49.22,2000 -120.18,49.22,2000 -120.16,49.22,2000 -120.14,49.22,2000 -120.11,49.21,2000 -120.09,49.20,2000 -120.06,49.20,2000 -120.03,49.19,2000 -120.01,49.18,2000 -119.98,49.17,2000 -119.95,49.16,2000 -119.93,49.15,2000 -119.91,49.14,2000 -119.88,49.13,2000 -119.86,49.11,2000 -119.84,49.10,2000 -119.83,49.09,2000 -119.82,49.07,2000 -119.82,49.05,2000 -119.82,49.03,2000 -119.83,49.01,2000 -119.84,48.99,2000 -119.85,48.97,2000 -119.86,48.95,2000 -119.87,48.94,2000 -119.87,48.92,2000 -119.86,48.92,2000 -119.88,48.90,2000 -119.89,48.89,2000 -119.91,48.88,2000 -119.93,48.86,2000 -119.94,48.85,2000 -119.97,48.83,2000 -119.99,48.82,2000 -120.01,48.80,2000 -120.04,48.78,2000 -120.06,48.77,2000 -120.08,48.76,2000 -120.10,48.75,2000 -120.13,48.74,2000 -120.15,48.73,2000 -120.18,48.72,2000 -120.20,48.72,2000 -120.23,48.71,2000 -120.26,48.71,2000 -120.28,48.70,2000 -120.31,48.70,2000 -120.34,48.70,2000 -120.36,48.70,2000 -120.39,48.70,2000 -120.42,48.70,2000 -120.45,48.70,2000 -120.48,48.70,2000 -120.51,48.71,2000 -120.53,48.71,2000 -120.56,48.72,2000 -120.58,48.72,2000 -120.61,48.73,2000 -120.64,48.74,2000 -120.66,48.75,2000 -120.68,48.76,2000 -120.70,48.77,2000 -120.71,48.79,2000 -120.72,48.81,2000 -120.72,48.82,2000 -120.72,48.84,2000 -120.73,48.86,2000 -120.73,48.89,2000 -120.73,48.91,2000 -120.72,48.93,2000 -120.72,48.95,2000 -120.72,48.96,2000 -120.72,48.98,2000 -120.71,48.99,2000 -120.69,49.00,2000 -120.67,49.02,2000 -120.66,49.03,2000 -120.64,49.04,2000 -120.62,49.05,2000 -120.60,49.07,2000 -120.58,49.08,2000 -120.56,49.10,2000 -120.54,49.11,2000 -120.52,49.13,2000 -120.49,49.14,2000 -120.47,49.16,2000 -120.45,49.17,2000 
          </coordinates>
        </LinearRing>
      </outerBoundaryIs>
      <innerBoundaryIs>
        <LinearRing>
          <coordinates>
-120.42,49.07,3000 -120.40,49.07,3000 -120.38,49.08,3000 -120.37,49.08,3000 -120.35,49.09,3000 -120.33,49.09,3000 -120.31,49.10,3000 -120.29,49.10,3000 -120.28,49.10,3000 -120.26,49.11,3000 -120.24,49.11,3000 -120.23,49.11,3000 -120.21,49.11,3000 -120.19,49.11,3000 -120.18,49.11,3000 -120.16,49.11,3000 -120.14,49.11,3000 -120.12,49.10,3000 -120.10,49.10,3000 -120.08,49.10,3000 -120.07,49.09,3000 -120.05,49.08,3000 -120.04,49.08,3000 -120.03,49.07,3000 -120.02,49.06,3000 -120.01,49.05,3000 -120.01,49.04,3000 -120.01,49.03,3000 -120.01,49.02,3000 -120.01,49.01,3000 -120.02,49.00,3000 -120.02,48.98,3000 -120.03,48.97,3000 -120.03,48.96,3000 -120.04,48.94,3000 -120.05,48.93,3000 -120.05,48.92,3000 -120.06,48.91,3000 -120.07,48.89,3000 -120.07,48.89,3000 -120.08,48.88,3000 -120.08,48.87,3000 -120.08,48.86,3000 -120.10,48.86,3000 -120.11,48.86,3000 -120.12,48.85,3000 -120.14,48.85,3000 -120.15,48.84,3000 -120.17,48.84,3000 -120.19,48.83,3000 -120.20,48.83,3000 -120.22,48.82,3000 -120.24,48.81,3000 -120.26,48.81,3000 -120.28,48.80,3000 -120.30,48.80,3000 -120.31,48.79,3000 -120.33,48.79,3000 -120.34,48.79,3000 -120.36,48.79,3000 -120.38,48.79,3000 -120.40,48.79,3000 -120.42,48.79,3000 -120.43,48.79,3000 -120.45,48.80,3000 -120.46,48.81,3000 -120.47,48.82,3000 -120.48,48.83,3000 -120.48,48.84,3000 -120.49,48.84,3000 -120.49,48.85,3000 -120.49,48.86,3000 -120.50,48.87,3000 -120.50,48.89,3000 -120.50,48.90,3000 -120.51,48.91,3000 -120.51,48.92,3000 -120.51,48.94,3000 -120.51,48.95,3000 -120.52,48.96,3000 -120.52,48.98,3000 -120.52,48.99,3000 -120.42,49.07,3000 
          </coordinates>
        </LinearRing>
      </innerBoundaryIs>
  </Polygon>
 </MultiGeometry>
</Placemark>
<Placemark>
  <name>10%</name>
  <visibility>1</visibility>
  <styleUrl>#poly_10</styleUrl>
  <MultiGeometry>
    <Polygon>
      <outerBoundaryIs>
        <LinearRing>
          <coordinates>
-121.82,44.28,2000 -121.80,44.28,2000 -121.79,44.27,2000 -121.77,44.27,2000 -121.76,44.26,2000 -121.74,44.26,2000 -121.72,44.26,2000 -121.71,44.25,2000 -121.70,44.25,2000 -121.68,44.24,2000 -121.67,44.24,2000 -121.66,44.23,2000 -121.65,44.23,2000 -121.64,44.22,2000 -121.63,44.21,2000 -121.63,44.21,2000 -121.62,44.20,2000 -121.62,44.19,2000 -121.62,44.18,2000 -121.62,44.17,2000 -121.62,44.16,2000 -121.62,44.15,2000 -121.63,44.14,2000 -121.63,44.13,2000 -121.63,44.12,2000 -121.64,44.10,2000 -121.65,44.09,2000 -121.65,44.08,2000 -121.66,44.07,2000 -121.67,44.06,2000 -121.68,44.05,2000 -121.69,44.04,2000 -121.70,44.03,2000 -121.71,44.02,2000 -121.71,44.01,2000 -121.72,44.01,2000 -121.73,44.00,2000 -121.74,44.00,2000 -121.75,44.00,2000 -121.76,44.00,2000 -121.76,44.00,2000 -121.77,44.00,2000 -121.78,44.01,2000 -121.79,44.01,2000 -121.80,44.02,2000 -121.81,44.02,2000 -121.82,44.03,2000 -121.83,44.04,2000 -121.84,44.05,2000 -121.85,44.06,2000 -121.86,44.07,2000 -121.87,44.07,2000 -121.88,44.08,2000 -121.89,44.10,2000 -121.91,44.11,2000 -121.92,44.12,2000 -121.93,44.13,2000 -121.94,44.14,2000 -121.95,44.15,2000 -121.82,44.28,2000 
          </coordinates>
        </LinearRing>
      </outerBoundaryIs>
  </Polygon>
 </MultiGeometry>
</Placemark>
<Placemark>
  <name>20%</name>
  <visibility>1</visibility>
  <styleUrl>#poly_20</styleUrl>
  <MultiGeometry>
    <Polygon>
      <outerBoundaryIs>
        <LinearRing>
          <coordinates>
-124.38,50.86,3000 -124.28,50.87,3000 -124.18,50.89,3000 -124.09,50.90,3000 -124.00,50.91,3000 -123.91,50.93,3000 -123.82,50.94,3000 -123.75,50.95,3000 -123.68,50.95,3000 -123.62,50.96,3000 -123.51,50.97,3000 -123.45,50.97,3000 -123.39,50.96,3000 -123.33,50.95,3000 -123.26,50.93,3000 -123.18,50.91,3000 -123.12,50.88,3000 -123.06,50.84,3000 -123.03,50.80,3000 -123.01,50.74,3000 -122.99,50.68,3000 -122.98,50.61,3000 -122.96,50.55,3000 -122.94,50.49,3000 -122.92,50.45,3000 -122.85,50.40,3000 -122.76,50.38,3000 -122.68,50.37,3000 -122.62,50.37,3000 -122.56,50.39,3000 -122.48,50.41,3000 -122.41,50.43,3000 -122.32,50.45,3000 -122.23,50.46,3000 -122.14,50.45,3000 -122.08,50.43,3000 -122.01,50.39,3000 -121.93,50.35,3000 -121.86,50.31,3000 -121.80,50.26,3000 -121.75,50.22,3000 -121.73,50.18,3000 -121.73,50.13,3000 -121.77,50.09,3000 -121.83,50.05,3000 -121.91,50.00,3000 -121.98,49.96,3000 -122.03,49.93,3000 -122.10,49.89,3000 -122.16,49.85,3000 -122.23,49.82,3000 -122.30,49.78,3000 -122.37,49.75,3000 -122.43,49.73,3000 -122.51,49.71,3000 -122.59,49.69,3000 -122.66,49.68,3000 -122.72,49.67,3000 -122.78,49.67,3000 -122.86,49.67,3000 -122.94,49.69,3000 -122.99,49.71,3000 -123.05,49.74,3000 -123.11,49.77,3000 -123.17,49.81,3000 -123.23,49.83,3000 -123.30,49.85,3000 -123.38,49.85,3000 -123.45,49.86,3000 -123.53,49.89,3000 -123.58,49.92,3000 -123.64,49.96,3000 -123.70,50.01,3000 -123.76,50.06,3000 -123.81,50.11,3000 -123.87,50.15,3000 -123.92,50.19,3000 -123.98,50.22,3000 -124.03,50.26,3000 -124.08,50.29,3000 -124.14,50.32,3000 -124.21,50.36,3000 -124.27,50.39,3000 -124.34,50.42,3000 -124.42,50.45,3000 -124.50,50.49,3000 -124.58,50.52,3000 -124.65,50.55,3000 -124.70,50.58,3000 -124.74,50.61,3000 -124.76,50.66,3000 -124.73,50.71,3000 -124.67,50.75,3000 -124.60,50.79,3000 -124.38,50.86,3000 
          </coordinates>
        </LinearRing>
      </outerBoundaryIs>
      <innerBoundaryIs>
        <LinearRing>
          <coordinates>
-124.59,50.70,4000 -124.54,50.73,4000 -124.48,50.76,4000 -124.43,50.78,4000 -124.37,50.80,4000 -124.31,50.81,4000 -124.26,50.82,4000 -124.19,50.83,4000 -124.11,50.84,4000 -124.05,50.85,4000 -123.98,50.86,4000 -123.90,50.87,4000 -123.82,50.88,4000 -123.74,50.89,4000 -123.67,50.90,4000 -123.61,50.91,4000 -123.53,50.92,4000 -123.46,50.92,4000 -123.41,50.93,4000 -123.35,50.92,4000 -123.29,50.91,4000 -123.23,50.90,4000 -123.17,50.87,4000 -123.13,50.83,4000 -123.11,50.79,4000 -123.10,50.75,4000 -123.09,50.70,4000 -123.09,50.64,4000 -123.08,50.59,4000 -123.07,50.54,4000 -123.06,50.50,4000 -123.03,50.44,4000 -122.99,50.40,4000 -122.94,50.36,4000 -122.89,50.33,4000 -122.83,50.30,4000 -122.75,50.27,4000 -122.68,50.26,4000 -122.61,50.25,4000 -122.55,50.26,4000 -122.49,50.29,4000 -122.44,50.32,4000 -122.37,50.34,4000 -122.30,50.34,4000 -122.23,50.34,4000 -122.15,50.34,4000 -122.08,50.33,4000 -122.02,50.31,4000 -121.96,50.28,4000 -121.91,50.24,4000 -121.88,50.20,4000 -121.87,50.16,4000 -121.89,50.12,4000 -121.94,50.08,4000 -122.01,50.04,4000 -122.06,50.02,4000 -122.12,50.01,4000 -122.18,49.99,4000 -122.25,49.97,4000 -122.32,49.95,4000 -122.38,49.93,4000 -122.43,49.90,4000 -122.48,49.86,4000 -122.53,49.82,4000 -122.58,49.78,4000 -122.63,49.75,4000 -122.69,49.73,4000 -122.76,49.73,4000 -122.83,49.74,4000 -122.91,49.76,4000 -122.99,49.78,4000 -123.06,49.81,4000 -123.12,49.83,4000 -123.19,49.86,4000 -123.25,49.89,4000 -123.31,49.93,4000 -123.37,49.96,4000 -123.43,49.99,4000 -123.49,50.01,4000 -123.56,50.04,4000 -123.62,50.06,4000 -123.68,50.09,4000 -123.73,50.12,4000 -123.77,50.15,4000 -123.82,50.18,4000 -123.86,50.21,4000 -123.91,50.24,4000 -123.96,50.27,4000 -124.01,50.30,4000 -124.06,50.33,4000 -124.12,50.36,4000 -124.18,50.39,4000 -124.23,50.42,4000 -124.29,50.45,4000 -124.35,50.48,4000 -124.42,50.51,4000 -124.48,50.54,4000 -124.54,50.57,4000 -124.59,50.70,4000 
          </coordinates>
        </LinearRing>
      </innerBoundaryIs>
  </Polygon>
 </MultiGeometry>
</Placemark>
<Placemark>
  <name>20%</name>
  <visibility>1</visibility>
  <styleUrl>#poly_20</styleUrl>
  <MultiGeometry>
    <Polygon>
      <outerBoundaryIs>
        <LinearRing>
          <coordinates>
-120.42,49.07,3000 -120.40,49.07,3000 -120.38,49.08,3000 -120.37,49.08,3000 -120.35,49.09,3000 -120.33,49.09,3000 -120.31,49.10,3000 -120.29,49.10,3000 -120.28,49.10,3000 -120.26,49.11,3000 -120.24,49.11,3000 -120.23,49.11,3000 -120.21,49.11,3000 -120.19,49.11,3000 -120.18,49.11,3000 -120.16,49.11,3000 -120.14,49.11,3000 -120.12,49.10,3000 -120.10,49.10,3000 -120.08,49.10,3000 -120.07,49.09,3000 -120.05,49.08,3000 -120.04,49.08,3000 -120.03,49.07,3000 -120.02,49.06,3000 -120.01,49.05,3000 -120.01,49.04,3000 -120.01,49.03,3000 -120.01,49.02,3000 -120.01,49.01,3000 -120.02,49.00,3000 -120.02,48.98,3000 -120.03,48.97,3000 -120.03,48.96,3000 -120.04,48.94,3000 -120.05,48.93,3000 -120.05,48.92,3000 -120.06,48.91,3000 -120.07,48.89,3000 -120.07,48.89,3000 -120.08,48.88,3000 -120.08,48.87,3000 -120.08,48.86,3000 -120.10,48.86,3000 -120.11,48.86,3000 -120.12,48.85,3000 -120.14,48.85,3000 -120.15,48.84,3000 -120.17,48.84,3000 -120.19,48.83,3000 -120.20,48.83,3000 -120.22,48.82,3000 -120.24,48.81,3000 -120.26,48.81,3000 -120.28,48.80,3000 -120.30,48.80,3000 -120.31,48.79,3000 -120.33,48.79,3000 -120.34,48.79,3000 -120.36,48.79,3000 -120.38,48.79,3000 -120.40,48.79,3000 -120.42,48.79,3000 -120.43,48.79,3000 -120.45,48.80,3000 -120.46,48.81,3000 -120.47,48.82,3000 -120.48,48.83,3000 -120.48,48.84,3000 -120.49,48.84,3000 -120.49,48.85,3000 -120.49,48.86,3000 -120.50,48.87,3000 -120.50,48.89,3000 -120.50,48.90,3000 -120.51,48.91,3000 -120.51,48.92,3000 -120.51,48.94,3000 -120.51,48.95,3000 -120.52,48.96,3000 -120.52,48.98,3000 -120.52,48.99,3000 -120.42,49.07,3000 
          </coordinates>
        </LinearRing>
      </outerBoundaryIs>
  </Polygon>
 </MultiGeometry>
</Placemark>
<Placemark>
  <name>30%</name>
  <visibility>1</visibility>
  <styleUrl>#poly_30</styleUrl>
  <MultiGeometry>
    <Polygon>
      <outerBoundaryIs>
        <LinearRing>
          <coordinates>
-124.59,50.70,4000 -124.54,50.73,4000 -124.48,50.76,4000 -124.43,50.78,4000 -124.37,50.80,4000 -124.31,50.81,4000 -124.26,50.82,4000 -124.19,50.83,4000 -124.11,50.84,4000 -124.05,50.85,4000 -123.98,50.86,4000 -123.90,50.87,4000 -123.82,50.88,4000 -123.74,50.89,4000 -123.67,50.90,4000 -123.61,50.91,4000 -123.53,50.92,4000 -123.46,50.92,4000 -123.41,50.93,4000 -123.35,50.92,4000 -123.29,50.91,4000 -123.23,50.90,4000 -123.17,50.87,4000 -123.13,50.83,4000 -123.11,50.79,4000 -123.10,50.75,4000 -123.09,50.70,4000 -123.09,50.64,4000 -123.08,50.59,4000 -123.07,50.54,4000 -123.06,50.50,4000 -123.03,50.44,4000 -122.99,50.40,4000 -122.94,50.36,4000 -122.89,50.33,4000 -122.83,50.30,4000 -122.75,50.27,4000 -122.68,50.26,4000 -122.61,50.25,4000 -122.55,50.26,4000 -122.49,50.29,4000 -122.44,50.32,4000 -122.37,50.34,4000 -122.30,50.34,4000 -122.23,50.34,4000 -122.15,50.34,4000 -122.08,50.33,4000 -122.02,50.31,4000 -121.96,50.28,4000 -121.91,50.24,4000 -121.88,50.20,4000 -121.87,50.16,4000 -121.89,50.12,4000 -121.94,50.08,4000 -122.01,50.04,4000 -122.06,50.02,4000 -122.12,50.01,4000 -122.18,49.99,4000 -122.25,49.97,4000 -122.32,49.95,4000 -122.38,49.93,4000 -122.43,49.90,4000 -122.48,49.86,4000 -122.53,49.82,4000 -122.58,49.78,4000 -122.63,49.75,4000 -122.69,49.73,4000 -122.76,49.73,4000 -122.83,49.74,4000 -122.91,49.76,4000 -122.99,49.78,4000 -123.06,49.81,4000 -123.12,49.83,4000 -123.19,49.86,4000 -123.25,49.89,4000 -123.31,49.93,4000 -123.37,49.96,4000 -123.43,49.99,4000 -123.49,50.01,4000 -123.56,50.04,4000 -123.62,50.06,4000 -123.68,50.09,4000 -123.73,50.12,4000 -123.77,50.15,4000 -123.82,50.18,4000 -123.86,50.21,4000 -123.91,50.24,4000 -123.96,50.27,4000 -124.01,50.30,4000 -124.06,50.33,4000 -124.12,50.36,4000 -124.18,50.39,4000 -124.23,50.42,4000 -124.29,50.45,4000 -124.35,50.48,4000 -124.42,50.51,4000 -124.48,50.54,4000 -124.54,50.57,4000 -124.59,50.70,4000 
          </coordinates>
        </LinearRing>
      </outerBoundaryIs>
      <innerBoundaryIs>
        <LinearRing>
          <coordinates>
-122.30,50.14,5000 -122.29,50.14,5000 -122.28,50.15,5000 -122.27,50.15,5000 -122.26,50.15,5000 -122.25,50.15,5000 -122.24,50.16,5000 -122.23,50.16,5000 -122.22,50.16,5000 -122.21,50.16,5000 -122.20,50.17,5000 -122.19,50.17,5000 -122.18,50.17,5000 -122.17,50.17,5000 -122.16,50.18,5000 -122.15,50.18,5000 -122.14,50.18,5000 -122.13,50.18,5000 -122.12,50.18,5000 -122.11,50.18,5000 -122.11,50.19,5000 -122.10,50.19,5000 -122.09,50.19,5000 -122.08,50.19,5000 -122.08,50.19,5000 -122.07,50.19,5000 -122.07,50.19,5000 -122.06,50.19,5000 -122.05,50.19,5000 -122.04,50.19,5000 -122.03,50.18,5000 -122.02,50.18,5000 -122.02,50.17,5000 -122.02,50.16,5000 -122.01,50.16,5000 -122.01,50.15,5000 -122.01,50.14,5000 -122.01,50.14,5000 -122.00,50.13,5000 -122.00,50.13,5000 -122.01,50.12,5000 -122.03,50.12,5000 -122.04,50.12,5000 -122.04,50.12,5000 -122.05,50.12,5000 -122.06,50.12,5000 -122.06,50.12,5000 -122.07,50.12,5000 -122.08,50.11,5000 -122.09,50.11,5000 -122.10,50.11,5000 -122.11,50.11,5000 -122.13,50.11,5000 -122.14,50.11,5000 -122.15,50.11,5000 -122.16,50.11,5000 -122.17,50.11,5000 -122.18,50.11,5000 -122.19,50.11,5000 -122.20,50.11,5000 -122.21,50.10,5000 -122.22,50.10,5000 -122.23,50.10,5000 -122.24,50.10,5000 -122.25,50.10,5000 -122.26,50.10,5000 -122.27,50.10,5000 -122.28,50.10,5000 -122.28,50.10,5000 -122.29,50.10,5000 -122.31,50.10,5000 -122.33,50.10,5000 -122.33,50.10,5000 -122.33,50.10,5000 -122.33,50.10,5000 -122.30,50.14,5000 
          </coordinates>
        </LinearRing>
      </innerBoundaryIs>
      <innerBoundaryIs>
        <LinearRing>
          <coordinates>
-124.34,50.75,5000 -124.29,50.76,5000 -124.24,50.78,5000 -124.20,50.79,5000 -124.15,50.80,5000 -124.10,50.81,5000 -124.05,50.82,5000 -124.00,50.83,5000 -123.95,50.84,5000 -123.90,50.84,5000 -123.85,50.85,5000 -123.79,50.86,5000 -123.73,50.87,5000 -123.66,50.88,5000 -123.60,50.88,5000 -123.55,50.88,5000 -123.49,50.88,5000 -123.43,50.88,5000 -123.38,50.88,5000 -123.33,50.87,5000 -123.27,50.86,5000 -123.23,50.85,5000 -123.20,50.82,5000 -123.18,50.80,5000 -123.16,50.76,5000 -123.14,50.73,5000 -123.13,50.69,5000 -123.12,50.66,5000 -123.12,50.62,5000 -123.13,50.58,5000 -123.13,50.54,5000 -123.13,50.50,5000 -123.11,50.47,5000 -123.09,50.43,5000 -123.07,50.40,5000 -123.04,50.37,5000 -123.01,50.34,5000 -122.97,50.31,5000 -122.93,50.28,5000 -122.89,50.26,5000 -122.86,50.24,5000 -122.81,50.23,5000 -122.76,50.21,5000 -122.73,50.19,5000 -122.68,50.16,5000 -122.64,50.13,5000 -122.61,50.10,5000 -122.58,50.07,5000 -122.57,50.04,5000 -122.57,50.00,5000 -122.57,49.96,5000 -122.58,49.93,5000 -122.59,49.90,5000 -122.61,49.87,5000 -122.63,49.84,5000 -122.67,49.81,5000 -122.71,49.80,5000 -122.76,49.80,5000 -122.82,49.80,5000 -122.88,49.81,5000 -122.94,49.81,5000 -122.98,49.82,5000 -123.02,49.84,5000 -123.05,49.86,5000 -123.08,49.89,5000 -123.12,49.92,5000 -123.16,49.96,5000 -123.19,49.98,5000 -123.23,50.00,5000 -123.26,50.02,5000 -123.31,50.03,5000 -123.36,50.04,5000 -123.41,50.06,5000 -123.48,50.08,5000 -123.53,50.09,5000 -123.57,50.10,5000 -123.60,50.11,5000 -123.63,50.13,5000 -123.66,50.16,5000 -123.70,50.19,5000 -123.74,50.22,5000 -123.78,50.24,5000 -123.83,50.26,5000 -123.87,50.27,5000 -123.92,50.29,5000 -123.96,50.31,5000 -123.99,50.33,5000 -124.03,50.35,5000 -124.07,50.37,5000 -124.12,50.40,5000 -124.17,50.43,5000 -124.21,50.46,5000 -124.25,50.48,5000 -124.30,50.50,5000 -124.33,50.52,5000 -124.37,50.54,5000 -124.42,50.57,5000 -124.48,50.61,5000 -124.53,50.64,5000 -124.34,50.75,5000 
          </coordinates>
        </LinearRing>
      </innerBoundaryIs>
  </Polygon>
 </MultiGeometry>
</Placemark>
<Placemark>
  <name>40%</name>
  <visibility>1</visibility>
  <styleUrl>#poly_40</styleUrl>
  <MultiGeometry>
    <Polygon>
      <outerBoundaryIs>
        <LinearRing>
          <coordinates>
-122.30,50.14,5000 -122.29,50.14,5000 -122.28,50.15,5000 -122.27,50.15,5000 -122.26,50.15,5000 -122.25,50.15,5000 -122.24,50.16,5000 -122.23,50.16,5000 -122.22,50.16,5000 -122.21,50.16,5000 -122.20,50.17,5000 -122.19,50.17,5000 -122.18,50.17,5000 -122.17,50.17,5000 -122.16,50.18,5000 -122.15,50.18,5000 -122.14,50.18,5000 -122.13,50.18,5000 -122.12,50.18,5000 -122.11,50.18,5000 -122.11,50.19,5000 -122.10,50.19,5000 -122.09,50.19,5000 -122.08,50.19,5000 -122.08,50.19,5000 -122.07,50.19,5000 -122.07,50.19,5000 -122.06,50.19,5000 -122.05,50.19,5000 -122.04,50.19,5000 -122.03,50.18,5000 -122.02,50.18,5000 -122.02,50.17,5000 -122.02,50.16,5000 -122.01,50.16,5000 -122.01,50.15,5000 -122.01,50.14,5000 -122.01,50.14,5000 -122.00,50.13,5000 -122.00,50.13,5000 -122.01,50.12,5000 -122.03,50.12,5000 -122.04,50.12,5000 -122.04,50.12,5000 -122.05,50.12,5000 -122.06,50.12,5000 -122.06,50.12,5000 -122.07,50.12,5000 -122.08,50.11,5000 -122.09,50.11,5000 -122.10,50.11,5000 -122.11,50.11,5000 -122.13,50.11,5000 -122.14,50.11,5000 -122.15,50.11,5000 -122.16,50.11,5000 -122.17,50.11,5000 -122.18,50.11,5000 -122.19,50.11,5000 -122.20,50.11,5000 -122.21,50.10,5000 -122.22,50.10,5000 -122.23,50.10,5000 -122.24,50.10,5000 -122.25,50.10,5000 -122.26,50.10,5000 -122.27,50.10,5000 -122.28,50.10,5000 -122.28,50.10,5000 -122.29,50.10,5000 -122.31,50.10,5000 -122.33,50.10,5000 -122.33,50.10,5000 -122.33,50.10,5000 -122.33,50.10,5000 -122.30,50.14,5000 
          </coordinates>
        </LinearRing>
      </outerBoundaryIs>
  </Polygon>
 </MultiGeometry>
</Placemark>
<Placemark>
  <name>40%</name>
  <visibility>1</visibility>
  <styleUrl>#poly_40</styleUrl>
  <MultiGeometry>
    <Polygon>
      <outerBoundaryIs>
        <LinearRing>
          <coordinates>
-124.34,50.75,5000 -124.29,50.76,5000 -124.24,50.78,5000 -124.20,50.79,5000 -124.15,50.80,5000 -124.10,50.81,5000 -124.05,50.82,5000 -124.00,50.83,5000 -123.95,50.84,5000 -123.90,50.84,5000 -123.85,50.85,5000 -123.79,50.86,5000 -123.73,50.87,5000 -123.66,50.88,5000 -123.60,50.88,5000 -123.55,50.88,5000 -123.49,50.88,5000 -123.43,50.88,5000 -123.38,50.88,5000 -123.33,50.87,5000 -123.27,50.86,5000 -123.23,50.85,5000 -123.20,50.82,5000 -123.18,50.80,5000 -123.16,50.76,5000 -123.14,50.73,5000 -123.13,50.69,5000 -123.12,50.66,5000 -123.12,50.62,5000 -123.13,50.58,5000 -123.13,50.54,5000 -123.13,50.50,5000 -123.11,50.47,5000 -123.09,50.43,5000 -123.07,50.40,5000 -123.04,50.37,5000 -123.01,50.34,5000 -122.97,50.31,5000 -122.93,50.28,5000 -122.89,50.26,5000 -122.86,50.24,5000 -122.81,50.23,5000 -122.76,50.21,5000 -122.73,50.19,5000 -122.68,50.16,5000 -122.64,50.13,5000 -122.61,50.10,5000 -122.58,50.07,5000 -122.57,50.04,5000 -122.57,50.00,5000 -122.57,49.96,5000 -122.58,49.93,5000 -122.59,49.90,5000 -122.61,49.87,5000 -122.63,49.84,5000 -122.67,49.81,5000 -122.71,49.80,5000 -122.76,49.80,5000 -122.82,49.80,5000 -122.88,49.81,5000 -122.94,49.81,5000 -122.98,49.82,5000 -123.02,49.84,5000 -123.05,49.86,5000 -123.08,49.89,5000 -123.12,49.92,5000 -123.16,49.96,5000 -123.19,49.98,5000 -123.23,50.00,5000 -123.26,50.02,5000 -123.31,50.03,5000 -123.36,50.04,5000 -123.41,50.06,5000 -123.48,50.08,5000 -123.53,50.09,5000 -123.57,50.10,5000 -123.60,50.11,5000 -123.63,50.13,5000 -123.66,50.16,5000 -123.70,50.19,5000 -123.74,50.22,5000 -123.78,50.24,5000 -123.83,50.26,5000 -123.87,50.27,5000 -123.92,50.29,5000 -123.96,50.31,5000 -123.99,50.33,5000 -124.03,50.35,5000 -124.07,50.37,5000 -124.12,50.40,5000 -124.17,50.43,5000 -124.21,50.46,5000 -124.25,50.48,5000 -124.30,50.50,5000 -124.33,50.52,5000 -124.37,50.54,5000 -124.42,50.57,5000 -124.48,50.61,5000 -124.53,50.64,5000 -124.34,50.75,5000 
          </coordinates>
        </LinearRing>
      </outerBoundaryIs>
      <innerBoundaryIs>
        <LinearRing>
          <coordinates>
-124.32,50.70,6000 -124.27,50.71,6000 -124.23,50.73,6000 -124.18,50.74,6000 -124.14,50.76,6000 -124.09,50.77,6000 -124.04,50.78,6000 -123.99,50.79,6000 -123.94,50.80,6000 -123.89,50.81,6000 -123.84,50.82,6000 -123.79,50.83,6000 -123.74,50.84,6000 -123.69,50.84,6000 -123.64,50.85,6000 -123.59,50.85,6000 -123.53,50.85,6000 -123.47,50.85,6000 -123.41,50.84,6000 -123.36,50.83,6000 -123.32,50.83,6000 -123.28,50.83,6000 -123.26,50.81,6000 -123.24,50.79,6000 -123.22,50.76,6000 -123.21,50.72,6000 -123.19,50.68,6000 -123.18,50.65,6000 -123.18,50.62,6000 -123.19,50.59,6000 -123.20,50.55,6000 -123.20,50.52,6000 -123.20,50.49,6000 -123.19,50.46,6000 -123.17,50.43,6000 -123.14,50.39,6000 -123.11,50.36,6000 -123.09,50.33,6000 -123.07,50.30,6000 -123.05,50.27,6000 -123.03,50.23,6000 -123.01,50.20,6000 -122.98,50.18,6000 -122.94,50.16,6000 -122.89,50.14,6000 -122.85,50.12,6000 -122.81,50.11,6000 -122.77,50.09,6000 -122.75,50.08,6000 -122.73,50.05,6000 -122.72,50.02,6000 -122.72,49.98,6000 -122.73,49.94,6000 -122.73,49.91,6000 -122.73,49.88,6000 -122.74,49.87,6000 -122.77,49.87,6000 -122.80,49.88,6000 -122.85,49.90,6000 -122.90,49.92,6000 -122.95,49.95,6000 -123.00,49.97,6000 -123.03,49.98,6000 -123.06,50.00,6000 -123.09,50.01,6000 -123.14,50.03,6000 -123.19,50.05,6000 -123.25,50.07,6000 -123.29,50.09,6000 -123.33,50.10,6000 -123.37,50.11,6000 -123.41,50.12,6000 -123.45,50.13,6000 -123.50,50.15,6000 -123.55,50.17,6000 -123.59,50.19,6000 -123.63,50.21,6000 -123.66,50.23,6000 -123.69,50.25,6000 -123.73,50.27,6000 -123.79,50.28,6000 -123.84,50.31,6000 -123.90,50.32,6000 -123.94,50.34,6000 -123.97,50.36,6000 -124.00,50.38,6000 -124.03,50.40,6000 -124.07,50.42,6000 -124.11,50.44,6000 -124.15,50.47,6000 -124.19,50.49,6000 -124.22,50.51,6000 -124.25,50.54,6000 -124.27,50.57,6000 -124.29,50.59,6000 -124.32,50.61,6000 -124.36,50.64,6000 -124.40,50.66,6000 -124.32,50.70,6000 
          </coordinates>
        </LinearRing>
      </innerBoundaryIs>
  </Polygon>
 </MultiGeometry>
</Placemark>
<Placemark>
  <name>50%</name>
  <visibility>1</visibility>
  <styleUrl>#poly_50</styleUrl>
  <MultiGeometry>
    <Polygon>
      <outerBoundaryIs>
        <LinearRing>
          <coordinates>
-124.32,50.70,6000 -124.27,50.71,6000 -124.23,50.73,6000 -124.18,50.74,6000 -124.14,50.76,6000 -124.09,50.77,6000 -124.04,50.78,6000 -123.99,50.79,6000 -123.94,50.80,6000 -123.89,50.81,6000 -123.84,50.82,6000 -123.79,50.83,6000 -123.74,50.84,6000 -123.69,50.84,6000 -123.64,50.85,6000 -123.59,50.85,6000 -123.53,50.85,6000 -123.47,50.85,6000 -123.41,50.84,6000 -123.36,50.83,6000 -123.32,50.83,6000 -123.28,50.83,6000 -123.26,50.81,6000 -123.24,50.79,6000 -123.22,50.76,6000 -123.21,50.72,6000 -123.19,50.68,6000 -123.18,50.65,6000 -123.18,50.62,6000 -123.19,50.59,6000 -123.20,50.55,6000 -123.20,50.52,6000 -123.20,50.49,6000 -123.19,50.46,6000 -123.17,50.43,6000 -123.14,50.39,6000 -123.11,50.36,6000 -123.09,50.33,6000 -123.07,50.30,6000 -123.05,50.27,6000 -123.03,50.23,6000 -123.01,50.20,6000 -122.98,50.18,6000 -122.94,50.16,6000 -122.89,50.14,6000 -122.85,50.12,6000 -122.81,50.11,6000 -122.77,50.09,6000 -122.75,50.08,6000 -122.73,50.05,6000 -122.72,50.02,6000 -122.72,49.98,6000 -122.73,49.94,6000 -122.73,49.91,6000 -122.73,49.88,6000 -122.74,49.87,6000 -122.77,49.87,6000 -122.80,49.88,6000 -122.85,49.90,6000 -122.90,49.92,6000 -122.95,49.95,6000 -123.00,49.97,6000 -123.03,49.98,6000 -123.06,50.00,6000 -123.09,50.01,6000 -123.14,50.03,6000 -123.19,50.05,6000 -123.25,50.07,6000 -123.29,50.09,6000 -123.33,50.10,6000 -123.37,50.11,6000 -123.41,50.12,6000 -123.45,50.13,6000 -123.50,50.15,6000 -123.55,50.17,6000 -123.59,50.19,6000 -123.63,50.21,6000 -123.66,50.23,6000 -123.69,50.25,6000 -123.73,50.27,6000 -123.79,50.28,6000 -123.84,50.31,6000 -123.90,50.32,6000 -123.94,50.34,6000 -123.97,50.36,6000 -124.00,50.38,6000 -124.03,50.40,6000 -124.07,50.42,6000 -124.11,50.44,6000 -124.15,50.47,6000 -124.19,50.49,6000 -124.22,50.51,6000 -124.25,50.54,6000 -124.27,50.57,6000 -124.29,50.59,6000 -124.32,50.61,6000 -124.36,50.64,6000 -124.40,50.66,6000 -124.32,50.70,6000 
          </coordinates>
        </LinearRing>
      </outerBoundaryIs>
      <innerBoundaryIs>
        <LinearRing>
          <coordinates>
-124.07,50.73,7000 -124.04,50.74,7000 -124.00,50.74,7000 -123.97,50.75,7000 -123.93,50.76,7000 -123.90,50.77,7000 -123.87,50.77,7000 -123.83,50.78,7000 -123.80,50.79,7000 -123.77,50.79,7000 -123.73,50.80,7000 -123.70,50.80,7000 -123.66,50.81,7000 -123.63,50.81,7000 -123.60,50.82,7000 -123.57,50.82,7000 -123.53,50.82,7000 -123.49,50.82,7000 -123.45,50.82,7000 -123.42,50.81,7000 -123.39,50.81,7000 -123.36,50.80,7000 -123.33,50.79,7000 -123.31,50.77,7000 -123.30,50.75,7000 -123.28,50.73,7000 -123.27,50.71,7000 -123.25,50.69,7000 -123.25,50.67,7000 -123.24,50.65,7000 -123.24,50.63,7000 -123.24,50.61,7000 -123.25,50.59,7000 -123.25,50.57,7000 -123.27,50.55,7000 -123.27,50.53,7000 -123.28,50.50,7000 -123.28,50.48,7000 -123.27,50.46,7000 -123.26,50.44,7000 -123.24,50.41,7000 -123.22,50.39,7000 -123.21,50.37,7000 -123.20,50.34,7000 -123.20,50.32,7000 -123.21,50.30,7000 -123.22,50.28,7000 -123.24,50.26,7000 -123.26,50.23,7000 -123.29,50.21,7000 -123.31,50.20,7000 -123.34,50.19,7000 -123.36,50.18,7000 -123.39,50.18,7000 -123.42,50.19,7000 -123.46,50.21,7000 -123.49,50.22,7000 -123.53,50.24,7000 -123.56,50.26,7000 -123.58,50.27,7000 -123.61,50.28,7000 -123.62,50.27,7000 -123.66,50.28,7000 -123.68,50.29,7000 -123.71,50.30,7000 -123.74,50.31,7000 -123.78,50.33,7000 -123.82,50.34,7000 -123.85,50.36,7000 -123.88,50.37,7000 -123.91,50.38,7000 -123.93,50.39,7000 -123.96,50.40,7000 -123.98,50.41,7000 -124.00,50.42,7000 -124.02,50.44,7000 -124.05,50.45,7000 -124.08,50.47,7000 -124.11,50.48,7000 -124.13,50.50,7000 -124.15,50.52,7000 -124.17,50.54,7000 -124.18,50.56,7000 -124.19,50.58,7000 -124.20,50.60,7000 -124.21,50.62,7000 -124.22,50.64,7000 -124.23,50.66,7000 -124.24,50.68,7000 -124.07,50.73,7000 
          </coordinates>
        </LinearRing>
      </innerBoundaryIs>
  </Polygon>
 </MultiGeometry>
</Placemark>
<Placemark>
  <name>60%</name>
  <visibility>1</visibility>
  <styleUrl>#poly_60</styleUrl>
  <MultiGeometry>
    <Polygon>
      <outerBoundaryIs>
        <LinearRing>
          <coordinates>
-124.07,50.73,7000 -124.04,50.74,7000 -124.00,50.74,7000 -123.97,50.75,7000 -123.93,50.76,7000 -123.90,50.77,7000 -123.87,50.77,7000 -123.83,50.78,7000 -123.80,50.79,7000 -123.77,50.79,7000 -123.73,50.80,7000 -123.70,50.80,7000 -123.66,50.81,7000 -123.63,50.81,7000 -123.60,50.82,7000 -123.57,50.82,7000 -123.53,50.82,7000 -123.49,50.82,7000 -123.45,50.82,7000 -123.42,50.81,7000 -123.39,50.81,7000 -123.36,50.80,7000 -123.33,50.79,7000 -123.31,50.77,7000 -123.30,50.75,7000 -123.28,50.73,7000 -123.27,50.71,7000 -123.25,50.69,7000 -123.25,50.67,7000 -123.24,50.65,7000 -123.24,50.63,7000 -123.24,50.61,7000 -123.25,50.59,7000 -123.25,50.57,7000 -123.27,50.55,7000 -123.27,50.53,7000 -123.28,50.50,7000 -123.28,50.48,7000 -123.27,50.46,7000 -123.26,50.44,7000 -123.24,50.41,7000 -123.22,50.39,7000 -123.21,50.37,7000 -123.20,50.34,7000 -123.20,50.32,7000 -123.21,50.30,7000 -123.22,50.28,7000 -123.24,50.26,7000 -123.26,50.23,7000 -123.29,50.21,7000 -123.31,50.20,7000 -123.34,50.19,7000 -123.36,50.18,7000 -123.39,50.18,7000 -123.42,50.19,7000 -123.46,50.21,7000 -123.49,50.22,7000 -123.53,50.24,7000 -123.56,50.26,7000 -123.58,50.27,7000 -123.61,50.28,7000 -123.62,50.27,7000 -123.66,50.28,7000 -123.68,50.29,7000 -123.71,50.30,7000 -123.74,50.31,7000 -123.78,50.33,7000 -123.82,50.34,7000 -123.85,50.36,7000 -123.88,50.37,7000 -123.91,50.38,7000 -123.93,50.39,7000 -123.96,50.40,7000 -123.98,50.41,7000 -124.00,50.42,7000 -124.02,50.44,7000 -124.05,50.45,7000 -124.08,50.47,7000 -124.11,50.48,7000 -124.13,50.50,7000 -124.15,50.52,7000 -124.17,50.54,7000 -124.18,50.56,7000 -124.19,50.58,7000 -124.20,50.60,7000 -124.21,50.62,7000 -124.22,50.64,7000 -124.23,50.66,7000 -124.24,50.68,7000 -124.07,50.73,7000 
          </coordinates>
        </LinearRing>
      </outerBoundaryIs>
      <innerBoundaryIs>
        <LinearRing>
          <coordinates>
-123.82,50.75,8000 -123.79,50.76,8000 -123.75,50.76,8000 -123.72,50.77,8000 -123.69,50.77,8000 -123.66,50.78,8000 -123.63,50.78,8000 -123.60,50.78,8000 -123.58,50.79,8000 -123.56,50.79,8000 -123.53,50.80,8000 -123.51,50.79,8000 -123.49,50.78,8000 -123.48,50.77,8000 -123.46,50.76,8000 -123.44,50.75,8000 -123.42,50.74,8000 -123.39,50.72,8000 -123.37,50.71,8000 -123.35,50.69,8000 -123.33,50.67,8000 -123.32,50.66,8000 -123.31,50.64,8000 -123.31,50.62,8000 -123.30,50.61,8000 -123.31,50.59,8000 -123.31,50.57,8000 -123.32,50.55,8000 -123.33,50.53,8000 -123.33,50.51,8000 -123.34,50.50,8000 -123.35,50.48,8000 -123.35,50.46,8000 -123.35,50.44,8000 -123.35,50.42,8000 -123.35,50.40,8000 -123.36,50.38,8000 -123.36,50.36,8000 -123.36,50.34,8000 -123.36,50.33,8000 -123.36,50.31,8000 -123.36,50.30,8000 -123.37,50.27,8000 -123.39,50.27,8000 -123.40,50.27,8000 -123.44,50.29,8000 -123.46,50.29,8000 -123.48,50.30,8000 -123.51,50.30,8000 -123.54,50.31,8000 -123.57,50.32,8000 -123.60,50.32,8000 -123.63,50.33,8000 -123.66,50.33,8000 -123.68,50.34,8000 -123.71,50.35,8000 -123.73,50.36,8000 -123.76,50.36,8000 -123.78,50.37,8000 -123.80,50.38,8000 -123.82,50.39,8000 -123.84,50.40,8000 -123.86,50.41,8000 -123.89,50.42,8000 -123.91,50.44,8000 -123.94,50.45,8000 -123.96,50.46,8000 -123.98,50.47,8000 -124.00,50.48,8000 -124.03,50.49,8000 -124.05,50.50,8000 -124.07,50.51,8000 -124.08,50.53,8000 -124.08,50.54,8000 -124.08,50.56,8000 -124.08,50.58,8000 -124.08,50.60,8000 -124.08,50.62,8000 -124.07,50.64,8000 -124.07,50.66,8000 -124.06,50.68,8000 -124.06,50.69,8000 -124.04,50.71,8000 -124.01,50.71,8000 -123.82,50.75,8000 
          </coordinates>
        </LinearRing>
      </innerBoundaryIs>
  </Polygon>
 </MultiGeometry>
</Placemark>
<Placemark>
  <name>70%</name>
  <visibility>1</visibility>
  <styleUrl>#poly_70</styleUrl>
  <MultiGeometry>
    <Polygon>
      <outerBoundaryIs>
        <LinearRing>
          <coordinates>
-123.82,50.75,8000 -123.79,50.76,8000 -123.75,50.76,8000 -123.72,50.77,8000 -123.69,50.77,8000 -123.66,50.78,8000 -123.63,50.78,8000 -123.60,50.78,8000 -123.58,50.79,8000 -123.56,50.79,8000 -123.53,50.80,8000 -123.51,50.79,8000 -123.49,50.78,8000 -123.48,50.77,8000 -123.46,50.76,8000 -123.44,50.75,8000 -123.42,50.74,8000 -123.39,50.72,8000 -123.37,50.71,8000 -123.35,50.69,8000 -123.33,50.67,8000 -123.32,50.66,8000 -123.31,50.64,8000 -123.31,50.62,8000 -123.30,50.61,8000 -123.31,50.59,8000 -123.31,50.57,8000 -123.32,50.55,8000 -123.33,50.53,8000 -123.33,50.51,8000 -123.34,50.50,8000 -123.35,50.48,8000 -123.35,50.46,8000 -123.35,50.44,8000 -123.35,50.42,8000 -123.35,50.40,8000 -123.36,50.38,8000 -123.36,50.36,8000 -123.36,50.34,8000 -123.36,50.33,8000 -123.36,50.31,8000 -123.36,50.30,8000 -123.37,50.27,8000 -123.39,50.27,8000 -123.40,50.27,8000 -123.44,50.29,8000 -123.46,50.29,8000 -123.48,50.30,8000 -123.51,50.30,8000 -123.54,50.31,8000 -123.57,50.32,8000 -123.60,50.32,8000 -123.63,50.33,8000 -123.66,50.33,8000 -123.68,50.34,8000 -123.71,50.35,8000 -123.73,50.36,8000 -123.76,50.36,8000 -123.78,50.37,8000 -123.80,50.38,8000 -123.82,50.39,8000 -123.84,50.40,8000 -123.86,50.41,8000 -123.89,50.42,8000 -123.91,50.44,8000 -123.94,50.45,8000 -123.96,50.46,8000 -123.98,50.47,8000 -124.00,50.48,8000 -124.03,50.49,8000 -124.05,50.50,8000 -124.07,50.51,8000 -124.08,50.53,8000 -124.08,50.54,8000 -124.08,50.56,8000 -124.08,50.58,8000 -124.08,50.60,8000 -124.08,50.62,8000 -124.07,50.64,8000 -124.07,50.66,8000 -124.06,50.68,8000 -124.06,50.69,8000 -124.04,50.71,8000 -124.01,50.71,8000 -123.82,50.75,8000 
          </coordinates>
        </LinearRing>
      </outerBoundaryIs>
      <innerBoundaryIs>
        <LinearRing>
          <coordinates>
-124.01,50.56,9000 -124.00,50.57,9000 -123.99,50.58,9000 -123.97,50.59,9000 -123.96,50.60,9000 -123.95,50.61,9000 -123.94,50.62,9000 -123.92,50.63,9000 -123.91,50.64,9000 -123.90,50.65,9000 -123.88,50.66,9000 -123.87,50.67,9000 -123.86,50.67,9000 -123.84,50.68,9000 -123.83,50.69,9000 -123.81,50.69,9000 -123.80,50.70,9000 -123.78,50.71,9000 -123.76,50.71,9000 -123.75,50.72,9000 -123.73,50.72,9000 -123.71,50.72,9000 -123.69,50.73,9000 -123.67,50.73,9000 -123.65,50.73,9000 -123.63,50.73,9000 -123.61,50.73,9000 -123.59,50.73,9000 -123.57,50.73,9000 -123.56,50.73,9000 -123.54,50.73,9000 -123.52,50.73,9000 -123.50,50.72,9000 -123.49,50.71,9000 -123.47,50.71,9000 -123.45,50.70,9000 -123.44,50.69,9000 -123.43,50.68,9000 -123.41,50.67,9000 -123.40,50.65,9000 -123.40,50.64,9000 -123.39,50.63,9000 -123.39,50.62,9000 -123.39,50.61,9000 -123.39,50.60,9000 -123.39,50.58,9000 -123.39,50.57,9000 -123.39,50.56,9000 -123.40,50.54,9000 -123.40,50.53,9000 -123.41,50.52,9000 -123.41,50.50,9000 -123.42,50.49,9000 -123.42,50.48,9000 -123.42,50.47,9000 -123.43,50.46,9000 -123.43,50.45,9000 -123.43,50.43,9000 -123.42,50.42,9000 -123.42,50.42,9000 -123.44,50.41,9000 -123.45,50.41,9000 -123.47,50.41,9000 -123.49,50.40,9000 -123.51,50.40,9000 -123.53,50.40,9000 -123.55,50.40,9000 -123.57,50.40,9000 -123.60,50.39,9000 -123.62,50.39,9000 -123.64,50.39,9000 -123.66,50.39,9000 -123.68,50.39,9000 -123.69,50.39,9000 -123.71,50.39,9000 -123.72,50.39,9000 -123.73,50.40,9000 -123.75,50.41,9000 -123.76,50.41,9000 -123.77,50.42,9000 -123.79,50.43,9000 -123.80,50.44,9000 -123.82,50.44,9000 -123.84,50.45,9000 -123.86,50.46,9000 -123.88,50.47,9000 -123.90,50.48,9000 -123.91,50.49,9000 -123.93,50.50,9000 -123.95,50.51,9000 -123.96,50.51,9000 -123.98,50.52,9000 -123.99,50.53,9000 -124.00,50.53,9000 -124.03,50.55,9000 -124.02,50.54,9000 -124.01,50.56,9000 
          </coordinates>
        </LinearRing>
      </innerBoundaryIs>
  </Polygon>
 </MultiGeometry>
</Placemark>
<Placemark>
  <name>80%</name>
  <visibility>1</visibility>
  <styleUrl>#poly_80</styleUrl>
  <MultiGeometry>
    <Polygon>
      <outerBoundaryIs>
        <LinearRing>
          <coordinates>
-124.01,50.56,9000 -124.00,50.57,9000 -123.99,50.58,9000 -123.97,50.59,9000 -123.96,50.60,9000 -123.95,50.61,9000 -123.94,50.62,9000 -123.92,50.63,9000 -123.91,50.64,9000 -123.90,50.65,9000 -123.88,50.66,9000 -123.87,50.67,9000 -123.86,50.67,9000 -123.84,50.68,9000 -123.83,50.69,9000 -123.81,50.69,9000 -123.80,50.70,9000 -123.78,50.71,9000 -123.76,50.71,9000 -123.75,50.72,9000 -123.73,50.72,9000 -123.71,50.72,9000 -123.69,50.73,9000 -123.67,50.73,9000 -123.65,50.73,9000 -123.63,50.73,9000 -123.61,50.73,9000 -123.59,50.73,9000 -123.57,50.73,9000 -123.56,50.73,9000 -123.54,50.73,9000 -123.52,50.73,9000 -123.50,50.72,9000 -123.49,50.71,9000 -123.47,50.71,9000 -123.45,50.70,9000 -123.44,50.69,9000 -123.43,50.68,9000 -123.41,50.67,9000 -123.40,50.65,9000 -123.40,50.64,9000 -123.39,50.63,9000 -123.39,50.62,9000 -123.39,50.61,9000 -123.39,50.60,9000 -123.39,50.58,9000 -123.39,50.57,9000 -123.39,50.56,9000 -123.40,50.54,9000 -123.40,50.53,9000 -123.41,50.52,9000 -123.41,50.50,9000 -123.42,50.49,9000 -123.42,50.48,9000 -123.42,50.47,9000 -123.43,50.46,9000 -123.43,50.45,9000 -123.43,50.43,9000 -123.42,50.42,9000 -123.42,50.42,9000 -123.44,50.41,9000 -123.45,50.41,9000 -123.47,50.41,9000 -123.49,50.40,9000 -123.51,50.40,9000 -123.53,50.40,9000 -123.55,50.40,9000 -123.57,50.40,9000 -123.60,50.39,9000 -123.62,50.39,9000 -123.64,50.39,9000 -123.66,50.39,9000 -123.68,50.39,9000 -123.69,50.39,9000 -123.71,50.39,9000 -123.72,50.39,9000 -123.73,50.40,9000 -123.75,50.41,9000 -123.76,50.41,9000 -123.77,50.42,9000 -123.79,50.43,9000 -123.80,50.44,9000 -123.82,50.44,9000 -123.84,50.45,9000 -123.86,50.46,9000 -123.88,50.47,9000 -123.90,50.48,9000 -123.91,50.49,9000 -123.93,50.50,9000 -123.95,50.51,9000 -123.96,50.51,9000 -123.98,50.52,9000 -123.99,50.53,9000 -124.00,50.53,9000 -124.03,50.55,9000 -124.02,50.54,9000 -124.01,50.56,9000 
          </coordinates>
        </LinearRing>
      </outerBoundaryIs>
      <innerBoundaryIs>
        <LinearRing>
          <coordinates>
-123.78,50.64,10000 -123.77,50.64,10000 -123.75,50.64,10000 -123.74,50.64,10000 -123.72,50.64,10000 -123.71,50.64,10000 -123.69,50.64,10000 -123.68,50.64,10000 -123.66,50.64,10000 -123.65,50.64,10000 -123.64,50.64,10000 -123.62,50.64,10000 -123.61,50.64,10000 -123.60,50.64,10000 -123.59,50.64,10000 -123.58,50.64,10000 -123.57,50.64,10000 -123.55,50.64,10000 -123.55,50.64,10000 -123.54,50.64,10000 -123.53,50.64,10000 -123.52,50.64,10000 -123.50,50.64,10000 -123.48,50.64,10000 -123.47,50.63,10000 -123.47,50.63,10000 -123.47,50.62,10000 -123.47,50.61,10000 -123.47,50.61,10000 -123.46,50.60,10000 -123.46,50.59,10000 -123.46,50.59,10000 -123.47,50.58,10000 -123.48,50.57,10000 -123.49,50.56,10000 -123.50,50.56,10000 -123.50,50.55,10000 -123.51,50.55,10000 -123.52,50.54,10000 -123.53,50.54,10000 -123.54,50.53,10000 -123.55,50.53,10000 -123.56,50.52,10000 -123.57,50.52,10000 -123.58,50.51,10000 -123.60,50.51,10000 -123.61,50.50,10000 -123.62,50.50,10000 -123.63,50.49,10000 -123.64,50.49,10000 -123.66,50.48,10000 -123.67,50.48,10000 -123.68,50.48,10000 -123.69,50.47,10000 -123.70,50.47,10000 -123.71,50.47,10000 -123.72,50.47,10000 -123.73,50.47,10000 -123.74,50.47,10000 -123.75,50.47,10000 -123.76,50.48,10000 -123.77,50.48,10000 -123.78,50.48,10000 -123.79,50.49,10000 -123.80,50.49,10000 -123.81,50.50,10000 -123.82,50.50,10000 -123.83,50.51,10000 -123.84,50.52,10000 -123.85,50.52,10000 -123.86,50.53,10000 -123.86,50.54,10000 -123.87,50.55,10000 -123.88,50.55,10000 -123.89,50.56,10000 -123.78,50.64,10000 
          </coordinates>
        </LinearRing>
      </innerBoundaryIs>
  </Polygon>
 </MultiGeometry>
</Placemark>
<Placemark>
  <name>90%</name>
  <visibility>1</visibility>
  <styleUrl>#poly_90</styleUrl>
  <MultiGeometry>
    <Polygon>
      <outerBoundaryIs>
        <LinearRing>
          <coordinates>
-123.78,50.64,10000 -123.77,50.64,10000 -123.75,50.64,10000 -123.74,50.64,10000 -123.72,50.64,10000 -123.71,50.64,10000 -123.69,50.64,10000 -123.68,50.64,10000 -123.66,50.64,10000 -123.65,50.64,10000 -123.64,50.64,10000 -123.62,50.64,10000 -123.61,50.64,10000 -123.60,50.64,10000 -123.59,50.64,10000 -123.58,50.64,10000 -123.57,50.64,10000 -123.55,50.64,10000 -123.55,50.64,10000 -123.54,50.64,10000 -123.53,50.64,10000 -123.52,50.64,10000 -123.50,50.64,10000 -123.48,50.64,10000 -123.47,50.63,10000 -123.47,50.63,10000 -123.47,50.62,10000 -123.47,50.61,10000 -123.47,50.61,10000 -123.46,50.60,10000 -123.46,50.59,10000 -123.46,50.59,10000 -123.47,50.58,10000 -123.48,50.57,10000 -123.49,50.56,10000 -123.50,50.56,10000 -123.50,50.55,10000 -123.51,50.55,10000 -123.52,50.54,10000 -123.53,50.54,10000 -123.54,50.53,10000 -123.55,50.53,10000 -123.56,50.52,10000 -123.57,50.52,10000 -123.58,50.51,10000 -123.60,50.51,10000 -123.61,50.50,10000 -123.62,50.50,10000 -123.63,50.49,10000 -123.64,50.49,10000 -123.66,50.48,10000 -123.67,50.48,10000 -123.68,50.48,10000 -123.69,50.47,10000 -123.70,50.47,10000 -123.71,50.47,10000 -123.72,50.47,10000 -123.73,50.47,10000 -123.74,50.47,10000 -123.75,50.47,10000 -123.76,50.48,10000 -123.77,50.48,10000 -123.78,50.48,10000 -123.79,50.49,10000 -123.80,50.49,10000 -123.81,50.50,10000 -123.82,50.50,10000 -123.83,50.51,10000 -123.84,50.52,10000 -123.85,50.52,10000 -123.86,50.53,10000 -123.86,50.54,10000 -123.87,50.55,10000 -123.88,50.55,10000 -123.89,50.56,10000 -123.78,50.64,10000 
          </coordinates>
        </LinearRing>
      </outerBoundaryIs>
  </Polygon>
 </MultiGeometry>
</Placemark>
    </Folder>
  </Document>
</kml>
