<?xml version="1.0" encoding="UTF-8"?>
<kml xmlns="http://www.opengis.net/kml/2.2">
<Document id="prb_72hsnow_ge02_f072">
<name>WPC 72-Hr Prob of Snow > 2"</name>
  <open>1</open>
  <snippet>Valid 12Z 09/11/2026 - 12Z 09/14/2026</snippet>
  <description></description>
    <Style id="poly_1">
        <IconStyle>
           <color>00000000</color>
           <scale>1</scale>
        </IconStyle>
        <LabelStyle>
            <color>ff26478b</color>
            <scale>0.8</scale>
        </LabelStyle>
        <LineStyle>
            <color>6626478b</color>
            <width>0</width>
        </LineStyle>
	<PolyStyle>
            <color>6626478b</color>
	</PolyStyle>
        <BalloonStyle>
            <text>
                <![CDATA[ <table border=0 width="300"><tr><td style="font-size:10pt;">
                During this forecast period, there is a <b>1-5%</b> probability of snowfall exceeding the depicted amount in the enclosed area.
                <br/><br/>
                *<span style="font-size:8pt;">Note that in cases where this contour is embedded within a 5% contour, 
                the probability of snowfall exceeding the depicted amount is &lt;1%.</span>
                </td></tr></table>]]>
            </text>
        </BalloonStyle>
    </Style>

    <Style id="poly_5">
        <IconStyle>
           <color>00000000</color>
           <scale>1</scale>
        </IconStyle>
        <LabelStyle>
            <color>ff00eeee</color>
            <scale>0.8</scale>
        </LabelStyle>
        <LineStyle>
            <color>6600eeee</color>
            <width>0.4</width>
        </LineStyle>
	<PolyStyle>
	    <color>6600eeee</color>
	</PolyStyle>
        <BalloonStyle>
            <text>
                <![CDATA[ <table border=0 width="300"><tr><td style="font-size:10pt;">
                During this forecast period, there is a <b>5-10%</b> probability of snowfall exceeding the depicted amount in the enclosed area.
                <br/><br/>
                *<span style="font-size:8pt;">Note that in cases where this contour is embedded within a 10% contour, 
                the probability of snowfall exceeding the depicted amount is &lt;5%.</span>
                </td></tr></table>]]>
            </text>
        </BalloonStyle>
    </Style>

    <Style id="poly_10">
        <IconStyle>
           <color>00000000</color>
           <scale>1</scale>
        </IconStyle>
        <LabelStyle>
            <color>ff00ff7f</color>
            <scale>0.8</scale>
        </LabelStyle>
        <LineStyle>
            <color>6600ff7f</color>
            <width>0.4</width>
        </LineStyle>
	<PolyStyle>
	    <color>6600ff7f</color>
	</PolyStyle>
        <BalloonStyle>
            <text>
                <![CDATA[ <table border=0 width="300"><tr><td style="font-size:10pt;">
                During this forecast period, there is a <b>10-20%</b> probability of snowfall exceeding the depicted amount in the enclosed area.
                <br/><br/>
                *<span style="font-size:8pt;">Note that in cases where this contour is embedded within a 20% contour, 
                the probability of snowfall exceeding the depicted amount is &lt;10%.</span>
                </td></tr></table>]]>
            </text>
        </BalloonStyle>
    </Style>
    
    <Style id="poly_20">
        <IconStyle>
            <color>00000000</color>
            <scale>1</scale>
        </IconStyle>
        <LabelStyle>
            <color>ff00cd00</color>
            <scale>0.8</scale>
        </LabelStyle>
        <LineStyle>
            <color>6600cd00</color>
	    <width>0.4</width>
	</LineStyle>
	<PolyStyle>
	    <color>6600cd00</color>
	</PolyStyle>
        <BalloonStyle>
            <text>
                <![CDATA[ <table border=0 width="300"><tr><td style="font-size:10pt;">
                During this forecast period, there is a <b>20-30%</b> probability of snowfall exceeding the depicted amount in the enclosed area.
                <br/><br/>
                *<span style="font-size:8pt;">Note that in cases where this contour is embedded within a 30% contour, 
                the probability of snowfall exceeding the depicted amount is &lt;20%.</span>
                </td></tr></table>]]>
            </text>
        </BalloonStyle>
    </Style>

    <Style id="poly_30">
        <IconStyle>
            <color>00000000</color>
            <scale>1</scale>
        </IconStyle>
        <LabelStyle>
            <color>ff008b00</color>
            <scale>0.8</scale>
        </LabelStyle>
        <LineStyle>
            <color>66008b00</color>
	    <width>0.4</width>
	</LineStyle>
	<PolyStyle>
	    <color>66008b00</color>
	</PolyStyle>
        <BalloonStyle>
            <text>
                <![CDATA[ <table border=0 width="300"><tr><td style="font-size:10pt;">
                During this forecast period, there is a <b>30-40%</b> probability of snowfall exceeding the depicted amount in the enclosed area.
                <br/><br/>
                *<span style="font-size:8pt;">Note that in cases where this contour is embedded within a 40% contour, 
                the probability of snowfall exceeding the depicted amount is &lt;30%.</span>
                </td></tr></table>]]>
            </text>
        </BalloonStyle>
    </Style>

    <Style id="poly_40">
        <IconStyle>
            <color>00000000</color>
            <scale>1</scale>
        </IconStyle>
        <LabelStyle>
            <color>ff8b4e10</color>
            <scale>0.8</scale>
        </LabelStyle>
        <LineStyle>
            <color>668b4e10</color>
	    <width>0.4</width>
	</LineStyle>
	<PolyStyle>
	    <color>668b4e10</color>
	</PolyStyle>
        <BalloonStyle>
            <text>
                <![CDATA[ <table border=0 width="300"><tr><td style="font-size:10pt;">
                During this forecast period, there is a <b>40-50%</b> probability of snowfall exceeding the depicted amount in the enclosed area.
                <br/><br/>
                *<span style="font-size:8pt;">Note that in cases where this contour is embedded within a 50% contour, 
                the probability of snowfall exceeding the depicted amount is &lt;40%.</span>
                </td></tr></table>]]>
            </text>
        </BalloonStyle>
    </Style>

    <Style id="poly_50">
        <IconStyle>
            <color>00000000</color>
            <scale>1</scale>
        </IconStyle>
        <LabelStyle>
            <color>ffff901e</color>
            <scale>0.8</scale>
        </LabelStyle>
        <LineStyle>
            <color>66ff901e</color>
	    <width>0.4</width>
	</LineStyle>
	<PolyStyle>
	    <color>66ff901e</color>
	</PolyStyle>
        <BalloonStyle>
            <text>
                <![CDATA[ <table border=0 width="300"><tr><td style="font-size:10pt;">
                During this forecast period, there is a <b>50-60%</b> probability of snowfall exceeding the depicted amount in the enclosed area.
                <br/><br/>
                *<span style="font-size:8pt;">Note that in cases where this contour is embedded within a 60% contour, 
                the probability of snowfall exceeding the depicted amount is &lt;50%.</span>
                </td></tr></table>]]>
            </text>
        </BalloonStyle>
    </Style>

    <Style id="poly_60">
        <IconStyle>
            <color>00000000</color>
            <scale>1</scale>
        </IconStyle>
        <LabelStyle>
            <color>ffeeb200</color>
            <scale>0.8</scale>
        </LabelStyle>
        <LineStyle>
            <color>66eeb200</color>
	    <width>0.4</width>
	</LineStyle>
	<PolyStyle>
	    <color>66eeb200</color>
	</PolyStyle>
        <BalloonStyle>
            <text>
                <![CDATA[ <table border=0 width="300"><tr><td style="font-size:10pt;">
                During this forecast period, there is a <b>60-70%</b> probability of snowfall exceeding the depicted amount in the enclosed area.
                <br/><br/>
                *<span style="font-size:8pt;">Note that in cases where this contour is embedded within a 70% contour, 
                the probability of snowfall exceeding the depicted amount is &lt;60%.</span>
                </td></tr></table>]]>
            </text>
        </BalloonStyle>
    </Style>
    
    <Style id="poly_70">
        <IconStyle>
            <color>00000000</color>
            <scale>1</scale>
        </IconStyle>
        <LabelStyle>
            <color>ffeeee00</color>
            <scale>0.8</scale>
        </LabelStyle>
        <LineStyle>
            <color>66eeee00</color>
	    <width>0.4</width>
	</LineStyle>
	<PolyStyle>
	    <color>66eeee00</color>
	</PolyStyle>
        <BalloonStyle>
            <text>
                <![CDATA[ <table border=0 width="300"><tr><td style="font-size:10pt;">
                During this forecast period, there is a <b>70-80%</b> probability of snowfall exceeding the depicted amount in the enclosed area.
                <br/><br/>
                *<span style="font-size:8pt;">Note that in cases where this contour is embedded within a 80% contour, 
                the probability of snowfall exceeding the depicted amount is &lt;70%.</span>
                </td></tr></table>]]>
            </text>
        </BalloonStyle>
    </Style>

    <Style id="poly_80">
        <IconStyle>
            <color>00000000</color>
            <scale>1</scale>
        </IconStyle>
        <LabelStyle>
            <color>ff4782ff</color>
            <scale>0.8</scale>
        </LabelStyle>
        <LineStyle>
            <color>664782ff</color>
	    <width>0.4</width>
	</LineStyle>
	<PolyStyle>
	    <color>664782ff</color>
	</PolyStyle>
        <BalloonStyle>
            <text>
                <![CDATA[ <table border=0 width="300"><tr><td style="font-size:10pt;">
                During this forecast period, there is a <b>80-90%</b> probability of snowfall exceeding the depicted amount in the enclosed area.
                <br/><br/>
                *<span style="font-size:8pt;">Note that in cases where this contour is embedded within a 90% contour, 
                the probability of snowfall exceeding the depicted amount is &lt;80%.</span>
                </td></tr></table>]]>
            </text>
        </BalloonStyle>
    </Style>

    <Style id="poly_90">
        <IconStyle>
            <color>00000000</color>
            <scale>1</scale>
        </IconStyle>
        <LabelStyle>
            <color>ff2c2cee</color>
            <scale>0.8</scale>
        </LabelStyle>
        <LineStyle>
            <color>662c2cee</color>
            <width>0.4</width>
        </LineStyle>
        <PolyStyle>
            <color>662c2cee</color>
        </PolyStyle>
        <BalloonStyle>
            <text>
                <![CDATA[ <table border=0 width="300"><tr><td style="font-size:10pt;">
                During this forecast period, there is a <b>90-95%</b> probability of snowfall exceeding the depicted amount in the enclosed area.
                <br/><br/>
                *<span style="font-size:8pt;">Note that in cases where this contour is embedded within a 95% contour, 
                the probability of snowfall exceeding the depicted amount is &lt;90%.</span>
                </td></tr></table>]]>
            </text>
        </BalloonStyle>
    </Style>

    <Style id="poly_95">
        <IconStyle>
            <color>00000000</color>
            <scale>1</scale>
        </IconStyle>
        <LabelStyle>
            <color>ff00008b</color>
            <scale>0.8</scale>
        </LabelStyle>
        <LineStyle>
            <color>6600008b</color>
	    <width>0.4</width>
	</LineStyle>
	<PolyStyle>
	    <color>6600008b</color>
	</PolyStyle>
        <BalloonStyle>
            <text>
                <![CDATA[ <table border=0 width="300"><tr><td style="font-size:10pt;">
                The probability of snowfall exceeding the depicted amount is <b>&ge;95%</b> in the enclosed area during this forecast period.
                </td></tr></table>]]>
            </text>
        </BalloonStyle>
    </Style>

  <ScreenOverlay>
    <name>Logos</name>
    <description></description>
    <Icon>
      <href>https://www.wpc.ncep.noaa.gov/images/noaa_and_nws_logo.png</href>
    </Icon>
   <overlayXY x=".01" y=".01" xunits="fraction" yunits="fraction" />
   <screenXY x=".01" y=".01" xunits="fraction" yunits="fraction" />
   <rotationXY x="0" y="0" xunits="fraction" yunits="fraction" />
   <size x="-1" y="-1" xunits="fraction" yunits="fraction" />
  </ScreenOverlay>
    <Folder>
      <name>Snow Probabilities</name>
      <open>0</open>
<Placemark>
  <name>1%</name>
  <visibility>1</visibility>
  <styleUrl>#poly_1</styleUrl>
  <MultiGeometry>
    <Polygon>
      <outerBoundaryIs>
        <LinearRing>
          <coordinates>
-115.21,50.92,0 -115.14,50.94,0 -115.07,50.96,0 -115.01,50.97,0 -114.96,50.98,0 -114.90,50.97,0 -114.86,50.96,0 -114.82,50.94,0 -114.76,50.93,0 -114.69,50.92,0 -114.65,50.90,0 -114.60,50.88,0 -114.56,50.85,0 -114.51,50.83,0 -114.48,50.80,0 -114.45,50.77,0 -114.44,50.73,0 -114.43,50.69,0 -114.42,50.65,0 -114.41,50.61,0 -114.41,50.56,0 -114.41,50.52,0 -114.40,50.48,0 -114.38,50.45,0 -114.35,50.43,0 -114.31,50.41,0 -114.27,50.39,0 -114.22,50.37,0 -114.17,50.34,0 -114.14,50.31,0 -114.11,50.27,0 -114.09,50.22,0 -114.07,50.18,0 -114.06,50.14,0 -114.06,50.10,0 -114.07,50.06,0 -114.08,50.02,0 -114.10,49.99,0 -114.13,49.96,0 -114.16,49.93,0 -114.20,49.91,0 -114.25,49.89,0 -114.31,49.87,0 -114.38,49.85,0 -114.44,49.84,0 -114.50,49.83,0 -114.57,49.82,0 -114.63,49.81,0 -114.70,49.82,0 -114.76,49.83,0 -114.81,49.86,0 -114.87,49.89,0 -114.92,49.91,0 -114.96,49.93,0 -114.99,49.96,0 -115.03,49.98,0 -115.07,50.02,0 -115.13,50.05,0 -115.17,50.08,0 -115.21,50.11,0 -115.25,50.14,0 -115.29,50.16,0 -115.33,50.18,0 -115.37,50.19,0 -115.41,50.22,0 -115.44,50.24,0 -115.47,50.27,0 -115.50,50.30,0 -115.53,50.34,0 -115.55,50.37,0 -115.57,50.41,0 -115.58,50.45,0 -115.59,50.50,0 -115.59,50.54,0 -115.59,50.58,0 -115.59,50.62,0 -115.58,50.66,0 -115.57,50.70,0 -115.55,50.73,0 -115.52,50.76,0 -115.49,50.79,0 -115.45,50.82,0 -115.40,50.84,0 -115.35,50.86,0 -115.30,50.88,0 -115.24,50.90,0 -115.21,50.92,0 
          </coordinates>
        </LinearRing>
      </outerBoundaryIs>
      <innerBoundaryIs>
        <LinearRing>
          <coordinates>
-115.18,50.80,1000 -115.14,50.81,1000 -115.09,50.82,1000 -115.05,50.83,1000 -115.01,50.84,1000 -114.97,50.84,1000 -114.93,50.84,1000 -114.88,50.83,1000 -114.83,50.82,1000 -114.79,50.80,1000 -114.75,50.78,1000 -114.73,50.76,1000 -114.70,50.74,1000 -114.68,50.71,1000 -114.66,50.68,1000 -114.64,50.66,1000 -114.63,50.63,1000 -114.62,50.60,1000 -114.62,50.57,1000 -114.62,50.54,1000 -114.62,50.51,1000 -114.62,50.48,1000 -114.62,50.46,1000 -114.60,50.43,1000 -114.57,50.41,1000 -114.55,50.39,1000 -114.52,50.38,1000 -114.50,50.36,1000 -114.47,50.33,1000 -114.44,50.31,1000 -114.41,50.29,1000 -114.38,50.26,1000 -114.35,50.24,1000 -114.32,50.21,1000 -114.30,50.19,1000 -114.29,50.16,1000 -114.30,50.13,1000 -114.32,50.11,1000 -114.35,50.08,1000 -114.39,50.05,1000 -114.42,50.02,1000 -114.45,50.00,1000 -114.47,49.98,1000 -114.48,49.98,1000 -114.51,49.98,1000 -114.55,49.98,1000 -114.60,49.98,1000 -114.65,49.99,1000 -114.70,49.99,1000 -114.74,50.00,1000 -114.78,50.01,1000 -114.82,50.03,1000 -114.85,50.06,1000 -114.88,50.08,1000 -114.91,50.10,1000 -114.94,50.12,1000 -114.97,50.14,1000 -114.99,50.16,1000 -115.02,50.18,1000 -115.04,50.20,1000 -115.07,50.22,1000 -115.09,50.23,1000 -115.13,50.25,1000 -115.16,50.27,1000 -115.19,50.28,1000 -115.22,50.30,1000 -115.26,50.32,1000 -115.29,50.35,1000 -115.32,50.37,1000 -115.34,50.39,1000 -115.36,50.42,1000 -115.37,50.44,1000 -115.38,50.47,1000 -115.38,50.50,1000 -115.38,50.53,1000 -115.38,50.56,1000 -115.37,50.59,1000 -115.36,50.62,1000 -115.34,50.65,1000 -115.32,50.67,1000 -115.30,50.70,1000 -115.28,50.73,1000 -115.18,50.80,1000 
          </coordinates>
        </LinearRing>
      </innerBoundaryIs>
  </Polygon>
 </MultiGeometry>
</Placemark>
<Placemark>
  <name>1%</name>
  <visibility>1</visibility>
  <styleUrl>#poly_1</styleUrl>
  <MultiGeometry>
    <Polygon>
      <outerBoundaryIs>
        <LinearRing>
          <coordinates>
-115.88,51.51,0 -115.86,51.52,0 -115.83,51.53,0 -115.81,51.54,0 -115.79,51.55,0 -115.76,51.56,0 -115.74,51.57,0 -115.71,51.57,0 -115.69,51.58,0 -115.67,51.59,0 -115.64,51.59,0 -115.61,51.59,0 -115.59,51.60,0 -115.56,51.60,0 -115.53,51.60,0 -115.50,51.60,0 -115.47,51.60,0 -115.44,51.60,0 -115.42,51.59,0 -115.39,51.59,0 -115.37,51.59,0 -115.34,51.59,0 -115.32,51.58,0 -115.30,51.58,0 -115.28,51.57,0 -115.26,51.56,0 -115.24,51.55,0 -115.22,51.54,0 -115.21,51.53,0 -115.19,51.52,0 -115.17,51.50,0 -115.15,51.49,0 -115.13,51.47,0 -115.11,51.46,0 -115.10,51.44,0 -115.09,51.43,0 -115.08,51.41,0 -115.08,51.39,0 -115.08,51.38,0 -115.08,51.36,0 -115.08,51.34,0 -115.09,51.32,0 -115.10,51.30,0 -115.11,51.29,0 -115.12,51.27,0 -115.13,51.25,0 -115.14,51.24,0 -115.15,51.22,0 -115.17,51.21,0 -115.18,51.20,0 -115.20,51.19,0 -115.22,51.18,0 -115.24,51.17,0 -115.27,51.16,0 -115.29,51.15,0 -115.31,51.15,0 -115.34,51.14,0 -115.36,51.14,0 -115.39,51.13,0 -115.41,51.13,0 -115.44,51.12,0 -115.47,51.12,0 -115.49,51.12,0 -115.52,51.12,0 -115.55,51.12,0 -115.58,51.12,0 -115.61,51.13,0 -115.64,51.13,0 -115.67,51.14,0 -115.70,51.14,0 -115.73,51.15,0 -115.75,51.15,0 -115.77,51.16,0 -115.79,51.16,0 -115.81,51.16,0 -115.82,51.17,0 -115.83,51.18,0 -115.85,51.19,0 -115.87,51.20,0 -115.89,51.21,0 -115.91,51.23,0 -115.93,51.24,0 -115.96,51.26,0 -115.98,51.27,0 -115.99,51.29,0 -116.00,51.31,0 -116.01,51.32,0 -116.01,51.33,0 -116.01,51.35,0 -116.01,51.36,0 -116.00,51.38,0 -115.99,51.40,0 -115.98,51.41,0 -115.96,51.43,0 -115.95,51.44,0 -115.93,51.46,0 -115.92,51.47,0 -115.90,51.49,0 -115.88,51.51,0 
          </coordinates>
        </LinearRing>
      </outerBoundaryIs>
  </Polygon>
 </MultiGeometry>
</Placemark>
<Placemark>
  <name>5%</name>
  <visibility>1</visibility>
  <styleUrl>#poly_5</styleUrl>
  <MultiGeometry>
    <Polygon>
      <outerBoundaryIs>
        <LinearRing>
          <coordinates>
-115.18,50.80,1000 -115.14,50.81,1000 -115.09,50.82,1000 -115.05,50.83,1000 -115.01,50.84,1000 -114.97,50.84,1000 -114.93,50.84,1000 -114.88,50.83,1000 -114.83,50.82,1000 -114.79,50.80,1000 -114.75,50.78,1000 -114.73,50.76,1000 -114.70,50.74,1000 -114.68,50.71,1000 -114.66,50.68,1000 -114.64,50.66,1000 -114.63,50.63,1000 -114.62,50.60,1000 -114.62,50.57,1000 -114.62,50.54,1000 -114.62,50.51,1000 -114.62,50.48,1000 -114.62,50.46,1000 -114.60,50.43,1000 -114.57,50.41,1000 -114.55,50.39,1000 -114.52,50.38,1000 -114.50,50.36,1000 -114.47,50.33,1000 -114.44,50.31,1000 -114.41,50.29,1000 -114.38,50.26,1000 -114.35,50.24,1000 -114.32,50.21,1000 -114.30,50.19,1000 -114.29,50.16,1000 -114.30,50.13,1000 -114.32,50.11,1000 -114.35,50.08,1000 -114.39,50.05,1000 -114.42,50.02,1000 -114.45,50.00,1000 -114.47,49.98,1000 -114.48,49.98,1000 -114.51,49.98,1000 -114.55,49.98,1000 -114.60,49.98,1000 -114.65,49.99,1000 -114.70,49.99,1000 -114.74,50.00,1000 -114.78,50.01,1000 -114.82,50.03,1000 -114.85,50.06,1000 -114.88,50.08,1000 -114.91,50.10,1000 -114.94,50.12,1000 -114.97,50.14,1000 -114.99,50.16,1000 -115.02,50.18,1000 -115.04,50.20,1000 -115.07,50.22,1000 -115.09,50.23,1000 -115.13,50.25,1000 -115.16,50.27,1000 -115.19,50.28,1000 -115.22,50.30,1000 -115.26,50.32,1000 -115.29,50.35,1000 -115.32,50.37,1000 -115.34,50.39,1000 -115.36,50.42,1000 -115.37,50.44,1000 -115.38,50.47,1000 -115.38,50.50,1000 -115.38,50.53,1000 -115.38,50.56,1000 -115.37,50.59,1000 -115.36,50.62,1000 -115.34,50.65,1000 -115.32,50.67,1000 -115.30,50.70,1000 -115.28,50.73,1000 -115.18,50.80,1000 
          </coordinates>
        </LinearRing>
      </outerBoundaryIs>
      <innerBoundaryIs>
        <LinearRing>
          <coordinates>
-115.15,50.68,2000 -115.12,50.69,2000 -115.08,50.70,2000 -115.05,50.71,2000 -115.01,50.71,2000 -114.98,50.72,2000 -114.95,50.72,2000 -114.93,50.72,2000 -114.90,50.72,2000 -114.87,50.71,2000 -114.85,50.70,2000 -114.82,50.69,2000 -114.80,50.67,2000 -114.79,50.65,2000 -114.77,50.63,2000 -114.76,50.61,2000 -114.75,50.59,2000 -114.75,50.57,2000 -114.75,50.55,2000 -114.75,50.53,2000 -114.76,50.51,2000 -114.76,50.49,2000 -114.77,50.47,2000 -114.77,50.45,2000 -114.77,50.43,2000 -114.78,50.41,2000 -114.79,50.38,2000 -114.80,50.36,2000 -114.81,50.34,2000 -114.81,50.32,2000 -114.81,50.30,2000 -114.80,50.28,2000 -114.78,50.27,2000 -114.76,50.25,2000 -114.73,50.24,2000 -114.69,50.22,2000 -114.66,50.21,2000 -114.62,50.20,2000 -114.59,50.19,2000 -114.56,50.18,2000 -114.53,50.17,2000 -114.51,50.16,2000 -114.50,50.14,2000 -114.51,50.13,2000 -114.52,50.13,2000 -114.56,50.14,2000 -114.58,50.15,2000 -114.60,50.16,2000 -114.62,50.17,2000 -114.64,50.19,2000 -114.67,50.21,2000 -114.69,50.22,2000 -114.72,50.24,2000 -114.75,50.26,2000 -114.77,50.27,2000 -114.80,50.28,2000 -114.83,50.29,2000 -114.86,50.30,2000 -114.89,50.31,2000 -114.93,50.31,2000 -114.96,50.32,2000 -114.99,50.32,2000 -115.02,50.33,2000 -115.05,50.33,2000 -115.07,50.34,2000 -115.10,50.35,2000 -115.13,50.36,2000 -115.15,50.38,2000 -115.17,50.39,2000 -115.19,50.41,2000 -115.20,50.43,2000 -115.21,50.44,2000 -115.22,50.46,2000 -115.23,50.48,2000 -115.23,50.50,2000 -115.24,50.52,2000 -115.24,50.55,2000 -115.25,50.57,2000 -115.15,50.68,2000 
          </coordinates>
        </LinearRing>
      </innerBoundaryIs>
  </Polygon>
 </MultiGeometry>
</Placemark>
<Placemark>
  <name>10%</name>
  <visibility>1</visibility>
  <styleUrl>#poly_10</styleUrl>
  <MultiGeometry>
    <Polygon>
      <outerBoundaryIs>
        <LinearRing>
          <coordinates>
-115.15,50.68,2000 -115.12,50.69,2000 -115.08,50.70,2000 -115.05,50.71,2000 -115.01,50.71,2000 -114.98,50.72,2000 -114.95,50.72,2000 -114.93,50.72,2000 -114.90,50.72,2000 -114.87,50.71,2000 -114.85,50.70,2000 -114.82,50.69,2000 -114.80,50.67,2000 -114.79,50.65,2000 -114.77,50.63,2000 -114.76,50.61,2000 -114.75,50.59,2000 -114.75,50.57,2000 -114.75,50.55,2000 -114.75,50.53,2000 -114.76,50.51,2000 -114.76,50.49,2000 -114.77,50.47,2000 -114.77,50.45,2000 -114.77,50.43,2000 -114.78,50.41,2000 -114.79,50.38,2000 -114.80,50.36,2000 -114.81,50.34,2000 -114.81,50.32,2000 -114.81,50.30,2000 -114.80,50.28,2000 -114.78,50.27,2000 -114.76,50.25,2000 -114.73,50.24,2000 -114.69,50.22,2000 -114.66,50.21,2000 -114.62,50.20,2000 -114.59,50.19,2000 -114.56,50.18,2000 -114.53,50.17,2000 -114.51,50.16,2000 -114.50,50.14,2000 -114.51,50.13,2000 -114.52,50.13,2000 -114.56,50.14,2000 -114.58,50.15,2000 -114.60,50.16,2000 -114.62,50.17,2000 -114.64,50.19,2000 -114.67,50.21,2000 -114.69,50.22,2000 -114.72,50.24,2000 -114.75,50.26,2000 -114.77,50.27,2000 -114.80,50.28,2000 -114.83,50.29,2000 -114.86,50.30,2000 -114.89,50.31,2000 -114.93,50.31,2000 -114.96,50.32,2000 -114.99,50.32,2000 -115.02,50.33,2000 -115.05,50.33,2000 -115.07,50.34,2000 -115.10,50.35,2000 -115.13,50.36,2000 -115.15,50.38,2000 -115.17,50.39,2000 -115.19,50.41,2000 -115.20,50.43,2000 -115.21,50.44,2000 -115.22,50.46,2000 -115.23,50.48,2000 -115.23,50.50,2000 -115.24,50.52,2000 -115.24,50.55,2000 -115.25,50.57,2000 -115.15,50.68,2000 
          </coordinates>
        </LinearRing>
      </outerBoundaryIs>
  </Polygon>
 </MultiGeometry>
</Placemark>
    </Folder>
  </Document>
</kml>
